,Unnamed: 0,id,place_name,address_name,road_address_name,phone,category_group_name,category_name,place_url,naver_keyword,naver_map_url
0,0,1492599844,블루보틀 성수 카페,서울 성동구 성수동1가 656-302,서울 성동구 아차산로 7,1533-6906,카페,음식점 > 카페,http://place.map.kakao.com/1492599844,블루보틀 성수 카페,https://m.place.naver.com/restaurant/1725895520
1,1,1301973155,할아버지공장,서울 성동구 성수동2가 309-133,서울 성동구 성수이로7가길 9,010-3934-2301,카페,음식점 > 카페 > 테마카페 > 디저트카페,http://place.map.kakao.com/1301973155,할아버지공장,https://m.place.naver.com/restaurant/1945220263
2,2,1783691580,쎈느,서울 성동구 성수동2가 314-2,서울 성동구 연무장5길 20,02-469-2122,카페,음식점 > 카페,http://place.map.kakao.com/1783691580,쎈느,https://m.place.naver.com/restaurant/37879684
3,3,145791269,어니언컴퍼니,서울 성동구 성수동2가 277-135,서울 성동구 아차산로9길 8,02-1644-1941,카페,음식점 > 카페 > 테마카페 > 디저트카페,http://place.map.kakao.com/145791269,어니언컴퍼니,https://m.place.naver.com/restaurant/1925852247
4,4,1128989913,대림창고,서울 성동구 성수동2가 322-32,서울 성동구 성수이로 78,02-499-9669,카페,음식점 > 카페 > 테마카페 > 갤러리카페,http://place.map.kakao.com/1128989913,대림창고,https://m.place.naver.com/restaurant/37910590
5,5,286483883,센터커피 서울숲점,서울 성동구 성수동1가 685-478,서울 성동구 서울숲2길 28-11,070-8868-2008,카페,음식점 > 카페 > 커피전문점,http://place.map.kakao.com/286483883,센터커피 서울숲점,https://m.place.naver.com/restaurant/523890342
6,6,1460620031,인더매스 마장,서울 성동구 마장동 776-1,서울 성동구 마장로 270,,카페,음식점 > 카페,http://place.map.kakao.com/1460620031,인더매스 마장,https://m.place.naver.com/restaurant/1042933481
7,7,547570065,옹근달,서울 성동구 성수동2가 333-52,서울 성동구 성수이로7길 41-1,02-499-5012,카페,음식점 > 카페,http://place.map.kakao.com/547570065,옹근달,https://m.place.naver.com/restaurant/1395030685
8,8,1842536906,멜로워 성수플래그쉽,서울 성동구 성수동2가 333-94,서울 성동구 성수이로7길 39,02-499-1112,카페,음식점 > 카페,http://place.map.kakao.com/1842536906,멜로워 성수플래그쉽,https://m.place.naver.com/restaurant/365858525
9,9,1302549042,로우키,서울 성동구 성수동2가 302-16,서울 성동구 연무장3길 6,,카페,음식점 > 카페,http://place.map.kakao.com/1302549042,로우키,https://m.place.naver.com/restaurant/1393890643
10,10,1942841428,카페포제,서울 성동구 성수동2가 315-41,서울 성동구 연무장9길 7,070-8830-5994,카페,음식점 > 카페,http://place.map.kakao.com/1942841428,카페포제,https://m.place.naver.com/restaurant/1509451621
11,11,1038283810,마를리,서울 성동구 성수동2가 315-55,서울 성동구 연무장길 47,02-467-0303,카페,음식점 > 카페,http://place.map.kakao.com/1038283810,마를리,https://m.place.naver.com/restaurant/742676592
12,12,940053669,로우커피스탠드,서울 성동구 성수동1가 8-16,서울 성동구 왕십리로4길 28-2,,카페,음식점 > 카페 > 커피전문점,http://place.map.kakao.com/940053669,로우커피스탠드,https://m.place.naver.com/restaurant/1168698330
13,13,144753549,카페 연무장,서울 성동구 성수동2가 310-63,서울 성동구 연무장길 36,,카페,음식점 > 카페,http://place.map.kakao.com/144753549,카페 연무장,https://m.place.naver.com/restaurant/1247415883
14,14,939851854,카멜 성수점,서울 성동구 성수동2가 570-1,서울 성동구 성덕정19길 6,,카페,음식점 > 카페,http://place.map.kakao.com/939851854,카멜 성수점,https://m.place.naver.com/restaurant/1353346572
15,15,1530215201,체다앤올리,서울 성동구 성수동1가 685-696,서울 성동구 서울숲2길 32-14,02-468-1003,카페,음식점 > 카페,http://place.map.kakao.com/1530215201,체다앤올리,https://m.place.naver.com/restaurant/343496704
16,16,301697712,도렐 육지3호점,서울 성동구 성수동2가 314-12,서울 성동구 연무장7길 11,02-516-3675,카페,음식점 > 카페,http://place.map.kakao.com/301697712,도렐 육지3호점,https://m.place.naver.com/restaurant/1432336976
17,17,2111826352,우디집,서울 성동구 성수동1가 311,서울 성동구 둘레9길 17,,카페,음식점 > 카페,http://place.map.kakao.com/2111826352,우디집,https://m.place.naver.com/restaurant/1241418880
18,18,231920851,갈십리,서울 성동구 행당동 19-108,서울 성동구 마조로 15-11,010-9034-3939,카페,음식점 > 카페 > 테마카페 > 디저트카페,http://place.map.kakao.com/231920851,갈십리,https://m.place.naver.com/restaurant/1800066032
19,19,2030999010,아우프글렛 금호점,서울 성동구 금호동1가 1801-4,서울 성동구 독서당로51길 7,,카페,음식점 > 카페,http://place.map.kakao.com/2030999010,아우프글렛 금호점,https://m.place.naver.com/restaurant/1897342038
20,20,857915820,글로우,서울 성동구 성수동2가 277-24,서울 성동구 아차산로9길 20,,카페,음식점 > 카페,http://place.map.kakao.com/857915820,글로우,https://m.place.naver.com/restaurant/548365578
21,21,2077832392,슈퍼말차 성수,서울 성동구 성수동1가 668-9,서울 성동구 서울숲6길 19,070-4632-3882,카페,음식점 > 카페,http://place.map.kakao.com/2077832392,슈퍼말차 성수,https://m.place.naver.com/restaurant/1643583812
22,22,27347404,치카치카,서울 성동구 성수동2가 512,서울 성동구 성수이로3길 16,02-498-3478,카페,음식점 > 카페 > 테마카페 > 디저트카페,http://place.map.kakao.com/27347404,치카치카,https://m.place.naver.com/restaurant/37191703
23,23,328817208,5TO7,서울 성동구 성수동1가 668-136,서울 성동구 서울숲2길 44-13,,카페,음식점 > 카페,http://place.map.kakao.com/328817208,5TO7,https://m.place.naver.com/restaurant/1508243090
24,24,935863440,서울앵무새,서울 성동구 성수동1가 685-213,서울 성동구 서울숲9길 3,070-8846-2025,카페,음식점 > 카페 > 테마카페 > 디저트카페,http://place.map.kakao.com/935863440,서울앵무새,https://m.place.naver.com/restaurant/1240372795
25,25,912676778,하루&원데이,서울 성동구 성수동2가 314-5,서울 성동구 아차산로 92,02-499-9303,카페,음식점 > 카페 > 테마카페 > 디저트카페,http://place.map.kakao.com/912676778,하루&원데이,https://m.place.naver.com/restaurant/1688402533
26,26,13498947,봉순이네다락방,서울 성동구 행당동 292-33,서울 성동구 왕십리로21길 13-1,02-2299-8057,카페,음식점 > 카페 > 커피전문점,http://place.map.kakao.com/13498947,봉순이네다락방,https://m.place.naver.com/restaurant/33875306
27,27,1941275560,메쉬커피,서울 성동구 성수동1가 685-307,서울 성동구 서울숲길 43,02-464-7078,카페,음식점 > 카페 > 커피전문점,http://place.map.kakao.com/1941275560,메쉬커피,https://m.place.naver.com/restaurant/36276169
28,28,732470230,카페오롯,서울 성동구 성수동1가 13-428,서울 성동구 상원6나길 7,02-2292-2223,카페,음식점 > 카페,http://place.map.kakao.com/732470230,카페오롯,https://m.place.naver.com/restaurant/352011330
29,29,1599571399,어라운드데이,서울 성동구 성수동1가 685-483,서울 성동구 서울숲2길 24-1,0507-1431-8310,카페,음식점 > 카페,http://place.map.kakao.com/1599571399,어라운드데이,https://m.place.naver.com/restaurant/1344027015
30,30,1431819126,훔볼트,서울 성동구 성수동2가 325-19,서울 성동구 성수이로 58,,카페,음식점 > 카페 > 테마카페 > 디저트카페,http://place.map.kakao.com/1431819126,훔볼트,https://m.place.naver.com/restaurant/1504347953
31,31,1904529538,업사이드커피 뚝섬점,서울 성동구 성수동1가 7-8,서울 성동구 왕십리로14길 19-1,070-8691-4107,카페,음식점 > 카페,http://place.map.kakao.com/1904529538,업사이드커피 뚝섬점,https://m.place.naver.com/restaurant/1906998225
32,32,1742492568,키커피컴퍼니 왕십리점,서울 성동구 행당동 130-115,서울 성동구 왕십리로 269,070-4230-8893,카페,음식점 > 카페 > 커피전문점,http://place.map.kakao.com/1742492568,키커피컴퍼니 왕십리점,https://m.place.naver.com/restaurant/1976097430
33,33,1653556066,카페온화 성수점,서울 성동구 성수동2가 302-4,서울 성동구 아차산로 78,,카페,음식점 > 카페,http://place.map.kakao.com/1653556066,카페온화 성수점,https://m.place.naver.com/restaurant/1321493330
34,34,1623291829,오우드,서울 성동구 성수동2가 272-3,서울 성동구 연무장길 101-1,070-8844-0196,카페,음식점 > 카페 > 테마카페 > 디저트카페,http://place.map.kakao.com/1623291829,오우드,https://m.place.naver.com/restaurant/1833313793
35,35,1325105515,카페노티드 성수,서울 성동구 성수동2가 316-5,서울 성동구 연무장길 29-17,,카페,음식점 > 카페,http://place.map.kakao.com/1325105515,카페노티드 성수,https://m.place.naver.com/restaurant/1706561777
36,36,17657824,하루노유키,서울 성동구 성수동1가 685-428,서울 성동구 서울숲2길 17,02-548-8662,카페,음식점 > 카페 > 테마카페 > 디저트카페,http://place.map.kakao.com/17657824,하루노유키,https://m.place.naver.com/restaurant/30811760
37,37,483722570,마크69,서울 성동구 성수동1가 685-350,서울 성동구 서울숲길 24,,카페,음식점 > 카페,http://place.map.kakao.com/483722570,마크69,https://m.place.naver.com/restaurant/1430646260
38,38,505665583,맛차차,서울 성동구 성수동1가 685-450,서울 성동구 서울숲2길 18-11,010-9719-8707,카페,음식점 > 카페,http://place.map.kakao.com/505665583,맛차차,https://m.place.naver.com/restaurant/1467953783
39,39,431464251,아이오쓰리 성수사거리점,서울 성동구 성수동2가 275-54,서울 성동구 성수이로20길 60,02-497-1961,카페,음식점 > 카페,http://place.map.kakao.com/431464251,아이오쓰리 성수사거리점,https://m.place.naver.com/restaurant/1918028699
40,40,753723493,브라운팟,서울 성동구 행당동 286-19,서울 성동구 무학봉28길 16,02-2299-7796,카페,음식점 > 카페,http://place.map.kakao.com/753723493,브라운팟,https://m.place.naver.com/restaurant/1165635472
41,41,1431120740,플디 성수점,서울 성동구 성수동1가 13-156,서울 성동구 상원길 44,,카페,음식점 > 카페,http://place.map.kakao.com/1431120740,플디 성수점,https://m.place.naver.com/restaurant/1030413970
42,42,1300323227,카페노티드 피치스,서울 성동구 성수동2가 301-16,서울 성동구 연무장3길 9,0507-1405-9377,카페,음식점 > 카페 > 테마카페 > 디저트카페,http://place.map.kakao.com/1300323227,카페노티드 피치스,https://m.place.naver.com/restaurant/1022973489
43,43,1501931765,천상가옥,서울 성동구 성수동2가 322-4,서울 성동구 성수이로14길 14,,카페,음식점 > 카페,http://place.map.kakao.com/1501931765,천상가옥,https://m.place.naver.com/restaurant/1074358103
44,44,157479724,비엔나커피하우스 서울숲역점,서울 성동구 성수동1가 656-447,서울 성동구 왕십리로 66,070-4628-5049,카페,음식점 > 카페,http://place.map.kakao.com/157479724,비엔나커피하우스 서울숲역점,https://m.place.naver.com/restaurant/1320858854
45,45,1431819126,훔볼트,서울 성동구 성수동2가 325-19,서울 성동구 성수이로 58,,카페,음식점 > 카페 > 테마카페 > 디저트카페,http://place.map.kakao.com/1431819126,훔볼트,https://m.place.naver.com/restaurant/1504347953
46,46,1904529538,업사이드커피 뚝섬점,서울 성동구 성수동1가 7-8,서울 성동구 왕십리로14길 19-1,070-8691-4107,카페,음식점 > 카페,http://place.map.kakao.com/1904529538,업사이드커피 뚝섬점,https://m.place.naver.com/restaurant/1906998225
47,47,1742492568,키커피컴퍼니 왕십리점,서울 성동구 행당동 130-115,서울 성동구 왕십리로 269,070-4230-8893,카페,음식점 > 카페 > 커피전문점,http://place.map.kakao.com/1742492568,키커피컴퍼니 왕십리점,https://m.place.naver.com/restaurant/1976097430
48,48,1653556066,카페온화 성수점,서울 성동구 성수동2가 302-4,서울 성동구 아차산로 78,,카페,음식점 > 카페,http://place.map.kakao.com/1653556066,카페온화 성수점,https://m.place.naver.com/restaurant/1321493330
49,49,1623291829,오우드,서울 성동구 성수동2가 272-3,서울 성동구 연무장길 101-1,070-8844-0196,카페,음식점 > 카페 > 테마카페 > 디저트카페,http://place.map.kakao.com/1623291829,오우드,https://m.place.naver.com/restaurant/1833313793
50,50,1325105515,카페노티드 성수,서울 성동구 성수동2가 316-5,서울 성동구 연무장길 29-17,,카페,음식점 > 카페,http://place.map.kakao.com/1325105515,카페노티드 성수,https://m.place.naver.com/restaurant/1706561777
51,51,17657824,하루노유키,서울 성동구 성수동1가 685-428,서울 성동구 서울숲2길 17,02-548-8662,카페,음식점 > 카페 > 테마카페 > 디저트카페,http://place.map.kakao.com/17657824,하루노유키,https://m.place.naver.com/restaurant/30811760
52,52,483722570,마크69,서울 성동구 성수동1가 685-350,서울 성동구 서울숲길 24,,카페,음식점 > 카페,http://place.map.kakao.com/483722570,마크69,https://m.place.naver.com/restaurant/1430646260
53,53,505665583,맛차차,서울 성동구 성수동1가 685-450,서울 성동구 서울숲2길 18-11,010-9719-8707,카페,음식점 > 카페,http://place.map.kakao.com/505665583,맛차차,https://m.place.naver.com/restaurant/1467953783
54,54,431464251,아이오쓰리 성수사거리점,서울 성동구 성수동2가 275-54,서울 성동구 성수이로20길 60,02-497-1961,카페,음식점 > 카페,http://place.map.kakao.com/431464251,아이오쓰리 성수사거리점,https://m.place.naver.com/restaurant/1918028699
55,55,753723493,브라운팟,서울 성동구 행당동 286-19,서울 성동구 무학봉28길 16,02-2299-7796,카페,음식점 > 카페,http://place.map.kakao.com/753723493,브라운팟,https://m.place.naver.com/restaurant/1165635472
56,56,1431120740,플디 성수점,서울 성동구 성수동1가 13-156,서울 성동구 상원길 44,,카페,음식점 > 카페,http://place.map.kakao.com/1431120740,플디 성수점,https://m.place.naver.com/restaurant/1030413970
57,57,1300323227,카페노티드 피치스,서울 성동구 성수동2가 301-16,서울 성동구 연무장3길 9,0507-1405-9377,카페,음식점 > 카페 > 테마카페 > 디저트카페,http://place.map.kakao.com/1300323227,카페노티드 피치스,https://m.place.naver.com/restaurant/1022973489
58,58,1501931765,천상가옥,서울 성동구 성수동2가 322-4,서울 성동구 성수이로14길 14,,카페,음식점 > 카페,http://place.map.kakao.com/1501931765,천상가옥,https://m.place.naver.com/restaurant/1074358103
59,59,157479724,비엔나커피하우스 서울숲역점,서울 성동구 성수동1가 656-447,서울 성동구 왕십리로 66,070-4628-5049,카페,음식점 > 카페,http://place.map.kakao.com/157479724,비엔나커피하우스 서울숲역점,https://m.place.naver.com/restaurant/1320858854
60,60,1431819126,훔볼트,서울 성동구 성수동2가 325-19,서울 성동구 성수이로 58,,카페,음식점 > 카페 > 테마카페 > 디저트카페,http://place.map.kakao.com/1431819126,훔볼트,https://m.place.naver.com/restaurant/1504347953
61,61,1904529538,업사이드커피 뚝섬점,서울 성동구 성수동1가 7-8,서울 성동구 왕십리로14길 19-1,070-8691-4107,카페,음식점 > 카페,http://place.map.kakao.com/1904529538,업사이드커피 뚝섬점,https://m.place.naver.com/restaurant/1906998225
62,62,1742492568,키커피컴퍼니 왕십리점,서울 성동구 행당동 130-115,서울 성동구 왕십리로 269,070-4230-8893,카페,음식점 > 카페 > 커피전문점,http://place.map.kakao.com/1742492568,키커피컴퍼니 왕십리점,https://m.place.naver.com/restaurant/1976097430
63,63,1653556066,카페온화 성수점,서울 성동구 성수동2가 302-4,서울 성동구 아차산로 78,,카페,음식점 > 카페,http://place.map.kakao.com/1653556066,카페온화 성수점,https://m.place.naver.com/restaurant/1321493330
64,64,1623291829,오우드,서울 성동구 성수동2가 272-3,서울 성동구 연무장길 101-1,070-8844-0196,카페,음식점 > 카페 > 테마카페 > 디저트카페,http://place.map.kakao.com/1623291829,오우드,https://m.place.naver.com/restaurant/1833313793
65,65,1325105515,카페노티드 성수,서울 성동구 성수동2가 316-5,서울 성동구 연무장길 29-17,,카페,음식점 > 카페,http://place.map.kakao.com/1325105515,카페노티드 성수,https://m.place.naver.com/restaurant/1706561777
66,66,17657824,하루노유키,서울 성동구 성수동1가 685-428,서울 성동구 서울숲2길 17,02-548-8662,카페,음식점 > 카페 > 테마카페 > 디저트카페,http://place.map.kakao.com/17657824,하루노유키,https://m.place.naver.com/restaurant/30811760
67,67,483722570,마크69,서울 성동구 성수동1가 685-350,서울 성동구 서울숲길 24,,카페,음식점 > 카페,http://place.map.kakao.com/483722570,마크69,https://m.place.naver.com/restaurant/1430646260
68,68,505665583,맛차차,서울 성동구 성수동1가 685-450,서울 성동구 서울숲2길 18-11,010-9719-8707,카페,음식점 > 카페,http://place.map.kakao.com/505665583,맛차차,https://m.place.naver.com/restaurant/1467953783
69,69,431464251,아이오쓰리 성수사거리점,서울 성동구 성수동2가 275-54,서울 성동구 성수이로20길 60,02-497-1961,카페,음식점 > 카페,http://place.map.kakao.com/431464251,아이오쓰리 성수사거리점,https://m.place.naver.com/restaurant/1918028699
70,70,753723493,브라운팟,서울 성동구 행당동 286-19,서울 성동구 무학봉28길 16,02-2299-7796,카페,음식점 > 카페,http://place.map.kakao.com/753723493,브라운팟,https://m.place.naver.com/restaurant/1165635472
71,71,1431120740,플디 성수점,서울 성동구 성수동1가 13-156,서울 성동구 상원길 44,,카페,음식점 > 카페,http://place.map.kakao.com/1431120740,플디 성수점,https://m.place.naver.com/restaurant/1030413970
72,72,1300323227,카페노티드 피치스,서울 성동구 성수동2가 301-16,서울 성동구 연무장3길 9,0507-1405-9377,카페,음식점 > 카페 > 테마카페 > 디저트카페,http://place.map.kakao.com/1300323227,카페노티드 피치스,https://m.place.naver.com/restaurant/1022973489
73,73,1501931765,천상가옥,서울 성동구 성수동2가 322-4,서울 성동구 성수이로14길 14,,카페,음식점 > 카페,http://place.map.kakao.com/1501931765,천상가옥,https://m.place.naver.com/restaurant/1074358103
74,74,157479724,비엔나커피하우스 서울숲역점,서울 성동구 성수동1가 656-447,서울 성동구 왕십리로 66,070-4628-5049,카페,음식점 > 카페,http://place.map.kakao.com/157479724,비엔나커피하우스 서울숲역점,https://m.place.naver.com/restaurant/1320858854
75,75,1431819126,훔볼트,서울 성동구 성수동2가 325-19,서울 성동구 성수이로 58,,카페,음식점 > 카페 > 테마카페 > 디저트카페,http://place.map.kakao.com/1431819126,훔볼트,https://m.place.naver.com/restaurant/1504347953
76,76,1904529538,업사이드커피 뚝섬점,서울 성동구 성수동1가 7-8,서울 성동구 왕십리로14길 19-1,070-8691-4107,카페,음식점 > 카페,http://place.map.kakao.com/1904529538,업사이드커피 뚝섬점,https://m.place.naver.com/restaurant/1906998225
77,77,1742492568,키커피컴퍼니 왕십리점,서울 성동구 행당동 130-115,서울 성동구 왕십리로 269,070-4230-8893,카페,음식점 > 카페 > 커피전문점,http://place.map.kakao.com/1742492568,키커피컴퍼니 왕십리점,https://m.place.naver.com/restaurant/1976097430
78,78,1653556066,카페온화 성수점,서울 성동구 성수동2가 302-4,서울 성동구 아차산로 78,,카페,음식점 > 카페,http://place.map.kakao.com/1653556066,카페온화 성수점,https://m.place.naver.com/restaurant/1321493330
79,79,1623291829,오우드,서울 성동구 성수동2가 272-3,서울 성동구 연무장길 101-1,070-8844-0196,카페,음식점 > 카페 > 테마카페 > 디저트카페,http://place.map.kakao.com/1623291829,오우드,https://m.place.naver.com/restaurant/1833313793
80,80,1325105515,카페노티드 성수,서울 성동구 성수동2가 316-5,서울 성동구 연무장길 29-17,,카페,음식점 > 카페,http://place.map.kakao.com/1325105515,카페노티드 성수,https://m.place.naver.com/restaurant/1706561777
81,81,17657824,하루노유키,서울 성동구 성수동1가 685-428,서울 성동구 서울숲2길 17,02-548-8662,카페,음식점 > 카페 > 테마카페 > 디저트카페,http://place.map.kakao.com/17657824,하루노유키,https://m.place.naver.com/restaurant/30811760
82,82,483722570,마크69,서울 성동구 성수동1가 685-350,서울 성동구 서울숲길 24,,카페,음식점 > 카페,http://place.map.kakao.com/483722570,마크69,https://m.place.naver.com/restaurant/1430646260
83,83,505665583,맛차차,서울 성동구 성수동1가 685-450,서울 성동구 서울숲2길 18-11,010-9719-8707,카페,음식점 > 카페,http://place.map.kakao.com/505665583,맛차차,https://m.place.naver.com/restaurant/1467953783
84,84,431464251,아이오쓰리 성수사거리점,서울 성동구 성수동2가 275-54,서울 성동구 성수이로20길 60,02-497-1961,카페,음식점 > 카페,http://place.map.kakao.com/431464251,아이오쓰리 성수사거리점,https://m.place.naver.com/restaurant/1918028699
85,85,753723493,브라운팟,서울 성동구 행당동 286-19,서울 성동구 무학봉28길 16,02-2299-7796,카페,음식점 > 카페,http://place.map.kakao.com/753723493,브라운팟,https://m.place.naver.com/restaurant/1165635472
86,86,1431120740,플디 성수점,서울 성동구 성수동1가 13-156,서울 성동구 상원길 44,,카페,음식점 > 카페,http://place.map.kakao.com/1431120740,플디 성수점,https://m.place.naver.com/restaurant/1030413970
87,87,1300323227,카페노티드 피치스,서울 성동구 성수동2가 301-16,서울 성동구 연무장3길 9,0507-1405-9377,카페,음식점 > 카페 > 테마카페 > 디저트카페,http://place.map.kakao.com/1300323227,카페노티드 피치스,https://m.place.naver.com/restaurant/1022973489
88,88,1501931765,천상가옥,서울 성동구 성수동2가 322-4,서울 성동구 성수이로14길 14,,카페,음식점 > 카페,http://place.map.kakao.com/1501931765,천상가옥,https://m.place.naver.com/restaurant/1074358103
89,89,157479724,비엔나커피하우스 서울숲역점,서울 성동구 성수동1가 656-447,서울 성동구 왕십리로 66,070-4628-5049,카페,음식점 > 카페,http://place.map.kakao.com/157479724,비엔나커피하우스 서울숲역점,https://m.place.naver.com/restaurant/1320858854
90,90,1431819126,훔볼트,서울 성동구 성수동2가 325-19,서울 성동구 성수이로 58,,카페,음식점 > 카페 > 테마카페 > 디저트카페,http://place.map.kakao.com/1431819126,훔볼트,https://m.place.naver.com/restaurant/1504347953
91,91,1904529538,업사이드커피 뚝섬점,서울 성동구 성수동1가 7-8,서울 성동구 왕십리로14길 19-1,070-8691-4107,카페,음식점 > 카페,http://place.map.kakao.com/1904529538,업사이드커피 뚝섬점,https://m.place.naver.com/restaurant/1906998225
92,92,1742492568,키커피컴퍼니 왕십리점,서울 성동구 행당동 130-115,서울 성동구 왕십리로 269,070-4230-8893,카페,음식점 > 카페 > 커피전문점,http://place.map.kakao.com/1742492568,키커피컴퍼니 왕십리점,https://m.place.naver.com/restaurant/1976097430
93,93,1653556066,카페온화 성수점,서울 성동구 성수동2가 302-4,서울 성동구 아차산로 78,,카페,음식점 > 카페,http://place.map.kakao.com/1653556066,카페온화 성수점,https://m.place.naver.com/restaurant/1321493330
94,94,1623291829,오우드,서울 성동구 성수동2가 272-3,서울 성동구 연무장길 101-1,070-8844-0196,카페,음식점 > 카페 > 테마카페 > 디저트카페,http://place.map.kakao.com/1623291829,오우드,https://m.place.naver.com/restaurant/1833313793
95,95,1325105515,카페노티드 성수,서울 성동구 성수동2가 316-5,서울 성동구 연무장길 29-17,,카페,음식점 > 카페,http://place.map.kakao.com/1325105515,카페노티드 성수,https://m.place.naver.com/restaurant/1706561777
96,96,17657824,하루노유키,서울 성동구 성수동1가 685-428,서울 성동구 서울숲2길 17,02-548-8662,카페,음식점 > 카페 > 테마카페 > 디저트카페,http://place.map.kakao.com/17657824,하루노유키,https://m.place.naver.com/restaurant/30811760
97,97,483722570,마크69,서울 성동구 성수동1가 685-350,서울 성동구 서울숲길 24,,카페,음식점 > 카페,http://place.map.kakao.com/483722570,마크69,https://m.place.naver.com/restaurant/1430646260
98,98,505665583,맛차차,서울 성동구 성수동1가 685-450,서울 성동구 서울숲2길 18-11,010-9719-8707,카페,음식점 > 카페,http://place.map.kakao.com/505665583,맛차차,https://m.place.naver.com/restaurant/1467953783
99,99,431464251,아이오쓰리 성수사거리점,서울 성동구 성수동2가 275-54,서울 성동구 성수이로20길 60,02-497-1961,카페,음식점 > 카페,http://place.map.kakao.com/431464251,아이오쓰리 성수사거리점,https://m.place.naver.com/restaurant/1918028699
100,100,753723493,브라운팟,서울 성동구 행당동 286-19,서울 성동구 무학봉28길 16,02-2299-7796,카페,음식점 > 카페,http://place.map.kakao.com/753723493,브라운팟,https://m.place.naver.com/restaurant/1165635472
101,101,1431120740,플디 성수점,서울 성동구 성수동1가 13-156,서울 성동구 상원길 44,,카페,음식점 > 카페,http://place.map.kakao.com/1431120740,플디 성수점,https://m.place.naver.com/restaurant/1030413970
102,102,1300323227,카페노티드 피치스,서울 성동구 성수동2가 301-16,서울 성동구 연무장3길 9,0507-1405-9377,카페,음식점 > 카페 > 테마카페 > 디저트카페,http://place.map.kakao.com/1300323227,카페노티드 피치스,https://m.place.naver.com/restaurant/1022973489
103,103,1501931765,천상가옥,서울 성동구 성수동2가 322-4,서울 성동구 성수이로14길 14,,카페,음식점 > 카페,http://place.map.kakao.com/1501931765,천상가옥,https://m.place.naver.com/restaurant/1074358103
104,104,157479724,비엔나커피하우스 서울숲역점,서울 성동구 성수동1가 656-447,서울 성동구 왕십리로 66,070-4628-5049,카페,음식점 > 카페,http://place.map.kakao.com/157479724,비엔나커피하우스 서울숲역점,https://m.place.naver.com/restaurant/1320858854
105,105,1431819126,훔볼트,서울 성동구 성수동2가 325-19,서울 성동구 성수이로 58,,카페,음식점 > 카페 > 테마카페 > 디저트카페,http://place.map.kakao.com/1431819126,훔볼트,https://m.place.naver.com/restaurant/1504347953
106,106,1904529538,업사이드커피 뚝섬점,서울 성동구 성수동1가 7-8,서울 성동구 왕십리로14길 19-1,070-8691-4107,카페,음식점 > 카페,http://place.map.kakao.com/1904529538,업사이드커피 뚝섬점,https://m.place.naver.com/restaurant/1906998225
107,107,1742492568,키커피컴퍼니 왕십리점,서울 성동구 행당동 130-115,서울 성동구 왕십리로 269,070-4230-8893,카페,음식점 > 카페 > 커피전문점,http://place.map.kakao.com/1742492568,키커피컴퍼니 왕십리점,https://m.place.naver.com/restaurant/1976097430
108,108,1653556066,카페온화 성수점,서울 성동구 성수동2가 302-4,서울 성동구 아차산로 78,,카페,음식점 > 카페,http://place.map.kakao.com/1653556066,카페온화 성수점,https://m.place.naver.com/restaurant/1321493330
109,109,1623291829,오우드,서울 성동구 성수동2가 272-3,서울 성동구 연무장길 101-1,070-8844-0196,카페,음식점 > 카페 > 테마카페 > 디저트카페,http://place.map.kakao.com/1623291829,오우드,https://m.place.naver.com/restaurant/1833313793
110,110,1325105515,카페노티드 성수,서울 성동구 성수동2가 316-5,서울 성동구 연무장길 29-17,,카페,음식점 > 카페,http://place.map.kakao.com/1325105515,카페노티드 성수,https://m.place.naver.com/restaurant/1706561777
111,111,17657824,하루노유키,서울 성동구 성수동1가 685-428,서울 성동구 서울숲2길 17,02-548-8662,카페,음식점 > 카페 > 테마카페 > 디저트카페,http://place.map.kakao.com/17657824,하루노유키,https://m.place.naver.com/restaurant/30811760
112,112,483722570,마크69,서울 성동구 성수동1가 685-350,서울 성동구 서울숲길 24,,카페,음식점 > 카페,http://place.map.kakao.com/483722570,마크69,https://m.place.naver.com/restaurant/1430646260
113,113,505665583,맛차차,서울 성동구 성수동1가 685-450,서울 성동구 서울숲2길 18-11,010-9719-8707,카페,음식점 > 카페,http://place.map.kakao.com/505665583,맛차차,https://m.place.naver.com/restaurant/1467953783
114,114,431464251,아이오쓰리 성수사거리점,서울 성동구 성수동2가 275-54,서울 성동구 성수이로20길 60,02-497-1961,카페,음식점 > 카페,http://place.map.kakao.com/431464251,아이오쓰리 성수사거리점,https://m.place.naver.com/restaurant/1918028699
115,115,753723493,브라운팟,서울 성동구 행당동 286-19,서울 성동구 무학봉28길 16,02-2299-7796,카페,음식점 > 카페,http://place.map.kakao.com/753723493,브라운팟,https://m.place.naver.com/restaurant/1165635472
116,116,1431120740,플디 성수점,서울 성동구 성수동1가 13-156,서울 성동구 상원길 44,,카페,음식점 > 카페,http://place.map.kakao.com/1431120740,플디 성수점,https://m.place.naver.com/restaurant/1030413970
117,117,1300323227,카페노티드 피치스,서울 성동구 성수동2가 301-16,서울 성동구 연무장3길 9,0507-1405-9377,카페,음식점 > 카페 > 테마카페 > 디저트카페,http://place.map.kakao.com/1300323227,카페노티드 피치스,https://m.place.naver.com/restaurant/1022973489
118,118,1501931765,천상가옥,서울 성동구 성수동2가 322-4,서울 성동구 성수이로14길 14,,카페,음식점 > 카페,http://place.map.kakao.com/1501931765,천상가옥,https://m.place.naver.com/restaurant/1074358103
119,119,157479724,비엔나커피하우스 서울숲역점,서울 성동구 성수동1가 656-447,서울 성동구 왕십리로 66,070-4628-5049,카페,음식점 > 카페,http://place.map.kakao.com/157479724,비엔나커피하우스 서울숲역점,https://m.place.naver.com/restaurant/1320858854
120,120,1431819126,훔볼트,서울 성동구 성수동2가 325-19,서울 성동구 성수이로 58,,카페,음식점 > 카페 > 테마카페 > 디저트카페,http://place.map.kakao.com/1431819126,훔볼트,https://m.place.naver.com/restaurant/1504347953
121,121,1904529538,업사이드커피 뚝섬점,서울 성동구 성수동1가 7-8,서울 성동구 왕십리로14길 19-1,070-8691-4107,카페,음식점 > 카페,http://place.map.kakao.com/1904529538,업사이드커피 뚝섬점,https://m.place.naver.com/restaurant/1906998225
122,122,1742492568,키커피컴퍼니 왕십리점,서울 성동구 행당동 130-115,서울 성동구 왕십리로 269,070-4230-8893,카페,음식점 > 카페 > 커피전문점,http://place.map.kakao.com/1742492568,키커피컴퍼니 왕십리점,https://m.place.naver.com/restaurant/1976097430
123,123,1653556066,카페온화 성수점,서울 성동구 성수동2가 302-4,서울 성동구 아차산로 78,,카페,음식점 > 카페,http://place.map.kakao.com/1653556066,카페온화 성수점,https://m.place.naver.com/restaurant/1321493330
124,124,1623291829,오우드,서울 성동구 성수동2가 272-3,서울 성동구 연무장길 101-1,070-8844-0196,카페,음식점 > 카페 > 테마카페 > 디저트카페,http://place.map.kakao.com/1623291829,오우드,https://m.place.naver.com/restaurant/1833313793
125,125,1325105515,카페노티드 성수,서울 성동구 성수동2가 316-5,서울 성동구 연무장길 29-17,,카페,음식점 > 카페,http://place.map.kakao.com/1325105515,카페노티드 성수,https://m.place.naver.com/restaurant/1706561777
126,126,17657824,하루노유키,서울 성동구 성수동1가 685-428,서울 성동구 서울숲2길 17,02-548-8662,카페,음식점 > 카페 > 테마카페 > 디저트카페,http://place.map.kakao.com/17657824,하루노유키,https://m.place.naver.com/restaurant/30811760
127,127,483722570,마크69,서울 성동구 성수동1가 685-350,서울 성동구 서울숲길 24,,카페,음식점 > 카페,http://place.map.kakao.com/483722570,마크69,https://m.place.naver.com/restaurant/1430646260
128,128,505665583,맛차차,서울 성동구 성수동1가 685-450,서울 성동구 서울숲2길 18-11,010-9719-8707,카페,음식점 > 카페,http://place.map.kakao.com/505665583,맛차차,https://m.place.naver.com/restaurant/1467953783
129,129,431464251,아이오쓰리 성수사거리점,서울 성동구 성수동2가 275-54,서울 성동구 성수이로20길 60,02-497-1961,카페,음식점 > 카페,http://place.map.kakao.com/431464251,아이오쓰리 성수사거리점,https://m.place.naver.com/restaurant/1918028699
130,130,753723493,브라운팟,서울 성동구 행당동 286-19,서울 성동구 무학봉28길 16,02-2299-7796,카페,음식점 > 카페,http://place.map.kakao.com/753723493,브라운팟,https://m.place.naver.com/restaurant/1165635472
131,131,1431120740,플디 성수점,서울 성동구 성수동1가 13-156,서울 성동구 상원길 44,,카페,음식점 > 카페,http://place.map.kakao.com/1431120740,플디 성수점,https://m.place.naver.com/restaurant/1030413970
132,132,1300323227,카페노티드 피치스,서울 성동구 성수동2가 301-16,서울 성동구 연무장3길 9,0507-1405-9377,카페,음식점 > 카페 > 테마카페 > 디저트카페,http://place.map.kakao.com/1300323227,카페노티드 피치스,https://m.place.naver.com/restaurant/1022973489
133,133,1501931765,천상가옥,서울 성동구 성수동2가 322-4,서울 성동구 성수이로14길 14,,카페,음식점 > 카페,http://place.map.kakao.com/1501931765,천상가옥,https://m.place.naver.com/restaurant/1074358103
134,134,157479724,비엔나커피하우스 서울숲역점,서울 성동구 성수동1가 656-447,서울 성동구 왕십리로 66,070-4628-5049,카페,음식점 > 카페,http://place.map.kakao.com/157479724,비엔나커피하우스 서울숲역점,https://m.place.naver.com/restaurant/1320858854
135,135,1431819126,훔볼트,서울 성동구 성수동2가 325-19,서울 성동구 성수이로 58,,카페,음식점 > 카페 > 테마카페 > 디저트카페,http://place.map.kakao.com/1431819126,훔볼트,https://m.place.naver.com/restaurant/1504347953
136,136,1904529538,업사이드커피 뚝섬점,서울 성동구 성수동1가 7-8,서울 성동구 왕십리로14길 19-1,070-8691-4107,카페,음식점 > 카페,http://place.map.kakao.com/1904529538,업사이드커피 뚝섬점,https://m.place.naver.com/restaurant/1906998225
137,137,1742492568,키커피컴퍼니 왕십리점,서울 성동구 행당동 130-115,서울 성동구 왕십리로 269,070-4230-8893,카페,음식점 > 카페 > 커피전문점,http://place.map.kakao.com/1742492568,키커피컴퍼니 왕십리점,https://m.place.naver.com/restaurant/1976097430
138,138,1653556066,카페온화 성수점,서울 성동구 성수동2가 302-4,서울 성동구 아차산로 78,,카페,음식점 > 카페,http://place.map.kakao.com/1653556066,카페온화 성수점,https://m.place.naver.com/restaurant/1321493330
139,139,1623291829,오우드,서울 성동구 성수동2가 272-3,서울 성동구 연무장길 101-1,070-8844-0196,카페,음식점 > 카페 > 테마카페 > 디저트카페,http://place.map.kakao.com/1623291829,오우드,https://m.place.naver.com/restaurant/1833313793
140,140,1325105515,카페노티드 성수,서울 성동구 성수동2가 316-5,서울 성동구 연무장길 29-17,,카페,음식점 > 카페,http://place.map.kakao.com/1325105515,카페노티드 성수,https://m.place.naver.com/restaurant/1706561777
141,141,17657824,하루노유키,서울 성동구 성수동1가 685-428,서울 성동구 서울숲2길 17,02-548-8662,카페,음식점 > 카페 > 테마카페 > 디저트카페,http://place.map.kakao.com/17657824,하루노유키,https://m.place.naver.com/restaurant/30811760
142,142,483722570,마크69,서울 성동구 성수동1가 685-350,서울 성동구 서울숲길 24,,카페,음식점 > 카페,http://place.map.kakao.com/483722570,마크69,https://m.place.naver.com/restaurant/1430646260
143,143,505665583,맛차차,서울 성동구 성수동1가 685-450,서울 성동구 서울숲2길 18-11,010-9719-8707,카페,음식점 > 카페,http://place.map.kakao.com/505665583,맛차차,https://m.place.naver.com/restaurant/1467953783
144,144,431464251,아이오쓰리 성수사거리점,서울 성동구 성수동2가 275-54,서울 성동구 성수이로20길 60,02-497-1961,카페,음식점 > 카페,http://place.map.kakao.com/431464251,아이오쓰리 성수사거리점,https://m.place.naver.com/restaurant/1918028699
145,145,753723493,브라운팟,서울 성동구 행당동 286-19,서울 성동구 무학봉28길 16,02-2299-7796,카페,음식점 > 카페,http://place.map.kakao.com/753723493,브라운팟,https://m.place.naver.com/restaurant/1165635472
146,146,1431120740,플디 성수점,서울 성동구 성수동1가 13-156,서울 성동구 상원길 44,,카페,음식점 > 카페,http://place.map.kakao.com/1431120740,플디 성수점,https://m.place.naver.com/restaurant/1030413970
147,147,1300323227,카페노티드 피치스,서울 성동구 성수동2가 301-16,서울 성동구 연무장3길 9,0507-1405-9377,카페,음식점 > 카페 > 테마카페 > 디저트카페,http://place.map.kakao.com/1300323227,카페노티드 피치스,https://m.place.naver.com/restaurant/1022973489
148,148,1501931765,천상가옥,서울 성동구 성수동2가 322-4,서울 성동구 성수이로14길 14,,카페,음식점 > 카페,http://place.map.kakao.com/1501931765,천상가옥,https://m.place.naver.com/restaurant/1074358103
149,149,157479724,비엔나커피하우스 서울숲역점,서울 성동구 성수동1가 656-447,서울 성동구 왕십리로 66,070-4628-5049,카페,음식점 > 카페,http://place.map.kakao.com/157479724,비엔나커피하우스 서울숲역점,https://m.place.naver.com/restaurant/1320858854
150,150,1431819126,훔볼트,서울 성동구 성수동2가 325-19,서울 성동구 성수이로 58,,카페,음식점 > 카페 > 테마카페 > 디저트카페,http://place.map.kakao.com/1431819126,훔볼트,https://m.place.naver.com/restaurant/1504347953
151,151,1904529538,업사이드커피 뚝섬점,서울 성동구 성수동1가 7-8,서울 성동구 왕십리로14길 19-1,070-8691-4107,카페,음식점 > 카페,http://place.map.kakao.com/1904529538,업사이드커피 뚝섬점,https://m.place.naver.com/restaurant/1906998225
152,152,1742492568,키커피컴퍼니 왕십리점,서울 성동구 행당동 130-115,서울 성동구 왕십리로 269,070-4230-8893,카페,음식점 > 카페 > 커피전문점,http://place.map.kakao.com/1742492568,키커피컴퍼니 왕십리점,https://m.place.naver.com/restaurant/1976097430
153,153,1653556066,카페온화 성수점,서울 성동구 성수동2가 302-4,서울 성동구 아차산로 78,,카페,음식점 > 카페,http://place.map.kakao.com/1653556066,카페온화 성수점,https://m.place.naver.com/restaurant/1321493330
154,154,1623291829,오우드,서울 성동구 성수동2가 272-3,서울 성동구 연무장길 101-1,070-8844-0196,카페,음식점 > 카페 > 테마카페 > 디저트카페,http://place.map.kakao.com/1623291829,오우드,https://m.place.naver.com/restaurant/1833313793
155,155,1325105515,카페노티드 성수,서울 성동구 성수동2가 316-5,서울 성동구 연무장길 29-17,,카페,음식점 > 카페,http://place.map.kakao.com/1325105515,카페노티드 성수,https://m.place.naver.com/restaurant/1706561777
156,156,17657824,하루노유키,서울 성동구 성수동1가 685-428,서울 성동구 서울숲2길 17,02-548-8662,카페,음식점 > 카페 > 테마카페 > 디저트카페,http://place.map.kakao.com/17657824,하루노유키,https://m.place.naver.com/restaurant/30811760
157,157,483722570,마크69,서울 성동구 성수동1가 685-350,서울 성동구 서울숲길 24,,카페,음식점 > 카페,http://place.map.kakao.com/483722570,마크69,https://m.place.naver.com/restaurant/1430646260
158,158,505665583,맛차차,서울 성동구 성수동1가 685-450,서울 성동구 서울숲2길 18-11,010-9719-8707,카페,음식점 > 카페,http://place.map.kakao.com/505665583,맛차차,https://m.place.naver.com/restaurant/1467953783
159,159,431464251,아이오쓰리 성수사거리점,서울 성동구 성수동2가 275-54,서울 성동구 성수이로20길 60,02-497-1961,카페,음식점 > 카페,http://place.map.kakao.com/431464251,아이오쓰리 성수사거리점,https://m.place.naver.com/restaurant/1918028699
160,160,753723493,브라운팟,서울 성동구 행당동 286-19,서울 성동구 무학봉28길 16,02-2299-7796,카페,음식점 > 카페,http://place.map.kakao.com/753723493,브라운팟,https://m.place.naver.com/restaurant/1165635472
161,161,1431120740,플디 성수점,서울 성동구 성수동1가 13-156,서울 성동구 상원길 44,,카페,음식점 > 카페,http://place.map.kakao.com/1431120740,플디 성수점,https://m.place.naver.com/restaurant/1030413970
162,162,1300323227,카페노티드 피치스,서울 성동구 성수동2가 301-16,서울 성동구 연무장3길 9,0507-1405-9377,카페,음식점 > 카페 > 테마카페 > 디저트카페,http://place.map.kakao.com/1300323227,카페노티드 피치스,https://m.place.naver.com/restaurant/1022973489
163,163,1501931765,천상가옥,서울 성동구 성수동2가 322-4,서울 성동구 성수이로14길 14,,카페,음식점 > 카페,http://place.map.kakao.com/1501931765,천상가옥,https://m.place.naver.com/restaurant/1074358103
164,164,157479724,비엔나커피하우스 서울숲역점,서울 성동구 성수동1가 656-447,서울 성동구 왕십리로 66,070-4628-5049,카페,음식점 > 카페,http://place.map.kakao.com/157479724,비엔나커피하우스 서울숲역점,https://m.place.naver.com/restaurant/1320858854
165,165,1431819126,훔볼트,서울 성동구 성수동2가 325-19,서울 성동구 성수이로 58,,카페,음식점 > 카페 > 테마카페 > 디저트카페,http://place.map.kakao.com/1431819126,훔볼트,https://m.place.naver.com/restaurant/1504347953
166,166,1904529538,업사이드커피 뚝섬점,서울 성동구 성수동1가 7-8,서울 성동구 왕십리로14길 19-1,070-8691-4107,카페,음식점 > 카페,http://place.map.kakao.com/1904529538,업사이드커피 뚝섬점,https://m.place.naver.com/restaurant/1906998225
167,167,1742492568,키커피컴퍼니 왕십리점,서울 성동구 행당동 130-115,서울 성동구 왕십리로 269,070-4230-8893,카페,음식점 > 카페 > 커피전문점,http://place.map.kakao.com/1742492568,키커피컴퍼니 왕십리점,https://m.place.naver.com/restaurant/1976097430
168,168,1653556066,카페온화 성수점,서울 성동구 성수동2가 302-4,서울 성동구 아차산로 78,,카페,음식점 > 카페,http://place.map.kakao.com/1653556066,카페온화 성수점,https://m.place.naver.com/restaurant/1321493330
169,169,1623291829,오우드,서울 성동구 성수동2가 272-3,서울 성동구 연무장길 101-1,070-8844-0196,카페,음식점 > 카페 > 테마카페 > 디저트카페,http://place.map.kakao.com/1623291829,오우드,https://m.place.naver.com/restaurant/1833313793
170,170,1325105515,카페노티드 성수,서울 성동구 성수동2가 316-5,서울 성동구 연무장길 29-17,,카페,음식점 > 카페,http://place.map.kakao.com/1325105515,카페노티드 성수,https://m.place.naver.com/restaurant/1706561777
171,171,17657824,하루노유키,서울 성동구 성수동1가 685-428,서울 성동구 서울숲2길 17,02-548-8662,카페,음식점 > 카페 > 테마카페 > 디저트카페,http://place.map.kakao.com/17657824,하루노유키,https://m.place.naver.com/restaurant/30811760
172,172,483722570,마크69,서울 성동구 성수동1가 685-350,서울 성동구 서울숲길 24,,카페,음식점 > 카페,http://place.map.kakao.com/483722570,마크69,https://m.place.naver.com/restaurant/1430646260
173,173,505665583,맛차차,서울 성동구 성수동1가 685-450,서울 성동구 서울숲2길 18-11,010-9719-8707,카페,음식점 > 카페,http://place.map.kakao.com/505665583,맛차차,https://m.place.naver.com/restaurant/1467953783
174,174,431464251,아이오쓰리 성수사거리점,서울 성동구 성수동2가 275-54,서울 성동구 성수이로20길 60,02-497-1961,카페,음식점 > 카페,http://place.map.kakao.com/431464251,아이오쓰리 성수사거리점,https://m.place.naver.com/restaurant/1918028699
175,175,753723493,브라운팟,서울 성동구 행당동 286-19,서울 성동구 무학봉28길 16,02-2299-7796,카페,음식점 > 카페,http://place.map.kakao.com/753723493,브라운팟,https://m.place.naver.com/restaurant/1165635472
176,176,1431120740,플디 성수점,서울 성동구 성수동1가 13-156,서울 성동구 상원길 44,,카페,음식점 > 카페,http://place.map.kakao.com/1431120740,플디 성수점,https://m.place.naver.com/restaurant/1030413970
177,177,1300323227,카페노티드 피치스,서울 성동구 성수동2가 301-16,서울 성동구 연무장3길 9,0507-1405-9377,카페,음식점 > 카페 > 테마카페 > 디저트카페,http://place.map.kakao.com/1300323227,카페노티드 피치스,https://m.place.naver.com/restaurant/1022973489
178,178,1501931765,천상가옥,서울 성동구 성수동2가 322-4,서울 성동구 성수이로14길 14,,카페,음식점 > 카페,http://place.map.kakao.com/1501931765,천상가옥,https://m.place.naver.com/restaurant/1074358103
179,179,157479724,비엔나커피하우스 서울숲역점,서울 성동구 성수동1가 656-447,서울 성동구 왕십리로 66,070-4628-5049,카페,음식점 > 카페,http://place.map.kakao.com/157479724,비엔나커피하우스 서울숲역점,https://m.place.naver.com/restaurant/1320858854
180,180,1431819126,훔볼트,서울 성동구 성수동2가 325-19,서울 성동구 성수이로 58,,카페,음식점 > 카페 > 테마카페 > 디저트카페,http://place.map.kakao.com/1431819126,훔볼트,https://m.place.naver.com/restaurant/1504347953
181,181,1904529538,업사이드커피 뚝섬점,서울 성동구 성수동1가 7-8,서울 성동구 왕십리로14길 19-1,070-8691-4107,카페,음식점 > 카페,http://place.map.kakao.com/1904529538,업사이드커피 뚝섬점,https://m.place.naver.com/restaurant/1906998225
182,182,1742492568,키커피컴퍼니 왕십리점,서울 성동구 행당동 130-115,서울 성동구 왕십리로 269,070-4230-8893,카페,음식점 > 카페 > 커피전문점,http://place.map.kakao.com/1742492568,키커피컴퍼니 왕십리점,https://m.place.naver.com/restaurant/1976097430
183,183,1653556066,카페온화 성수점,서울 성동구 성수동2가 302-4,서울 성동구 아차산로 78,,카페,음식점 > 카페,http://place.map.kakao.com/1653556066,카페온화 성수점,https://m.place.naver.com/restaurant/1321493330
184,184,1623291829,오우드,서울 성동구 성수동2가 272-3,서울 성동구 연무장길 101-1,070-8844-0196,카페,음식점 > 카페 > 테마카페 > 디저트카페,http://place.map.kakao.com/1623291829,오우드,https://m.place.naver.com/restaurant/1833313793
185,185,1325105515,카페노티드 성수,서울 성동구 성수동2가 316-5,서울 성동구 연무장길 29-17,,카페,음식점 > 카페,http://place.map.kakao.com/1325105515,카페노티드 성수,https://m.place.naver.com/restaurant/1706561777
186,186,17657824,하루노유키,서울 성동구 성수동1가 685-428,서울 성동구 서울숲2길 17,02-548-8662,카페,음식점 > 카페 > 테마카페 > 디저트카페,http://place.map.kakao.com/17657824,하루노유키,https://m.place.naver.com/restaurant/30811760
187,187,483722570,마크69,서울 성동구 성수동1가 685-350,서울 성동구 서울숲길 24,,카페,음식점 > 카페,http://place.map.kakao.com/483722570,마크69,https://m.place.naver.com/restaurant/1430646260
188,188,505665583,맛차차,서울 성동구 성수동1가 685-450,서울 성동구 서울숲2길 18-11,010-9719-8707,카페,음식점 > 카페,http://place.map.kakao.com/505665583,맛차차,https://m.place.naver.com/restaurant/1467953783
189,189,431464251,아이오쓰리 성수사거리점,서울 성동구 성수동2가 275-54,서울 성동구 성수이로20길 60,02-497-1961,카페,음식점 > 카페,http://place.map.kakao.com/431464251,아이오쓰리 성수사거리점,https://m.place.naver.com/restaurant/1918028699
190,190,753723493,브라운팟,서울 성동구 행당동 286-19,서울 성동구 무학봉28길 16,02-2299-7796,카페,음식점 > 카페,http://place.map.kakao.com/753723493,브라운팟,https://m.place.naver.com/restaurant/1165635472
191,191,1431120740,플디 성수점,서울 성동구 성수동1가 13-156,서울 성동구 상원길 44,,카페,음식점 > 카페,http://place.map.kakao.com/1431120740,플디 성수점,https://m.place.naver.com/restaurant/1030413970
192,192,1300323227,카페노티드 피치스,서울 성동구 성수동2가 301-16,서울 성동구 연무장3길 9,0507-1405-9377,카페,음식점 > 카페 > 테마카페 > 디저트카페,http://place.map.kakao.com/1300323227,카페노티드 피치스,https://m.place.naver.com/restaurant/1022973489
193,193,1501931765,천상가옥,서울 성동구 성수동2가 322-4,서울 성동구 성수이로14길 14,,카페,음식점 > 카페,http://place.map.kakao.com/1501931765,천상가옥,https://m.place.naver.com/restaurant/1074358103
194,194,157479724,비엔나커피하우스 서울숲역점,서울 성동구 성수동1가 656-447,서울 성동구 왕십리로 66,070-4628-5049,카페,음식점 > 카페,http://place.map.kakao.com/157479724,비엔나커피하우스 서울숲역점,https://m.place.naver.com/restaurant/1320858854
195,195,1431819126,훔볼트,서울 성동구 성수동2가 325-19,서울 성동구 성수이로 58,,카페,음식점 > 카페 > 테마카페 > 디저트카페,http://place.map.kakao.com/1431819126,훔볼트,https://m.place.naver.com/restaurant/1504347953
196,196,1904529538,업사이드커피 뚝섬점,서울 성동구 성수동1가 7-8,서울 성동구 왕십리로14길 19-1,070-8691-4107,카페,음식점 > 카페,http://place.map.kakao.com/1904529538,업사이드커피 뚝섬점,https://m.place.naver.com/restaurant/1906998225
197,197,1742492568,키커피컴퍼니 왕십리점,서울 성동구 행당동 130-115,서울 성동구 왕십리로 269,070-4230-8893,카페,음식점 > 카페 > 커피전문점,http://place.map.kakao.com/1742492568,키커피컴퍼니 왕십리점,https://m.place.naver.com/restaurant/1976097430
198,198,1653556066,카페온화 성수점,서울 성동구 성수동2가 302-4,서울 성동구 아차산로 78,,카페,음식점 > 카페,http://place.map.kakao.com/1653556066,카페온화 성수점,https://m.place.naver.com/restaurant/1321493330
199,199,1623291829,오우드,서울 성동구 성수동2가 272-3,서울 성동구 연무장길 101-1,070-8844-0196,카페,음식점 > 카페 > 테마카페 > 디저트카페,http://place.map.kakao.com/1623291829,오우드,https://m.place.naver.com/restaurant/1833313793
200,200,1325105515,카페노티드 성수,서울 성동구 성수동2가 316-5,서울 성동구 연무장길 29-17,,카페,음식점 > 카페,http://place.map.kakao.com/1325105515,카페노티드 성수,https://m.place.naver.com/restaurant/1706561777
201,201,17657824,하루노유키,서울 성동구 성수동1가 685-428,서울 성동구 서울숲2길 17,02-548-8662,카페,음식점 > 카페 > 테마카페 > 디저트카페,http://place.map.kakao.com/17657824,하루노유키,https://m.place.naver.com/restaurant/30811760
202,202,483722570,마크69,서울 성동구 성수동1가 685-350,서울 성동구 서울숲길 24,,카페,음식점 > 카페,http://place.map.kakao.com/483722570,마크69,https://m.place.naver.com/restaurant/1430646260
203,203,505665583,맛차차,서울 성동구 성수동1가 685-450,서울 성동구 서울숲2길 18-11,010-9719-8707,카페,음식점 > 카페,http://place.map.kakao.com/505665583,맛차차,https://m.place.naver.com/restaurant/1467953783
204,204,431464251,아이오쓰리 성수사거리점,서울 성동구 성수동2가 275-54,서울 성동구 성수이로20길 60,02-497-1961,카페,음식점 > 카페,http://place.map.kakao.com/431464251,아이오쓰리 성수사거리점,https://m.place.naver.com/restaurant/1918028699
205,205,753723493,브라운팟,서울 성동구 행당동 286-19,서울 성동구 무학봉28길 16,02-2299-7796,카페,음식점 > 카페,http://place.map.kakao.com/753723493,브라운팟,https://m.place.naver.com/restaurant/1165635472
206,206,1431120740,플디 성수점,서울 성동구 성수동1가 13-156,서울 성동구 상원길 44,,카페,음식점 > 카페,http://place.map.kakao.com/1431120740,플디 성수점,https://m.place.naver.com/restaurant/1030413970
207,207,1300323227,카페노티드 피치스,서울 성동구 성수동2가 301-16,서울 성동구 연무장3길 9,0507-1405-9377,카페,음식점 > 카페 > 테마카페 > 디저트카페,http://place.map.kakao.com/1300323227,카페노티드 피치스,https://m.place.naver.com/restaurant/1022973489
208,208,1501931765,천상가옥,서울 성동구 성수동2가 322-4,서울 성동구 성수이로14길 14,,카페,음식점 > 카페,http://place.map.kakao.com/1501931765,천상가옥,https://m.place.naver.com/restaurant/1074358103
209,209,157479724,비엔나커피하우스 서울숲역점,서울 성동구 성수동1가 656-447,서울 성동구 왕십리로 66,070-4628-5049,카페,음식점 > 카페,http://place.map.kakao.com/157479724,비엔나커피하우스 서울숲역점,https://m.place.naver.com/restaurant/1320858854
210,210,1431819126,훔볼트,서울 성동구 성수동2가 325-19,서울 성동구 성수이로 58,,카페,음식점 > 카페 > 테마카페 > 디저트카페,http://place.map.kakao.com/1431819126,훔볼트,https://m.place.naver.com/restaurant/1504347953
211,211,1904529538,업사이드커피 뚝섬점,서울 성동구 성수동1가 7-8,서울 성동구 왕십리로14길 19-1,070-8691-4107,카페,음식점 > 카페,http://place.map.kakao.com/1904529538,업사이드커피 뚝섬점,https://m.place.naver.com/restaurant/1906998225
212,212,1742492568,키커피컴퍼니 왕십리점,서울 성동구 행당동 130-115,서울 성동구 왕십리로 269,070-4230-8893,카페,음식점 > 카페 > 커피전문점,http://place.map.kakao.com/1742492568,키커피컴퍼니 왕십리점,https://m.place.naver.com/restaurant/1976097430
213,213,1653556066,카페온화 성수점,서울 성동구 성수동2가 302-4,서울 성동구 아차산로 78,,카페,음식점 > 카페,http://place.map.kakao.com/1653556066,카페온화 성수점,https://m.place.naver.com/restaurant/1321493330
214,214,1623291829,오우드,서울 성동구 성수동2가 272-3,서울 성동구 연무장길 101-1,070-8844-0196,카페,음식점 > 카페 > 테마카페 > 디저트카페,http://place.map.kakao.com/1623291829,오우드,https://m.place.naver.com/restaurant/1833313793
215,215,1325105515,카페노티드 성수,서울 성동구 성수동2가 316-5,서울 성동구 연무장길 29-17,,카페,음식점 > 카페,http://place.map.kakao.com/1325105515,카페노티드 성수,https://m.place.naver.com/restaurant/1706561777
216,216,17657824,하루노유키,서울 성동구 성수동1가 685-428,서울 성동구 서울숲2길 17,02-548-8662,카페,음식점 > 카페 > 테마카페 > 디저트카페,http://place.map.kakao.com/17657824,하루노유키,https://m.place.naver.com/restaurant/30811760
217,217,483722570,마크69,서울 성동구 성수동1가 685-350,서울 성동구 서울숲길 24,,카페,음식점 > 카페,http://place.map.kakao.com/483722570,마크69,https://m.place.naver.com/restaurant/1430646260
218,218,505665583,맛차차,서울 성동구 성수동1가 685-450,서울 성동구 서울숲2길 18-11,010-9719-8707,카페,음식점 > 카페,http://place.map.kakao.com/505665583,맛차차,https://m.place.naver.com/restaurant/1467953783
219,219,431464251,아이오쓰리 성수사거리점,서울 성동구 성수동2가 275-54,서울 성동구 성수이로20길 60,02-497-1961,카페,음식점 > 카페,http://place.map.kakao.com/431464251,아이오쓰리 성수사거리점,https://m.place.naver.com/restaurant/1918028699
220,220,753723493,브라운팟,서울 성동구 행당동 286-19,서울 성동구 무학봉28길 16,02-2299-7796,카페,음식점 > 카페,http://place.map.kakao.com/753723493,브라운팟,https://m.place.naver.com/restaurant/1165635472
221,221,1431120740,플디 성수점,서울 성동구 성수동1가 13-156,서울 성동구 상원길 44,,카페,음식점 > 카페,http://place.map.kakao.com/1431120740,플디 성수점,https://m.place.naver.com/restaurant/1030413970
222,222,1300323227,카페노티드 피치스,서울 성동구 성수동2가 301-16,서울 성동구 연무장3길 9,0507-1405-9377,카페,음식점 > 카페 > 테마카페 > 디저트카페,http://place.map.kakao.com/1300323227,카페노티드 피치스,https://m.place.naver.com/restaurant/1022973489
223,223,1501931765,천상가옥,서울 성동구 성수동2가 322-4,서울 성동구 성수이로14길 14,,카페,음식점 > 카페,http://place.map.kakao.com/1501931765,천상가옥,https://m.place.naver.com/restaurant/1074358103
224,224,157479724,비엔나커피하우스 서울숲역점,서울 성동구 성수동1가 656-447,서울 성동구 왕십리로 66,070-4628-5049,카페,음식점 > 카페,http://place.map.kakao.com/157479724,비엔나커피하우스 서울숲역점,https://m.place.naver.com/restaurant/1320858854
225,225,1431819126,훔볼트,서울 성동구 성수동2가 325-19,서울 성동구 성수이로 58,,카페,음식점 > 카페 > 테마카페 > 디저트카페,http://place.map.kakao.com/1431819126,훔볼트,https://m.place.naver.com/restaurant/1504347953
226,226,1904529538,업사이드커피 뚝섬점,서울 성동구 성수동1가 7-8,서울 성동구 왕십리로14길 19-1,070-8691-4107,카페,음식점 > 카페,http://place.map.kakao.com/1904529538,업사이드커피 뚝섬점,https://m.place.naver.com/restaurant/1906998225
227,227,1742492568,키커피컴퍼니 왕십리점,서울 성동구 행당동 130-115,서울 성동구 왕십리로 269,070-4230-8893,카페,음식점 > 카페 > 커피전문점,http://place.map.kakao.com/1742492568,키커피컴퍼니 왕십리점,https://m.place.naver.com/restaurant/1976097430
228,228,1653556066,카페온화 성수점,서울 성동구 성수동2가 302-4,서울 성동구 아차산로 78,,카페,음식점 > 카페,http://place.map.kakao.com/1653556066,카페온화 성수점,https://m.place.naver.com/restaurant/1321493330
229,229,1623291829,오우드,서울 성동구 성수동2가 272-3,서울 성동구 연무장길 101-1,070-8844-0196,카페,음식점 > 카페 > 테마카페 > 디저트카페,http://place.map.kakao.com/1623291829,오우드,https://m.place.naver.com/restaurant/1833313793
230,230,1325105515,카페노티드 성수,서울 성동구 성수동2가 316-5,서울 성동구 연무장길 29-17,,카페,음식점 > 카페,http://place.map.kakao.com/1325105515,카페노티드 성수,https://m.place.naver.com/restaurant/1706561777
231,231,17657824,하루노유키,서울 성동구 성수동1가 685-428,서울 성동구 서울숲2길 17,02-548-8662,카페,음식점 > 카페 > 테마카페 > 디저트카페,http://place.map.kakao.com/17657824,하루노유키,https://m.place.naver.com/restaurant/30811760
232,232,483722570,마크69,서울 성동구 성수동1가 685-350,서울 성동구 서울숲길 24,,카페,음식점 > 카페,http://place.map.kakao.com/483722570,마크69,https://m.place.naver.com/restaurant/1430646260
233,233,505665583,맛차차,서울 성동구 성수동1가 685-450,서울 성동구 서울숲2길 18-11,010-9719-8707,카페,음식점 > 카페,http://place.map.kakao.com/505665583,맛차차,https://m.place.naver.com/restaurant/1467953783
234,234,431464251,아이오쓰리 성수사거리점,서울 성동구 성수동2가 275-54,서울 성동구 성수이로20길 60,02-497-1961,카페,음식점 > 카페,http://place.map.kakao.com/431464251,아이오쓰리 성수사거리점,https://m.place.naver.com/restaurant/1918028699
235,235,753723493,브라운팟,서울 성동구 행당동 286-19,서울 성동구 무학봉28길 16,02-2299-7796,카페,음식점 > 카페,http://place.map.kakao.com/753723493,브라운팟,https://m.place.naver.com/restaurant/1165635472
236,236,1431120740,플디 성수점,서울 성동구 성수동1가 13-156,서울 성동구 상원길 44,,카페,음식점 > 카페,http://place.map.kakao.com/1431120740,플디 성수점,https://m.place.naver.com/restaurant/1030413970
237,237,1300323227,카페노티드 피치스,서울 성동구 성수동2가 301-16,서울 성동구 연무장3길 9,0507-1405-9377,카페,음식점 > 카페 > 테마카페 > 디저트카페,http://place.map.kakao.com/1300323227,카페노티드 피치스,https://m.place.naver.com/restaurant/1022973489
238,238,1501931765,천상가옥,서울 성동구 성수동2가 322-4,서울 성동구 성수이로14길 14,,카페,음식점 > 카페,http://place.map.kakao.com/1501931765,천상가옥,https://m.place.naver.com/restaurant/1074358103
239,239,157479724,비엔나커피하우스 서울숲역점,서울 성동구 성수동1가 656-447,서울 성동구 왕십리로 66,070-4628-5049,카페,음식점 > 카페,http://place.map.kakao.com/157479724,비엔나커피하우스 서울숲역점,https://m.place.naver.com/restaurant/1320858854
240,240,1431819126,훔볼트,서울 성동구 성수동2가 325-19,서울 성동구 성수이로 58,,카페,음식점 > 카페 > 테마카페 > 디저트카페,http://place.map.kakao.com/1431819126,훔볼트,https://m.place.naver.com/restaurant/1504347953
241,241,1904529538,업사이드커피 뚝섬점,서울 성동구 성수동1가 7-8,서울 성동구 왕십리로14길 19-1,070-8691-4107,카페,음식점 > 카페,http://place.map.kakao.com/1904529538,업사이드커피 뚝섬점,https://m.place.naver.com/restaurant/1906998225
242,242,1742492568,키커피컴퍼니 왕십리점,서울 성동구 행당동 130-115,서울 성동구 왕십리로 269,070-4230-8893,카페,음식점 > 카페 > 커피전문점,http://place.map.kakao.com/1742492568,키커피컴퍼니 왕십리점,https://m.place.naver.com/restaurant/1976097430
243,243,1653556066,카페온화 성수점,서울 성동구 성수동2가 302-4,서울 성동구 아차산로 78,,카페,음식점 > 카페,http://place.map.kakao.com/1653556066,카페온화 성수점,https://m.place.naver.com/restaurant/1321493330
244,244,1623291829,오우드,서울 성동구 성수동2가 272-3,서울 성동구 연무장길 101-1,070-8844-0196,카페,음식점 > 카페 > 테마카페 > 디저트카페,http://place.map.kakao.com/1623291829,오우드,https://m.place.naver.com/restaurant/1833313793
245,245,1325105515,카페노티드 성수,서울 성동구 성수동2가 316-5,서울 성동구 연무장길 29-17,,카페,음식점 > 카페,http://place.map.kakao.com/1325105515,카페노티드 성수,https://m.place.naver.com/restaurant/1706561777
246,246,17657824,하루노유키,서울 성동구 성수동1가 685-428,서울 성동구 서울숲2길 17,02-548-8662,카페,음식점 > 카페 > 테마카페 > 디저트카페,http://place.map.kakao.com/17657824,하루노유키,https://m.place.naver.com/restaurant/30811760
247,247,483722570,마크69,서울 성동구 성수동1가 685-350,서울 성동구 서울숲길 24,,카페,음식점 > 카페,http://place.map.kakao.com/483722570,마크69,https://m.place.naver.com/restaurant/1430646260
248,248,505665583,맛차차,서울 성동구 성수동1가 685-450,서울 성동구 서울숲2길 18-11,010-9719-8707,카페,음식점 > 카페,http://place.map.kakao.com/505665583,맛차차,https://m.place.naver.com/restaurant/1467953783
249,249,431464251,아이오쓰리 성수사거리점,서울 성동구 성수동2가 275-54,서울 성동구 성수이로20길 60,02-497-1961,카페,음식점 > 카페,http://place.map.kakao.com/431464251,아이오쓰리 성수사거리점,https://m.place.naver.com/restaurant/1918028699
250,250,753723493,브라운팟,서울 성동구 행당동 286-19,서울 성동구 무학봉28길 16,02-2299-7796,카페,음식점 > 카페,http://place.map.kakao.com/753723493,브라운팟,https://m.place.naver.com/restaurant/1165635472
251,251,1431120740,플디 성수점,서울 성동구 성수동1가 13-156,서울 성동구 상원길 44,,카페,음식점 > 카페,http://place.map.kakao.com/1431120740,플디 성수점,https://m.place.naver.com/restaurant/1030413970
252,252,1300323227,카페노티드 피치스,서울 성동구 성수동2가 301-16,서울 성동구 연무장3길 9,0507-1405-9377,카페,음식점 > 카페 > 테마카페 > 디저트카페,http://place.map.kakao.com/1300323227,카페노티드 피치스,https://m.place.naver.com/restaurant/1022973489
253,253,1501931765,천상가옥,서울 성동구 성수동2가 322-4,서울 성동구 성수이로14길 14,,카페,음식점 > 카페,http://place.map.kakao.com/1501931765,천상가옥,https://m.place.naver.com/restaurant/1074358103
254,254,157479724,비엔나커피하우스 서울숲역점,서울 성동구 성수동1가 656-447,서울 성동구 왕십리로 66,070-4628-5049,카페,음식점 > 카페,http://place.map.kakao.com/157479724,비엔나커피하우스 서울숲역점,https://m.place.naver.com/restaurant/1320858854
255,255,1431819126,훔볼트,서울 성동구 성수동2가 325-19,서울 성동구 성수이로 58,,카페,음식점 > 카페 > 테마카페 > 디저트카페,http://place.map.kakao.com/1431819126,훔볼트,https://m.place.naver.com/restaurant/1504347953
256,256,1904529538,업사이드커피 뚝섬점,서울 성동구 성수동1가 7-8,서울 성동구 왕십리로14길 19-1,070-8691-4107,카페,음식점 > 카페,http://place.map.kakao.com/1904529538,업사이드커피 뚝섬점,https://m.place.naver.com/restaurant/1906998225
257,257,1742492568,키커피컴퍼니 왕십리점,서울 성동구 행당동 130-115,서울 성동구 왕십리로 269,070-4230-8893,카페,음식점 > 카페 > 커피전문점,http://place.map.kakao.com/1742492568,키커피컴퍼니 왕십리점,https://m.place.naver.com/restaurant/1976097430
258,258,1653556066,카페온화 성수점,서울 성동구 성수동2가 302-4,서울 성동구 아차산로 78,,카페,음식점 > 카페,http://place.map.kakao.com/1653556066,카페온화 성수점,https://m.place.naver.com/restaurant/1321493330
259,259,1623291829,오우드,서울 성동구 성수동2가 272-3,서울 성동구 연무장길 101-1,070-8844-0196,카페,음식점 > 카페 > 테마카페 > 디저트카페,http://place.map.kakao.com/1623291829,오우드,https://m.place.naver.com/restaurant/1833313793
260,260,1325105515,카페노티드 성수,서울 성동구 성수동2가 316-5,서울 성동구 연무장길 29-17,,카페,음식점 > 카페,http://place.map.kakao.com/1325105515,카페노티드 성수,https://m.place.naver.com/restaurant/1706561777
261,261,17657824,하루노유키,서울 성동구 성수동1가 685-428,서울 성동구 서울숲2길 17,02-548-8662,카페,음식점 > 카페 > 테마카페 > 디저트카페,http://place.map.kakao.com/17657824,하루노유키,https://m.place.naver.com/restaurant/30811760
262,262,483722570,마크69,서울 성동구 성수동1가 685-350,서울 성동구 서울숲길 24,,카페,음식점 > 카페,http://place.map.kakao.com/483722570,마크69,https://m.place.naver.com/restaurant/1430646260
263,263,505665583,맛차차,서울 성동구 성수동1가 685-450,서울 성동구 서울숲2길 18-11,010-9719-8707,카페,음식점 > 카페,http://place.map.kakao.com/505665583,맛차차,https://m.place.naver.com/restaurant/1467953783
264,264,431464251,아이오쓰리 성수사거리점,서울 성동구 성수동2가 275-54,서울 성동구 성수이로20길 60,02-497-1961,카페,음식점 > 카페,http://place.map.kakao.com/431464251,아이오쓰리 성수사거리점,https://m.place.naver.com/restaurant/1918028699
265,265,753723493,브라운팟,서울 성동구 행당동 286-19,서울 성동구 무학봉28길 16,02-2299-7796,카페,음식점 > 카페,http://place.map.kakao.com/753723493,브라운팟,https://m.place.naver.com/restaurant/1165635472
266,266,1431120740,플디 성수점,서울 성동구 성수동1가 13-156,서울 성동구 상원길 44,,카페,음식점 > 카페,http://place.map.kakao.com/1431120740,플디 성수점,https://m.place.naver.com/restaurant/1030413970
267,267,1300323227,카페노티드 피치스,서울 성동구 성수동2가 301-16,서울 성동구 연무장3길 9,0507-1405-9377,카페,음식점 > 카페 > 테마카페 > 디저트카페,http://place.map.kakao.com/1300323227,카페노티드 피치스,https://m.place.naver.com/restaurant/1022973489
268,268,1501931765,천상가옥,서울 성동구 성수동2가 322-4,서울 성동구 성수이로14길 14,,카페,음식점 > 카페,http://place.map.kakao.com/1501931765,천상가옥,https://m.place.naver.com/restaurant/1074358103
269,269,157479724,비엔나커피하우스 서울숲역점,서울 성동구 성수동1가 656-447,서울 성동구 왕십리로 66,070-4628-5049,카페,음식점 > 카페,http://place.map.kakao.com/157479724,비엔나커피하우스 서울숲역점,https://m.place.naver.com/restaurant/1320858854
270,270,1431819126,훔볼트,서울 성동구 성수동2가 325-19,서울 성동구 성수이로 58,,카페,음식점 > 카페 > 테마카페 > 디저트카페,http://place.map.kakao.com/1431819126,훔볼트,https://m.place.naver.com/restaurant/1504347953
271,271,1904529538,업사이드커피 뚝섬점,서울 성동구 성수동1가 7-8,서울 성동구 왕십리로14길 19-1,070-8691-4107,카페,음식점 > 카페,http://place.map.kakao.com/1904529538,업사이드커피 뚝섬점,https://m.place.naver.com/restaurant/1906998225
272,272,1742492568,키커피컴퍼니 왕십리점,서울 성동구 행당동 130-115,서울 성동구 왕십리로 269,070-4230-8893,카페,음식점 > 카페 > 커피전문점,http://place.map.kakao.com/1742492568,키커피컴퍼니 왕십리점,https://m.place.naver.com/restaurant/1976097430
273,273,1653556066,카페온화 성수점,서울 성동구 성수동2가 302-4,서울 성동구 아차산로 78,,카페,음식점 > 카페,http://place.map.kakao.com/1653556066,카페온화 성수점,https://m.place.naver.com/restaurant/1321493330
274,274,1623291829,오우드,서울 성동구 성수동2가 272-3,서울 성동구 연무장길 101-1,070-8844-0196,카페,음식점 > 카페 > 테마카페 > 디저트카페,http://place.map.kakao.com/1623291829,오우드,https://m.place.naver.com/restaurant/1833313793
275,275,1325105515,카페노티드 성수,서울 성동구 성수동2가 316-5,서울 성동구 연무장길 29-17,,카페,음식점 > 카페,http://place.map.kakao.com/1325105515,카페노티드 성수,https://m.place.naver.com/restaurant/1706561777
276,276,17657824,하루노유키,서울 성동구 성수동1가 685-428,서울 성동구 서울숲2길 17,02-548-8662,카페,음식점 > 카페 > 테마카페 > 디저트카페,http://place.map.kakao.com/17657824,하루노유키,https://m.place.naver.com/restaurant/30811760
277,277,483722570,마크69,서울 성동구 성수동1가 685-350,서울 성동구 서울숲길 24,,카페,음식점 > 카페,http://place.map.kakao.com/483722570,마크69,https://m.place.naver.com/restaurant/1430646260
278,278,505665583,맛차차,서울 성동구 성수동1가 685-450,서울 성동구 서울숲2길 18-11,010-9719-8707,카페,음식점 > 카페,http://place.map.kakao.com/505665583,맛차차,https://m.place.naver.com/restaurant/1467953783
279,279,431464251,아이오쓰리 성수사거리점,서울 성동구 성수동2가 275-54,서울 성동구 성수이로20길 60,02-497-1961,카페,음식점 > 카페,http://place.map.kakao.com/431464251,아이오쓰리 성수사거리점,https://m.place.naver.com/restaurant/1918028699
280,280,753723493,브라운팟,서울 성동구 행당동 286-19,서울 성동구 무학봉28길 16,02-2299-7796,카페,음식점 > 카페,http://place.map.kakao.com/753723493,브라운팟,https://m.place.naver.com/restaurant/1165635472
281,281,1431120740,플디 성수점,서울 성동구 성수동1가 13-156,서울 성동구 상원길 44,,카페,음식점 > 카페,http://place.map.kakao.com/1431120740,플디 성수점,https://m.place.naver.com/restaurant/1030413970
282,282,1300323227,카페노티드 피치스,서울 성동구 성수동2가 301-16,서울 성동구 연무장3길 9,0507-1405-9377,카페,음식점 > 카페 > 테마카페 > 디저트카페,http://place.map.kakao.com/1300323227,카페노티드 피치스,https://m.place.naver.com/restaurant/1022973489
283,283,1501931765,천상가옥,서울 성동구 성수동2가 322-4,서울 성동구 성수이로14길 14,,카페,음식점 > 카페,http://place.map.kakao.com/1501931765,천상가옥,https://m.place.naver.com/restaurant/1074358103
284,284,157479724,비엔나커피하우스 서울숲역점,서울 성동구 성수동1가 656-447,서울 성동구 왕십리로 66,070-4628-5049,카페,음식점 > 카페,http://place.map.kakao.com/157479724,비엔나커피하우스 서울숲역점,https://m.place.naver.com/restaurant/1320858854
285,285,1431819126,훔볼트,서울 성동구 성수동2가 325-19,서울 성동구 성수이로 58,,카페,음식점 > 카페 > 테마카페 > 디저트카페,http://place.map.kakao.com/1431819126,훔볼트,https://m.place.naver.com/restaurant/1504347953
286,286,1904529538,업사이드커피 뚝섬점,서울 성동구 성수동1가 7-8,서울 성동구 왕십리로14길 19-1,070-8691-4107,카페,음식점 > 카페,http://place.map.kakao.com/1904529538,업사이드커피 뚝섬점,https://m.place.naver.com/restaurant/1906998225
287,287,1742492568,키커피컴퍼니 왕십리점,서울 성동구 행당동 130-115,서울 성동구 왕십리로 269,070-4230-8893,카페,음식점 > 카페 > 커피전문점,http://place.map.kakao.com/1742492568,키커피컴퍼니 왕십리점,https://m.place.naver.com/restaurant/1976097430
288,288,1653556066,카페온화 성수점,서울 성동구 성수동2가 302-4,서울 성동구 아차산로 78,,카페,음식점 > 카페,http://place.map.kakao.com/1653556066,카페온화 성수점,https://m.place.naver.com/restaurant/1321493330
289,289,1623291829,오우드,서울 성동구 성수동2가 272-3,서울 성동구 연무장길 101-1,070-8844-0196,카페,음식점 > 카페 > 테마카페 > 디저트카페,http://place.map.kakao.com/1623291829,오우드,https://m.place.naver.com/restaurant/1833313793
290,290,1325105515,카페노티드 성수,서울 성동구 성수동2가 316-5,서울 성동구 연무장길 29-17,,카페,음식점 > 카페,http://place.map.kakao.com/1325105515,카페노티드 성수,https://m.place.naver.com/restaurant/1706561777
291,291,17657824,하루노유키,서울 성동구 성수동1가 685-428,서울 성동구 서울숲2길 17,02-548-8662,카페,음식점 > 카페 > 테마카페 > 디저트카페,http://place.map.kakao.com/17657824,하루노유키,https://m.place.naver.com/restaurant/30811760
292,292,483722570,마크69,서울 성동구 성수동1가 685-350,서울 성동구 서울숲길 24,,카페,음식점 > 카페,http://place.map.kakao.com/483722570,마크69,https://m.place.naver.com/restaurant/1430646260
293,293,505665583,맛차차,서울 성동구 성수동1가 685-450,서울 성동구 서울숲2길 18-11,010-9719-8707,카페,음식점 > 카페,http://place.map.kakao.com/505665583,맛차차,https://m.place.naver.com/restaurant/1467953783
294,294,431464251,아이오쓰리 성수사거리점,서울 성동구 성수동2가 275-54,서울 성동구 성수이로20길 60,02-497-1961,카페,음식점 > 카페,http://place.map.kakao.com/431464251,아이오쓰리 성수사거리점,https://m.place.naver.com/restaurant/1918028699
295,295,753723493,브라운팟,서울 성동구 행당동 286-19,서울 성동구 무학봉28길 16,02-2299-7796,카페,음식점 > 카페,http://place.map.kakao.com/753723493,브라운팟,https://m.place.naver.com/restaurant/1165635472
296,296,1431120740,플디 성수점,서울 성동구 성수동1가 13-156,서울 성동구 상원길 44,,카페,음식점 > 카페,http://place.map.kakao.com/1431120740,플디 성수점,https://m.place.naver.com/restaurant/1030413970
297,297,1300323227,카페노티드 피치스,서울 성동구 성수동2가 301-16,서울 성동구 연무장3길 9,0507-1405-9377,카페,음식점 > 카페 > 테마카페 > 디저트카페,http://place.map.kakao.com/1300323227,카페노티드 피치스,https://m.place.naver.com/restaurant/1022973489
298,298,1501931765,천상가옥,서울 성동구 성수동2가 322-4,서울 성동구 성수이로14길 14,,카페,음식점 > 카페,http://place.map.kakao.com/1501931765,천상가옥,https://m.place.naver.com/restaurant/1074358103
299,299,157479724,비엔나커피하우스 서울숲역점,서울 성동구 성수동1가 656-447,서울 성동구 왕십리로 66,070-4628-5049,카페,음식점 > 카페,http://place.map.kakao.com/157479724,비엔나커피하우스 서울숲역점,https://m.place.naver.com/restaurant/1320858854
300,300,1431819126,훔볼트,서울 성동구 성수동2가 325-19,서울 성동구 성수이로 58,,카페,음식점 > 카페 > 테마카페 > 디저트카페,http://place.map.kakao.com/1431819126,훔볼트,https://m.place.naver.com/restaurant/1504347953
301,301,1904529538,업사이드커피 뚝섬점,서울 성동구 성수동1가 7-8,서울 성동구 왕십리로14길 19-1,070-8691-4107,카페,음식점 > 카페,http://place.map.kakao.com/1904529538,업사이드커피 뚝섬점,https://m.place.naver.com/restaurant/1906998225
302,302,1742492568,키커피컴퍼니 왕십리점,서울 성동구 행당동 130-115,서울 성동구 왕십리로 269,070-4230-8893,카페,음식점 > 카페 > 커피전문점,http://place.map.kakao.com/1742492568,키커피컴퍼니 왕십리점,https://m.place.naver.com/restaurant/1976097430
303,303,1653556066,카페온화 성수점,서울 성동구 성수동2가 302-4,서울 성동구 아차산로 78,,카페,음식점 > 카페,http://place.map.kakao.com/1653556066,카페온화 성수점,https://m.place.naver.com/restaurant/1321493330
304,304,1623291829,오우드,서울 성동구 성수동2가 272-3,서울 성동구 연무장길 101-1,070-8844-0196,카페,음식점 > 카페 > 테마카페 > 디저트카페,http://place.map.kakao.com/1623291829,오우드,https://m.place.naver.com/restaurant/1833313793
305,305,1325105515,카페노티드 성수,서울 성동구 성수동2가 316-5,서울 성동구 연무장길 29-17,,카페,음식점 > 카페,http://place.map.kakao.com/1325105515,카페노티드 성수,https://m.place.naver.com/restaurant/1706561777
306,306,17657824,하루노유키,서울 성동구 성수동1가 685-428,서울 성동구 서울숲2길 17,02-548-8662,카페,음식점 > 카페 > 테마카페 > 디저트카페,http://place.map.kakao.com/17657824,하루노유키,https://m.place.naver.com/restaurant/30811760
307,307,483722570,마크69,서울 성동구 성수동1가 685-350,서울 성동구 서울숲길 24,,카페,음식점 > 카페,http://place.map.kakao.com/483722570,마크69,https://m.place.naver.com/restaurant/1430646260
308,308,505665583,맛차차,서울 성동구 성수동1가 685-450,서울 성동구 서울숲2길 18-11,010-9719-8707,카페,음식점 > 카페,http://place.map.kakao.com/505665583,맛차차,https://m.place.naver.com/restaurant/1467953783
309,309,431464251,아이오쓰리 성수사거리점,서울 성동구 성수동2가 275-54,서울 성동구 성수이로20길 60,02-497-1961,카페,음식점 > 카페,http://place.map.kakao.com/431464251,아이오쓰리 성수사거리점,https://m.place.naver.com/restaurant/1918028699
310,310,753723493,브라운팟,서울 성동구 행당동 286-19,서울 성동구 무학봉28길 16,02-2299-7796,카페,음식점 > 카페,http://place.map.kakao.com/753723493,브라운팟,https://m.place.naver.com/restaurant/1165635472
311,311,1431120740,플디 성수점,서울 성동구 성수동1가 13-156,서울 성동구 상원길 44,,카페,음식점 > 카페,http://place.map.kakao.com/1431120740,플디 성수점,https://m.place.naver.com/restaurant/1030413970
312,312,1300323227,카페노티드 피치스,서울 성동구 성수동2가 301-16,서울 성동구 연무장3길 9,0507-1405-9377,카페,음식점 > 카페 > 테마카페 > 디저트카페,http://place.map.kakao.com/1300323227,카페노티드 피치스,https://m.place.naver.com/restaurant/1022973489
313,313,1501931765,천상가옥,서울 성동구 성수동2가 322-4,서울 성동구 성수이로14길 14,,카페,음식점 > 카페,http://place.map.kakao.com/1501931765,천상가옥,https://m.place.naver.com/restaurant/1074358103
314,314,157479724,비엔나커피하우스 서울숲역점,서울 성동구 성수동1가 656-447,서울 성동구 왕십리로 66,070-4628-5049,카페,음식점 > 카페,http://place.map.kakao.com/157479724,비엔나커피하우스 서울숲역점,https://m.place.naver.com/restaurant/1320858854
315,315,1431819126,훔볼트,서울 성동구 성수동2가 325-19,서울 성동구 성수이로 58,,카페,음식점 > 카페 > 테마카페 > 디저트카페,http://place.map.kakao.com/1431819126,훔볼트,https://m.place.naver.com/restaurant/1504347953
316,316,1904529538,업사이드커피 뚝섬점,서울 성동구 성수동1가 7-8,서울 성동구 왕십리로14길 19-1,070-8691-4107,카페,음식점 > 카페,http://place.map.kakao.com/1904529538,업사이드커피 뚝섬점,https://m.place.naver.com/restaurant/1906998225
317,317,1742492568,키커피컴퍼니 왕십리점,서울 성동구 행당동 130-115,서울 성동구 왕십리로 269,070-4230-8893,카페,음식점 > 카페 > 커피전문점,http://place.map.kakao.com/1742492568,키커피컴퍼니 왕십리점,https://m.place.naver.com/restaurant/1976097430
318,318,1653556066,카페온화 성수점,서울 성동구 성수동2가 302-4,서울 성동구 아차산로 78,,카페,음식점 > 카페,http://place.map.kakao.com/1653556066,카페온화 성수점,https://m.place.naver.com/restaurant/1321493330
319,319,1623291829,오우드,서울 성동구 성수동2가 272-3,서울 성동구 연무장길 101-1,070-8844-0196,카페,음식점 > 카페 > 테마카페 > 디저트카페,http://place.map.kakao.com/1623291829,오우드,https://m.place.naver.com/restaurant/1833313793
320,320,1325105515,카페노티드 성수,서울 성동구 성수동2가 316-5,서울 성동구 연무장길 29-17,,카페,음식점 > 카페,http://place.map.kakao.com/1325105515,카페노티드 성수,https://m.place.naver.com/restaurant/1706561777
321,321,17657824,하루노유키,서울 성동구 성수동1가 685-428,서울 성동구 서울숲2길 17,02-548-8662,카페,음식점 > 카페 > 테마카페 > 디저트카페,http://place.map.kakao.com/17657824,하루노유키,https://m.place.naver.com/restaurant/30811760
322,322,483722570,마크69,서울 성동구 성수동1가 685-350,서울 성동구 서울숲길 24,,카페,음식점 > 카페,http://place.map.kakao.com/483722570,마크69,https://m.place.naver.com/restaurant/1430646260
323,323,505665583,맛차차,서울 성동구 성수동1가 685-450,서울 성동구 서울숲2길 18-11,010-9719-8707,카페,음식점 > 카페,http://place.map.kakao.com/505665583,맛차차,https://m.place.naver.com/restaurant/1467953783
324,324,431464251,아이오쓰리 성수사거리점,서울 성동구 성수동2가 275-54,서울 성동구 성수이로20길 60,02-497-1961,카페,음식점 > 카페,http://place.map.kakao.com/431464251,아이오쓰리 성수사거리점,https://m.place.naver.com/restaurant/1918028699
325,325,753723493,브라운팟,서울 성동구 행당동 286-19,서울 성동구 무학봉28길 16,02-2299-7796,카페,음식점 > 카페,http://place.map.kakao.com/753723493,브라운팟,https://m.place.naver.com/restaurant/1165635472
326,326,1431120740,플디 성수점,서울 성동구 성수동1가 13-156,서울 성동구 상원길 44,,카페,음식점 > 카페,http://place.map.kakao.com/1431120740,플디 성수점,https://m.place.naver.com/restaurant/1030413970
327,327,1300323227,카페노티드 피치스,서울 성동구 성수동2가 301-16,서울 성동구 연무장3길 9,0507-1405-9377,카페,음식점 > 카페 > 테마카페 > 디저트카페,http://place.map.kakao.com/1300323227,카페노티드 피치스,https://m.place.naver.com/restaurant/1022973489
328,328,1501931765,천상가옥,서울 성동구 성수동2가 322-4,서울 성동구 성수이로14길 14,,카페,음식점 > 카페,http://place.map.kakao.com/1501931765,천상가옥,https://m.place.naver.com/restaurant/1074358103
329,329,157479724,비엔나커피하우스 서울숲역점,서울 성동구 성수동1가 656-447,서울 성동구 왕십리로 66,070-4628-5049,카페,음식점 > 카페,http://place.map.kakao.com/157479724,비엔나커피하우스 서울숲역점,https://m.place.naver.com/restaurant/1320858854
330,330,1431819126,훔볼트,서울 성동구 성수동2가 325-19,서울 성동구 성수이로 58,,카페,음식점 > 카페 > 테마카페 > 디저트카페,http://place.map.kakao.com/1431819126,훔볼트,https://m.place.naver.com/restaurant/1504347953
331,331,1904529538,업사이드커피 뚝섬점,서울 성동구 성수동1가 7-8,서울 성동구 왕십리로14길 19-1,070-8691-4107,카페,음식점 > 카페,http://place.map.kakao.com/1904529538,업사이드커피 뚝섬점,https://m.place.naver.com/restaurant/1906998225
332,332,1742492568,키커피컴퍼니 왕십리점,서울 성동구 행당동 130-115,서울 성동구 왕십리로 269,070-4230-8893,카페,음식점 > 카페 > 커피전문점,http://place.map.kakao.com/1742492568,키커피컴퍼니 왕십리점,https://m.place.naver.com/restaurant/1976097430
333,333,1653556066,카페온화 성수점,서울 성동구 성수동2가 302-4,서울 성동구 아차산로 78,,카페,음식점 > 카페,http://place.map.kakao.com/1653556066,카페온화 성수점,https://m.place.naver.com/restaurant/1321493330
334,334,1623291829,오우드,서울 성동구 성수동2가 272-3,서울 성동구 연무장길 101-1,070-8844-0196,카페,음식점 > 카페 > 테마카페 > 디저트카페,http://place.map.kakao.com/1623291829,오우드,https://m.place.naver.com/restaurant/1833313793
335,335,1325105515,카페노티드 성수,서울 성동구 성수동2가 316-5,서울 성동구 연무장길 29-17,,카페,음식점 > 카페,http://place.map.kakao.com/1325105515,카페노티드 성수,https://m.place.naver.com/restaurant/1706561777
336,336,17657824,하루노유키,서울 성동구 성수동1가 685-428,서울 성동구 서울숲2길 17,02-548-8662,카페,음식점 > 카페 > 테마카페 > 디저트카페,http://place.map.kakao.com/17657824,하루노유키,https://m.place.naver.com/restaurant/30811760
337,337,483722570,마크69,서울 성동구 성수동1가 685-350,서울 성동구 서울숲길 24,,카페,음식점 > 카페,http://place.map.kakao.com/483722570,마크69,https://m.place.naver.com/restaurant/1430646260
338,338,505665583,맛차차,서울 성동구 성수동1가 685-450,서울 성동구 서울숲2길 18-11,010-9719-8707,카페,음식점 > 카페,http://place.map.kakao.com/505665583,맛차차,https://m.place.naver.com/restaurant/1467953783
339,339,431464251,아이오쓰리 성수사거리점,서울 성동구 성수동2가 275-54,서울 성동구 성수이로20길 60,02-497-1961,카페,음식점 > 카페,http://place.map.kakao.com/431464251,아이오쓰리 성수사거리점,https://m.place.naver.com/restaurant/1918028699
340,340,753723493,브라운팟,서울 성동구 행당동 286-19,서울 성동구 무학봉28길 16,02-2299-7796,카페,음식점 > 카페,http://place.map.kakao.com/753723493,브라운팟,https://m.place.naver.com/restaurant/1165635472
341,341,1431120740,플디 성수점,서울 성동구 성수동1가 13-156,서울 성동구 상원길 44,,카페,음식점 > 카페,http://place.map.kakao.com/1431120740,플디 성수점,https://m.place.naver.com/restaurant/1030413970
342,342,1300323227,카페노티드 피치스,서울 성동구 성수동2가 301-16,서울 성동구 연무장3길 9,0507-1405-9377,카페,음식점 > 카페 > 테마카페 > 디저트카페,http://place.map.kakao.com/1300323227,카페노티드 피치스,https://m.place.naver.com/restaurant/1022973489
343,343,1501931765,천상가옥,서울 성동구 성수동2가 322-4,서울 성동구 성수이로14길 14,,카페,음식점 > 카페,http://place.map.kakao.com/1501931765,천상가옥,https://m.place.naver.com/restaurant/1074358103
344,344,157479724,비엔나커피하우스 서울숲역점,서울 성동구 성수동1가 656-447,서울 성동구 왕십리로 66,070-4628-5049,카페,음식점 > 카페,http://place.map.kakao.com/157479724,비엔나커피하우스 서울숲역점,https://m.place.naver.com/restaurant/1320858854
345,345,1431819126,훔볼트,서울 성동구 성수동2가 325-19,서울 성동구 성수이로 58,,카페,음식점 > 카페 > 테마카페 > 디저트카페,http://place.map.kakao.com/1431819126,훔볼트,https://m.place.naver.com/restaurant/1504347953
346,346,1904529538,업사이드커피 뚝섬점,서울 성동구 성수동1가 7-8,서울 성동구 왕십리로14길 19-1,070-8691-4107,카페,음식점 > 카페,http://place.map.kakao.com/1904529538,업사이드커피 뚝섬점,https://m.place.naver.com/restaurant/1906998225
347,347,1742492568,키커피컴퍼니 왕십리점,서울 성동구 행당동 130-115,서울 성동구 왕십리로 269,070-4230-8893,카페,음식점 > 카페 > 커피전문점,http://place.map.kakao.com/1742492568,키커피컴퍼니 왕십리점,https://m.place.naver.com/restaurant/1976097430
348,348,1653556066,카페온화 성수점,서울 성동구 성수동2가 302-4,서울 성동구 아차산로 78,,카페,음식점 > 카페,http://place.map.kakao.com/1653556066,카페온화 성수점,https://m.place.naver.com/restaurant/1321493330
349,349,1623291829,오우드,서울 성동구 성수동2가 272-3,서울 성동구 연무장길 101-1,070-8844-0196,카페,음식점 > 카페 > 테마카페 > 디저트카페,http://place.map.kakao.com/1623291829,오우드,https://m.place.naver.com/restaurant/1833313793
350,350,1325105515,카페노티드 성수,서울 성동구 성수동2가 316-5,서울 성동구 연무장길 29-17,,카페,음식점 > 카페,http://place.map.kakao.com/1325105515,카페노티드 성수,https://m.place.naver.com/restaurant/1706561777
351,351,17657824,하루노유키,서울 성동구 성수동1가 685-428,서울 성동구 서울숲2길 17,02-548-8662,카페,음식점 > 카페 > 테마카페 > 디저트카페,http://place.map.kakao.com/17657824,하루노유키,https://m.place.naver.com/restaurant/30811760
352,352,483722570,마크69,서울 성동구 성수동1가 685-350,서울 성동구 서울숲길 24,,카페,음식점 > 카페,http://place.map.kakao.com/483722570,마크69,https://m.place.naver.com/restaurant/1430646260
353,353,505665583,맛차차,서울 성동구 성수동1가 685-450,서울 성동구 서울숲2길 18-11,010-9719-8707,카페,음식점 > 카페,http://place.map.kakao.com/505665583,맛차차,https://m.place.naver.com/restaurant/1467953783
354,354,431464251,아이오쓰리 성수사거리점,서울 성동구 성수동2가 275-54,서울 성동구 성수이로20길 60,02-497-1961,카페,음식점 > 카페,http://place.map.kakao.com/431464251,아이오쓰리 성수사거리점,https://m.place.naver.com/restaurant/1918028699
355,355,753723493,브라운팟,서울 성동구 행당동 286-19,서울 성동구 무학봉28길 16,02-2299-7796,카페,음식점 > 카페,http://place.map.kakao.com/753723493,브라운팟,https://m.place.naver.com/restaurant/1165635472
356,356,1431120740,플디 성수점,서울 성동구 성수동1가 13-156,서울 성동구 상원길 44,,카페,음식점 > 카페,http://place.map.kakao.com/1431120740,플디 성수점,https://m.place.naver.com/restaurant/1030413970
357,357,1300323227,카페노티드 피치스,서울 성동구 성수동2가 301-16,서울 성동구 연무장3길 9,0507-1405-9377,카페,음식점 > 카페 > 테마카페 > 디저트카페,http://place.map.kakao.com/1300323227,카페노티드 피치스,https://m.place.naver.com/restaurant/1022973489
358,358,1501931765,천상가옥,서울 성동구 성수동2가 322-4,서울 성동구 성수이로14길 14,,카페,음식점 > 카페,http://place.map.kakao.com/1501931765,천상가옥,https://m.place.naver.com/restaurant/1074358103
359,359,157479724,비엔나커피하우스 서울숲역점,서울 성동구 성수동1가 656-447,서울 성동구 왕십리로 66,070-4628-5049,카페,음식점 > 카페,http://place.map.kakao.com/157479724,비엔나커피하우스 서울숲역점,https://m.place.naver.com/restaurant/1320858854
360,360,1431819126,훔볼트,서울 성동구 성수동2가 325-19,서울 성동구 성수이로 58,,카페,음식점 > 카페 > 테마카페 > 디저트카페,http://place.map.kakao.com/1431819126,훔볼트,https://m.place.naver.com/restaurant/1504347953
361,361,1904529538,업사이드커피 뚝섬점,서울 성동구 성수동1가 7-8,서울 성동구 왕십리로14길 19-1,070-8691-4107,카페,음식점 > 카페,http://place.map.kakao.com/1904529538,업사이드커피 뚝섬점,https://m.place.naver.com/restaurant/1906998225
362,362,1742492568,키커피컴퍼니 왕십리점,서울 성동구 행당동 130-115,서울 성동구 왕십리로 269,070-4230-8893,카페,음식점 > 카페 > 커피전문점,http://place.map.kakao.com/1742492568,키커피컴퍼니 왕십리점,https://m.place.naver.com/restaurant/1976097430
363,363,1653556066,카페온화 성수점,서울 성동구 성수동2가 302-4,서울 성동구 아차산로 78,,카페,음식점 > 카페,http://place.map.kakao.com/1653556066,카페온화 성수점,https://m.place.naver.com/restaurant/1321493330
364,364,1623291829,오우드,서울 성동구 성수동2가 272-3,서울 성동구 연무장길 101-1,070-8844-0196,카페,음식점 > 카페 > 테마카페 > 디저트카페,http://place.map.kakao.com/1623291829,오우드,https://m.place.naver.com/restaurant/1833313793
365,365,1325105515,카페노티드 성수,서울 성동구 성수동2가 316-5,서울 성동구 연무장길 29-17,,카페,음식점 > 카페,http://place.map.kakao.com/1325105515,카페노티드 성수,https://m.place.naver.com/restaurant/1706561777
366,366,17657824,하루노유키,서울 성동구 성수동1가 685-428,서울 성동구 서울숲2길 17,02-548-8662,카페,음식점 > 카페 > 테마카페 > 디저트카페,http://place.map.kakao.com/17657824,하루노유키,https://m.place.naver.com/restaurant/30811760
367,367,483722570,마크69,서울 성동구 성수동1가 685-350,서울 성동구 서울숲길 24,,카페,음식점 > 카페,http://place.map.kakao.com/483722570,마크69,https://m.place.naver.com/restaurant/1430646260
368,368,505665583,맛차차,서울 성동구 성수동1가 685-450,서울 성동구 서울숲2길 18-11,010-9719-8707,카페,음식점 > 카페,http://place.map.kakao.com/505665583,맛차차,https://m.place.naver.com/restaurant/1467953783
369,369,431464251,아이오쓰리 성수사거리점,서울 성동구 성수동2가 275-54,서울 성동구 성수이로20길 60,02-497-1961,카페,음식점 > 카페,http://place.map.kakao.com/431464251,아이오쓰리 성수사거리점,https://m.place.naver.com/restaurant/1918028699
370,370,753723493,브라운팟,서울 성동구 행당동 286-19,서울 성동구 무학봉28길 16,02-2299-7796,카페,음식점 > 카페,http://place.map.kakao.com/753723493,브라운팟,https://m.place.naver.com/restaurant/1165635472
371,371,1431120740,플디 성수점,서울 성동구 성수동1가 13-156,서울 성동구 상원길 44,,카페,음식점 > 카페,http://place.map.kakao.com/1431120740,플디 성수점,https://m.place.naver.com/restaurant/1030413970
372,372,1300323227,카페노티드 피치스,서울 성동구 성수동2가 301-16,서울 성동구 연무장3길 9,0507-1405-9377,카페,음식점 > 카페 > 테마카페 > 디저트카페,http://place.map.kakao.com/1300323227,카페노티드 피치스,https://m.place.naver.com/restaurant/1022973489
373,373,1501931765,천상가옥,서울 성동구 성수동2가 322-4,서울 성동구 성수이로14길 14,,카페,음식점 > 카페,http://place.map.kakao.com/1501931765,천상가옥,https://m.place.naver.com/restaurant/1074358103
374,374,157479724,비엔나커피하우스 서울숲역점,서울 성동구 성수동1가 656-447,서울 성동구 왕십리로 66,070-4628-5049,카페,음식점 > 카페,http://place.map.kakao.com/157479724,비엔나커피하우스 서울숲역점,https://m.place.naver.com/restaurant/1320858854
375,375,1431819126,훔볼트,서울 성동구 성수동2가 325-19,서울 성동구 성수이로 58,,카페,음식점 > 카페 > 테마카페 > 디저트카페,http://place.map.kakao.com/1431819126,훔볼트,https://m.place.naver.com/restaurant/1504347953
376,376,1904529538,업사이드커피 뚝섬점,서울 성동구 성수동1가 7-8,서울 성동구 왕십리로14길 19-1,070-8691-4107,카페,음식점 > 카페,http://place.map.kakao.com/1904529538,업사이드커피 뚝섬점,https://m.place.naver.com/restaurant/1906998225
377,377,1742492568,키커피컴퍼니 왕십리점,서울 성동구 행당동 130-115,서울 성동구 왕십리로 269,070-4230-8893,카페,음식점 > 카페 > 커피전문점,http://place.map.kakao.com/1742492568,키커피컴퍼니 왕십리점,https://m.place.naver.com/restaurant/1976097430
378,378,1653556066,카페온화 성수점,서울 성동구 성수동2가 302-4,서울 성동구 아차산로 78,,카페,음식점 > 카페,http://place.map.kakao.com/1653556066,카페온화 성수점,https://m.place.naver.com/restaurant/1321493330
379,379,1623291829,오우드,서울 성동구 성수동2가 272-3,서울 성동구 연무장길 101-1,070-8844-0196,카페,음식점 > 카페 > 테마카페 > 디저트카페,http://place.map.kakao.com/1623291829,오우드,https://m.place.naver.com/restaurant/1833313793
380,380,1325105515,카페노티드 성수,서울 성동구 성수동2가 316-5,서울 성동구 연무장길 29-17,,카페,음식점 > 카페,http://place.map.kakao.com/1325105515,카페노티드 성수,https://m.place.naver.com/restaurant/1706561777
381,381,17657824,하루노유키,서울 성동구 성수동1가 685-428,서울 성동구 서울숲2길 17,02-548-8662,카페,음식점 > 카페 > 테마카페 > 디저트카페,http://place.map.kakao.com/17657824,하루노유키,https://m.place.naver.com/restaurant/30811760
382,382,483722570,마크69,서울 성동구 성수동1가 685-350,서울 성동구 서울숲길 24,,카페,음식점 > 카페,http://place.map.kakao.com/483722570,마크69,https://m.place.naver.com/restaurant/1430646260
383,383,505665583,맛차차,서울 성동구 성수동1가 685-450,서울 성동구 서울숲2길 18-11,010-9719-8707,카페,음식점 > 카페,http://place.map.kakao.com/505665583,맛차차,https://m.place.naver.com/restaurant/1467953783
384,384,431464251,아이오쓰리 성수사거리점,서울 성동구 성수동2가 275-54,서울 성동구 성수이로20길 60,02-497-1961,카페,음식점 > 카페,http://place.map.kakao.com/431464251,아이오쓰리 성수사거리점,https://m.place.naver.com/restaurant/1918028699
385,385,753723493,브라운팟,서울 성동구 행당동 286-19,서울 성동구 무학봉28길 16,02-2299-7796,카페,음식점 > 카페,http://place.map.kakao.com/753723493,브라운팟,https://m.place.naver.com/restaurant/1165635472
386,386,1431120740,플디 성수점,서울 성동구 성수동1가 13-156,서울 성동구 상원길 44,,카페,음식점 > 카페,http://place.map.kakao.com/1431120740,플디 성수점,https://m.place.naver.com/restaurant/1030413970
387,387,1300323227,카페노티드 피치스,서울 성동구 성수동2가 301-16,서울 성동구 연무장3길 9,0507-1405-9377,카페,음식점 > 카페 > 테마카페 > 디저트카페,http://place.map.kakao.com/1300323227,카페노티드 피치스,https://m.place.naver.com/restaurant/1022973489
388,388,1501931765,천상가옥,서울 성동구 성수동2가 322-4,서울 성동구 성수이로14길 14,,카페,음식점 > 카페,http://place.map.kakao.com/1501931765,천상가옥,https://m.place.naver.com/restaurant/1074358103
389,389,157479724,비엔나커피하우스 서울숲역점,서울 성동구 성수동1가 656-447,서울 성동구 왕십리로 66,070-4628-5049,카페,음식점 > 카페,http://place.map.kakao.com/157479724,비엔나커피하우스 서울숲역점,https://m.place.naver.com/restaurant/1320858854
390,390,1431819126,훔볼트,서울 성동구 성수동2가 325-19,서울 성동구 성수이로 58,,카페,음식점 > 카페 > 테마카페 > 디저트카페,http://place.map.kakao.com/1431819126,훔볼트,https://m.place.naver.com/restaurant/1504347953
391,391,1904529538,업사이드커피 뚝섬점,서울 성동구 성수동1가 7-8,서울 성동구 왕십리로14길 19-1,070-8691-4107,카페,음식점 > 카페,http://place.map.kakao.com/1904529538,업사이드커피 뚝섬점,https://m.place.naver.com/restaurant/1906998225
392,392,1742492568,키커피컴퍼니 왕십리점,서울 성동구 행당동 130-115,서울 성동구 왕십리로 269,070-4230-8893,카페,음식점 > 카페 > 커피전문점,http://place.map.kakao.com/1742492568,키커피컴퍼니 왕십리점,https://m.place.naver.com/restaurant/1976097430
393,393,1653556066,카페온화 성수점,서울 성동구 성수동2가 302-4,서울 성동구 아차산로 78,,카페,음식점 > 카페,http://place.map.kakao.com/1653556066,카페온화 성수점,https://m.place.naver.com/restaurant/1321493330
394,394,1623291829,오우드,서울 성동구 성수동2가 272-3,서울 성동구 연무장길 101-1,070-8844-0196,카페,음식점 > 카페 > 테마카페 > 디저트카페,http://place.map.kakao.com/1623291829,오우드,https://m.place.naver.com/restaurant/1833313793
395,395,1325105515,카페노티드 성수,서울 성동구 성수동2가 316-5,서울 성동구 연무장길 29-17,,카페,음식점 > 카페,http://place.map.kakao.com/1325105515,카페노티드 성수,https://m.place.naver.com/restaurant/1706561777
396,396,17657824,하루노유키,서울 성동구 성수동1가 685-428,서울 성동구 서울숲2길 17,02-548-8662,카페,음식점 > 카페 > 테마카페 > 디저트카페,http://place.map.kakao.com/17657824,하루노유키,https://m.place.naver.com/restaurant/30811760
397,397,483722570,마크69,서울 성동구 성수동1가 685-350,서울 성동구 서울숲길 24,,카페,음식점 > 카페,http://place.map.kakao.com/483722570,마크69,https://m.place.naver.com/restaurant/1430646260
398,398,505665583,맛차차,서울 성동구 성수동1가 685-450,서울 성동구 서울숲2길 18-11,010-9719-8707,카페,음식점 > 카페,http://place.map.kakao.com/505665583,맛차차,https://m.place.naver.com/restaurant/1467953783
399,399,431464251,아이오쓰리 성수사거리점,서울 성동구 성수동2가 275-54,서울 성동구 성수이로20길 60,02-497-1961,카페,음식점 > 카페,http://place.map.kakao.com/431464251,아이오쓰리 성수사거리점,https://m.place.naver.com/restaurant/1918028699
400,400,753723493,브라운팟,서울 성동구 행당동 286-19,서울 성동구 무학봉28길 16,02-2299-7796,카페,음식점 > 카페,http://place.map.kakao.com/753723493,브라운팟,https://m.place.naver.com/restaurant/1165635472
401,401,1431120740,플디 성수점,서울 성동구 성수동1가 13-156,서울 성동구 상원길 44,,카페,음식점 > 카페,http://place.map.kakao.com/1431120740,플디 성수점,https://m.place.naver.com/restaurant/1030413970
402,402,1300323227,카페노티드 피치스,서울 성동구 성수동2가 301-16,서울 성동구 연무장3길 9,0507-1405-9377,카페,음식점 > 카페 > 테마카페 > 디저트카페,http://place.map.kakao.com/1300323227,카페노티드 피치스,https://m.place.naver.com/restaurant/1022973489
403,403,1501931765,천상가옥,서울 성동구 성수동2가 322-4,서울 성동구 성수이로14길 14,,카페,음식점 > 카페,http://place.map.kakao.com/1501931765,천상가옥,https://m.place.naver.com/restaurant/1074358103
404,404,157479724,비엔나커피하우스 서울숲역점,서울 성동구 성수동1가 656-447,서울 성동구 왕십리로 66,070-4628-5049,카페,음식점 > 카페,http://place.map.kakao.com/157479724,비엔나커피하우스 서울숲역점,https://m.place.naver.com/restaurant/1320858854
405,405,1431819126,훔볼트,서울 성동구 성수동2가 325-19,서울 성동구 성수이로 58,,카페,음식점 > 카페 > 테마카페 > 디저트카페,http://place.map.kakao.com/1431819126,훔볼트,https://m.place.naver.com/restaurant/1504347953
406,406,1904529538,업사이드커피 뚝섬점,서울 성동구 성수동1가 7-8,서울 성동구 왕십리로14길 19-1,070-8691-4107,카페,음식점 > 카페,http://place.map.kakao.com/1904529538,업사이드커피 뚝섬점,https://m.place.naver.com/restaurant/1906998225
407,407,1742492568,키커피컴퍼니 왕십리점,서울 성동구 행당동 130-115,서울 성동구 왕십리로 269,070-4230-8893,카페,음식점 > 카페 > 커피전문점,http://place.map.kakao.com/1742492568,키커피컴퍼니 왕십리점,https://m.place.naver.com/restaurant/1976097430
408,408,1653556066,카페온화 성수점,서울 성동구 성수동2가 302-4,서울 성동구 아차산로 78,,카페,음식점 > 카페,http://place.map.kakao.com/1653556066,카페온화 성수점,https://m.place.naver.com/restaurant/1321493330
409,409,1623291829,오우드,서울 성동구 성수동2가 272-3,서울 성동구 연무장길 101-1,070-8844-0196,카페,음식점 > 카페 > 테마카페 > 디저트카페,http://place.map.kakao.com/1623291829,오우드,https://m.place.naver.com/restaurant/1833313793
410,410,1325105515,카페노티드 성수,서울 성동구 성수동2가 316-5,서울 성동구 연무장길 29-17,,카페,음식점 > 카페,http://place.map.kakao.com/1325105515,카페노티드 성수,https://m.place.naver.com/restaurant/1706561777
411,411,17657824,하루노유키,서울 성동구 성수동1가 685-428,서울 성동구 서울숲2길 17,02-548-8662,카페,음식점 > 카페 > 테마카페 > 디저트카페,http://place.map.kakao.com/17657824,하루노유키,https://m.place.naver.com/restaurant/30811760
412,412,483722570,마크69,서울 성동구 성수동1가 685-350,서울 성동구 서울숲길 24,,카페,음식점 > 카페,http://place.map.kakao.com/483722570,마크69,https://m.place.naver.com/restaurant/1430646260
413,413,505665583,맛차차,서울 성동구 성수동1가 685-450,서울 성동구 서울숲2길 18-11,010-9719-8707,카페,음식점 > 카페,http://place.map.kakao.com/505665583,맛차차,https://m.place.naver.com/restaurant/1467953783
414,414,431464251,아이오쓰리 성수사거리점,서울 성동구 성수동2가 275-54,서울 성동구 성수이로20길 60,02-497-1961,카페,음식점 > 카페,http://place.map.kakao.com/431464251,아이오쓰리 성수사거리점,https://m.place.naver.com/restaurant/1918028699
415,415,753723493,브라운팟,서울 성동구 행당동 286-19,서울 성동구 무학봉28길 16,02-2299-7796,카페,음식점 > 카페,http://place.map.kakao.com/753723493,브라운팟,https://m.place.naver.com/restaurant/1165635472
416,416,1431120740,플디 성수점,서울 성동구 성수동1가 13-156,서울 성동구 상원길 44,,카페,음식점 > 카페,http://place.map.kakao.com/1431120740,플디 성수점,https://m.place.naver.com/restaurant/1030413970
417,417,1300323227,카페노티드 피치스,서울 성동구 성수동2가 301-16,서울 성동구 연무장3길 9,0507-1405-9377,카페,음식점 > 카페 > 테마카페 > 디저트카페,http://place.map.kakao.com/1300323227,카페노티드 피치스,https://m.place.naver.com/restaurant/1022973489
418,418,1501931765,천상가옥,서울 성동구 성수동2가 322-4,서울 성동구 성수이로14길 14,,카페,음식점 > 카페,http://place.map.kakao.com/1501931765,천상가옥,https://m.place.naver.com/restaurant/1074358103
419,419,157479724,비엔나커피하우스 서울숲역점,서울 성동구 성수동1가 656-447,서울 성동구 왕십리로 66,070-4628-5049,카페,음식점 > 카페,http://place.map.kakao.com/157479724,비엔나커피하우스 서울숲역점,https://m.place.naver.com/restaurant/1320858854
420,420,1431819126,훔볼트,서울 성동구 성수동2가 325-19,서울 성동구 성수이로 58,,카페,음식점 > 카페 > 테마카페 > 디저트카페,http://place.map.kakao.com/1431819126,훔볼트,https://m.place.naver.com/restaurant/1504347953
421,421,1904529538,업사이드커피 뚝섬점,서울 성동구 성수동1가 7-8,서울 성동구 왕십리로14길 19-1,070-8691-4107,카페,음식점 > 카페,http://place.map.kakao.com/1904529538,업사이드커피 뚝섬점,https://m.place.naver.com/restaurant/1906998225
422,422,1742492568,키커피컴퍼니 왕십리점,서울 성동구 행당동 130-115,서울 성동구 왕십리로 269,070-4230-8893,카페,음식점 > 카페 > 커피전문점,http://place.map.kakao.com/1742492568,키커피컴퍼니 왕십리점,https://m.place.naver.com/restaurant/1976097430
423,423,1653556066,카페온화 성수점,서울 성동구 성수동2가 302-4,서울 성동구 아차산로 78,,카페,음식점 > 카페,http://place.map.kakao.com/1653556066,카페온화 성수점,https://m.place.naver.com/restaurant/1321493330
424,424,1623291829,오우드,서울 성동구 성수동2가 272-3,서울 성동구 연무장길 101-1,070-8844-0196,카페,음식점 > 카페 > 테마카페 > 디저트카페,http://place.map.kakao.com/1623291829,오우드,https://m.place.naver.com/restaurant/1833313793
425,425,1325105515,카페노티드 성수,서울 성동구 성수동2가 316-5,서울 성동구 연무장길 29-17,,카페,음식점 > 카페,http://place.map.kakao.com/1325105515,카페노티드 성수,https://m.place.naver.com/restaurant/1706561777
426,426,17657824,하루노유키,서울 성동구 성수동1가 685-428,서울 성동구 서울숲2길 17,02-548-8662,카페,음식점 > 카페 > 테마카페 > 디저트카페,http://place.map.kakao.com/17657824,하루노유키,https://m.place.naver.com/restaurant/30811760
427,427,483722570,마크69,서울 성동구 성수동1가 685-350,서울 성동구 서울숲길 24,,카페,음식점 > 카페,http://place.map.kakao.com/483722570,마크69,https://m.place.naver.com/restaurant/1430646260
428,428,505665583,맛차차,서울 성동구 성수동1가 685-450,서울 성동구 서울숲2길 18-11,010-9719-8707,카페,음식점 > 카페,http://place.map.kakao.com/505665583,맛차차,https://m.place.naver.com/restaurant/1467953783
429,429,431464251,아이오쓰리 성수사거리점,서울 성동구 성수동2가 275-54,서울 성동구 성수이로20길 60,02-497-1961,카페,음식점 > 카페,http://place.map.kakao.com/431464251,아이오쓰리 성수사거리점,https://m.place.naver.com/restaurant/1918028699
430,430,753723493,브라운팟,서울 성동구 행당동 286-19,서울 성동구 무학봉28길 16,02-2299-7796,카페,음식점 > 카페,http://place.map.kakao.com/753723493,브라운팟,https://m.place.naver.com/restaurant/1165635472
431,431,1431120740,플디 성수점,서울 성동구 성수동1가 13-156,서울 성동구 상원길 44,,카페,음식점 > 카페,http://place.map.kakao.com/1431120740,플디 성수점,https://m.place.naver.com/restaurant/1030413970
432,432,1300323227,카페노티드 피치스,서울 성동구 성수동2가 301-16,서울 성동구 연무장3길 9,0507-1405-9377,카페,음식점 > 카페 > 테마카페 > 디저트카페,http://place.map.kakao.com/1300323227,카페노티드 피치스,https://m.place.naver.com/restaurant/1022973489
433,433,1501931765,천상가옥,서울 성동구 성수동2가 322-4,서울 성동구 성수이로14길 14,,카페,음식점 > 카페,http://place.map.kakao.com/1501931765,천상가옥,https://m.place.naver.com/restaurant/1074358103
434,434,157479724,비엔나커피하우스 서울숲역점,서울 성동구 성수동1가 656-447,서울 성동구 왕십리로 66,070-4628-5049,카페,음식점 > 카페,http://place.map.kakao.com/157479724,비엔나커피하우스 서울숲역점,https://m.place.naver.com/restaurant/1320858854
435,435,1431819126,훔볼트,서울 성동구 성수동2가 325-19,서울 성동구 성수이로 58,,카페,음식점 > 카페 > 테마카페 > 디저트카페,http://place.map.kakao.com/1431819126,훔볼트,https://m.place.naver.com/restaurant/1504347953
436,436,1904529538,업사이드커피 뚝섬점,서울 성동구 성수동1가 7-8,서울 성동구 왕십리로14길 19-1,070-8691-4107,카페,음식점 > 카페,http://place.map.kakao.com/1904529538,업사이드커피 뚝섬점,https://m.place.naver.com/restaurant/1906998225
437,437,1742492568,키커피컴퍼니 왕십리점,서울 성동구 행당동 130-115,서울 성동구 왕십리로 269,070-4230-8893,카페,음식점 > 카페 > 커피전문점,http://place.map.kakao.com/1742492568,키커피컴퍼니 왕십리점,https://m.place.naver.com/restaurant/1976097430
438,438,1653556066,카페온화 성수점,서울 성동구 성수동2가 302-4,서울 성동구 아차산로 78,,카페,음식점 > 카페,http://place.map.kakao.com/1653556066,카페온화 성수점,https://m.place.naver.com/restaurant/1321493330
439,439,1623291829,오우드,서울 성동구 성수동2가 272-3,서울 성동구 연무장길 101-1,070-8844-0196,카페,음식점 > 카페 > 테마카페 > 디저트카페,http://place.map.kakao.com/1623291829,오우드,https://m.place.naver.com/restaurant/1833313793
440,440,1325105515,카페노티드 성수,서울 성동구 성수동2가 316-5,서울 성동구 연무장길 29-17,,카페,음식점 > 카페,http://place.map.kakao.com/1325105515,카페노티드 성수,https://m.place.naver.com/restaurant/1706561777
441,441,17657824,하루노유키,서울 성동구 성수동1가 685-428,서울 성동구 서울숲2길 17,02-548-8662,카페,음식점 > 카페 > 테마카페 > 디저트카페,http://place.map.kakao.com/17657824,하루노유키,https://m.place.naver.com/restaurant/30811760
442,442,483722570,마크69,서울 성동구 성수동1가 685-350,서울 성동구 서울숲길 24,,카페,음식점 > 카페,http://place.map.kakao.com/483722570,마크69,https://m.place.naver.com/restaurant/1430646260
443,443,505665583,맛차차,서울 성동구 성수동1가 685-450,서울 성동구 서울숲2길 18-11,010-9719-8707,카페,음식점 > 카페,http://place.map.kakao.com/505665583,맛차차,https://m.place.naver.com/restaurant/1467953783
444,444,431464251,아이오쓰리 성수사거리점,서울 성동구 성수동2가 275-54,서울 성동구 성수이로20길 60,02-497-1961,카페,음식점 > 카페,http://place.map.kakao.com/431464251,아이오쓰리 성수사거리점,https://m.place.naver.com/restaurant/1918028699
445,445,753723493,브라운팟,서울 성동구 행당동 286-19,서울 성동구 무학봉28길 16,02-2299-7796,카페,음식점 > 카페,http://place.map.kakao.com/753723493,브라운팟,https://m.place.naver.com/restaurant/1165635472
446,446,1431120740,플디 성수점,서울 성동구 성수동1가 13-156,서울 성동구 상원길 44,,카페,음식점 > 카페,http://place.map.kakao.com/1431120740,플디 성수점,https://m.place.naver.com/restaurant/1030413970
447,447,1300323227,카페노티드 피치스,서울 성동구 성수동2가 301-16,서울 성동구 연무장3길 9,0507-1405-9377,카페,음식점 > 카페 > 테마카페 > 디저트카페,http://place.map.kakao.com/1300323227,카페노티드 피치스,https://m.place.naver.com/restaurant/1022973489
448,448,1501931765,천상가옥,서울 성동구 성수동2가 322-4,서울 성동구 성수이로14길 14,,카페,음식점 > 카페,http://place.map.kakao.com/1501931765,천상가옥,https://m.place.naver.com/restaurant/1074358103
449,449,157479724,비엔나커피하우스 서울숲역점,서울 성동구 성수동1가 656-447,서울 성동구 왕십리로 66,070-4628-5049,카페,음식점 > 카페,http://place.map.kakao.com/157479724,비엔나커피하우스 서울숲역점,https://m.place.naver.com/restaurant/1320858854
450,450,1431819126,훔볼트,서울 성동구 성수동2가 325-19,서울 성동구 성수이로 58,,카페,음식점 > 카페 > 테마카페 > 디저트카페,http://place.map.kakao.com/1431819126,훔볼트,https://m.place.naver.com/restaurant/1504347953
451,451,1904529538,업사이드커피 뚝섬점,서울 성동구 성수동1가 7-8,서울 성동구 왕십리로14길 19-1,070-8691-4107,카페,음식점 > 카페,http://place.map.kakao.com/1904529538,업사이드커피 뚝섬점,https://m.place.naver.com/restaurant/1906998225
452,452,1742492568,키커피컴퍼니 왕십리점,서울 성동구 행당동 130-115,서울 성동구 왕십리로 269,070-4230-8893,카페,음식점 > 카페 > 커피전문점,http://place.map.kakao.com/1742492568,키커피컴퍼니 왕십리점,https://m.place.naver.com/restaurant/1976097430
453,453,1653556066,카페온화 성수점,서울 성동구 성수동2가 302-4,서울 성동구 아차산로 78,,카페,음식점 > 카페,http://place.map.kakao.com/1653556066,카페온화 성수점,https://m.place.naver.com/restaurant/1321493330
454,454,1623291829,오우드,서울 성동구 성수동2가 272-3,서울 성동구 연무장길 101-1,070-8844-0196,카페,음식점 > 카페 > 테마카페 > 디저트카페,http://place.map.kakao.com/1623291829,오우드,https://m.place.naver.com/restaurant/1833313793
455,455,1325105515,카페노티드 성수,서울 성동구 성수동2가 316-5,서울 성동구 연무장길 29-17,,카페,음식점 > 카페,http://place.map.kakao.com/1325105515,카페노티드 성수,https://m.place.naver.com/restaurant/1706561777
456,456,17657824,하루노유키,서울 성동구 성수동1가 685-428,서울 성동구 서울숲2길 17,02-548-8662,카페,음식점 > 카페 > 테마카페 > 디저트카페,http://place.map.kakao.com/17657824,하루노유키,https://m.place.naver.com/restaurant/30811760
457,457,483722570,마크69,서울 성동구 성수동1가 685-350,서울 성동구 서울숲길 24,,카페,음식점 > 카페,http://place.map.kakao.com/483722570,마크69,https://m.place.naver.com/restaurant/1430646260
458,458,505665583,맛차차,서울 성동구 성수동1가 685-450,서울 성동구 서울숲2길 18-11,010-9719-8707,카페,음식점 > 카페,http://place.map.kakao.com/505665583,맛차차,https://m.place.naver.com/restaurant/1467953783
459,459,431464251,아이오쓰리 성수사거리점,서울 성동구 성수동2가 275-54,서울 성동구 성수이로20길 60,02-497-1961,카페,음식점 > 카페,http://place.map.kakao.com/431464251,아이오쓰리 성수사거리점,https://m.place.naver.com/restaurant/1918028699
460,460,753723493,브라운팟,서울 성동구 행당동 286-19,서울 성동구 무학봉28길 16,02-2299-7796,카페,음식점 > 카페,http://place.map.kakao.com/753723493,브라운팟,https://m.place.naver.com/restaurant/1165635472
461,461,1431120740,플디 성수점,서울 성동구 성수동1가 13-156,서울 성동구 상원길 44,,카페,음식점 > 카페,http://place.map.kakao.com/1431120740,플디 성수점,https://m.place.naver.com/restaurant/1030413970
462,462,1300323227,카페노티드 피치스,서울 성동구 성수동2가 301-16,서울 성동구 연무장3길 9,0507-1405-9377,카페,음식점 > 카페 > 테마카페 > 디저트카페,http://place.map.kakao.com/1300323227,카페노티드 피치스,https://m.place.naver.com/restaurant/1022973489
463,463,1501931765,천상가옥,서울 성동구 성수동2가 322-4,서울 성동구 성수이로14길 14,,카페,음식점 > 카페,http://place.map.kakao.com/1501931765,천상가옥,https://m.place.naver.com/restaurant/1074358103
464,464,157479724,비엔나커피하우스 서울숲역점,서울 성동구 성수동1가 656-447,서울 성동구 왕십리로 66,070-4628-5049,카페,음식점 > 카페,http://place.map.kakao.com/157479724,비엔나커피하우스 서울숲역점,https://m.place.naver.com/restaurant/1320858854
465,465,1431819126,훔볼트,서울 성동구 성수동2가 325-19,서울 성동구 성수이로 58,,카페,음식점 > 카페 > 테마카페 > 디저트카페,http://place.map.kakao.com/1431819126,훔볼트,https://m.place.naver.com/restaurant/1504347953
466,466,1904529538,업사이드커피 뚝섬점,서울 성동구 성수동1가 7-8,서울 성동구 왕십리로14길 19-1,070-8691-4107,카페,음식점 > 카페,http://place.map.kakao.com/1904529538,업사이드커피 뚝섬점,https://m.place.naver.com/restaurant/1906998225
467,467,1742492568,키커피컴퍼니 왕십리점,서울 성동구 행당동 130-115,서울 성동구 왕십리로 269,070-4230-8893,카페,음식점 > 카페 > 커피전문점,http://place.map.kakao.com/1742492568,키커피컴퍼니 왕십리점,https://m.place.naver.com/restaurant/1976097430
468,468,1653556066,카페온화 성수점,서울 성동구 성수동2가 302-4,서울 성동구 아차산로 78,,카페,음식점 > 카페,http://place.map.kakao.com/1653556066,카페온화 성수점,https://m.place.naver.com/restaurant/1321493330
469,469,1623291829,오우드,서울 성동구 성수동2가 272-3,서울 성동구 연무장길 101-1,070-8844-0196,카페,음식점 > 카페 > 테마카페 > 디저트카페,http://place.map.kakao.com/1623291829,오우드,https://m.place.naver.com/restaurant/1833313793
470,470,1325105515,카페노티드 성수,서울 성동구 성수동2가 316-5,서울 성동구 연무장길 29-17,,카페,음식점 > 카페,http://place.map.kakao.com/1325105515,카페노티드 성수,https://m.place.naver.com/restaurant/1706561777
471,471,17657824,하루노유키,서울 성동구 성수동1가 685-428,서울 성동구 서울숲2길 17,02-548-8662,카페,음식점 > 카페 > 테마카페 > 디저트카페,http://place.map.kakao.com/17657824,하루노유키,https://m.place.naver.com/restaurant/30811760
472,472,483722570,마크69,서울 성동구 성수동1가 685-350,서울 성동구 서울숲길 24,,카페,음식점 > 카페,http://place.map.kakao.com/483722570,마크69,https://m.place.naver.com/restaurant/1430646260
473,473,505665583,맛차차,서울 성동구 성수동1가 685-450,서울 성동구 서울숲2길 18-11,010-9719-8707,카페,음식점 > 카페,http://place.map.kakao.com/505665583,맛차차,https://m.place.naver.com/restaurant/1467953783
474,474,431464251,아이오쓰리 성수사거리점,서울 성동구 성수동2가 275-54,서울 성동구 성수이로20길 60,02-497-1961,카페,음식점 > 카페,http://place.map.kakao.com/431464251,아이오쓰리 성수사거리점,https://m.place.naver.com/restaurant/1918028699
475,475,753723493,브라운팟,서울 성동구 행당동 286-19,서울 성동구 무학봉28길 16,02-2299-7796,카페,음식점 > 카페,http://place.map.kakao.com/753723493,브라운팟,https://m.place.naver.com/restaurant/1165635472
476,476,1431120740,플디 성수점,서울 성동구 성수동1가 13-156,서울 성동구 상원길 44,,카페,음식점 > 카페,http://place.map.kakao.com/1431120740,플디 성수점,https://m.place.naver.com/restaurant/1030413970
477,477,1300323227,카페노티드 피치스,서울 성동구 성수동2가 301-16,서울 성동구 연무장3길 9,0507-1405-9377,카페,음식점 > 카페 > 테마카페 > 디저트카페,http://place.map.kakao.com/1300323227,카페노티드 피치스,https://m.place.naver.com/restaurant/1022973489
478,478,1501931765,천상가옥,서울 성동구 성수동2가 322-4,서울 성동구 성수이로14길 14,,카페,음식점 > 카페,http://place.map.kakao.com/1501931765,천상가옥,https://m.place.naver.com/restaurant/1074358103
479,479,157479724,비엔나커피하우스 서울숲역점,서울 성동구 성수동1가 656-447,서울 성동구 왕십리로 66,070-4628-5049,카페,음식점 > 카페,http://place.map.kakao.com/157479724,비엔나커피하우스 서울숲역점,https://m.place.naver.com/restaurant/1320858854
480,480,1431819126,훔볼트,서울 성동구 성수동2가 325-19,서울 성동구 성수이로 58,,카페,음식점 > 카페 > 테마카페 > 디저트카페,http://place.map.kakao.com/1431819126,훔볼트,https://m.place.naver.com/restaurant/1504347953
481,481,1904529538,업사이드커피 뚝섬점,서울 성동구 성수동1가 7-8,서울 성동구 왕십리로14길 19-1,070-8691-4107,카페,음식점 > 카페,http://place.map.kakao.com/1904529538,업사이드커피 뚝섬점,https://m.place.naver.com/restaurant/1906998225
482,482,1742492568,키커피컴퍼니 왕십리점,서울 성동구 행당동 130-115,서울 성동구 왕십리로 269,070-4230-8893,카페,음식점 > 카페 > 커피전문점,http://place.map.kakao.com/1742492568,키커피컴퍼니 왕십리점,https://m.place.naver.com/restaurant/1976097430
483,483,1653556066,카페온화 성수점,서울 성동구 성수동2가 302-4,서울 성동구 아차산로 78,,카페,음식점 > 카페,http://place.map.kakao.com/1653556066,카페온화 성수점,https://m.place.naver.com/restaurant/1321493330
484,484,1623291829,오우드,서울 성동구 성수동2가 272-3,서울 성동구 연무장길 101-1,070-8844-0196,카페,음식점 > 카페 > 테마카페 > 디저트카페,http://place.map.kakao.com/1623291829,오우드,https://m.place.naver.com/restaurant/1833313793
485,485,1325105515,카페노티드 성수,서울 성동구 성수동2가 316-5,서울 성동구 연무장길 29-17,,카페,음식점 > 카페,http://place.map.kakao.com/1325105515,카페노티드 성수,https://m.place.naver.com/restaurant/1706561777
486,486,17657824,하루노유키,서울 성동구 성수동1가 685-428,서울 성동구 서울숲2길 17,02-548-8662,카페,음식점 > 카페 > 테마카페 > 디저트카페,http://place.map.kakao.com/17657824,하루노유키,https://m.place.naver.com/restaurant/30811760
487,487,483722570,마크69,서울 성동구 성수동1가 685-350,서울 성동구 서울숲길 24,,카페,음식점 > 카페,http://place.map.kakao.com/483722570,마크69,https://m.place.naver.com/restaurant/1430646260
488,488,505665583,맛차차,서울 성동구 성수동1가 685-450,서울 성동구 서울숲2길 18-11,010-9719-8707,카페,음식점 > 카페,http://place.map.kakao.com/505665583,맛차차,https://m.place.naver.com/restaurant/1467953783
489,489,431464251,아이오쓰리 성수사거리점,서울 성동구 성수동2가 275-54,서울 성동구 성수이로20길 60,02-497-1961,카페,음식점 > 카페,http://place.map.kakao.com/431464251,아이오쓰리 성수사거리점,https://m.place.naver.com/restaurant/1918028699
490,490,753723493,브라운팟,서울 성동구 행당동 286-19,서울 성동구 무학봉28길 16,02-2299-7796,카페,음식점 > 카페,http://place.map.kakao.com/753723493,브라운팟,https://m.place.naver.com/restaurant/1165635472
491,491,1431120740,플디 성수점,서울 성동구 성수동1가 13-156,서울 성동구 상원길 44,,카페,음식점 > 카페,http://place.map.kakao.com/1431120740,플디 성수점,https://m.place.naver.com/restaurant/1030413970
492,492,1300323227,카페노티드 피치스,서울 성동구 성수동2가 301-16,서울 성동구 연무장3길 9,0507-1405-9377,카페,음식점 > 카페 > 테마카페 > 디저트카페,http://place.map.kakao.com/1300323227,카페노티드 피치스,https://m.place.naver.com/restaurant/1022973489
493,493,1501931765,천상가옥,서울 성동구 성수동2가 322-4,서울 성동구 성수이로14길 14,,카페,음식점 > 카페,http://place.map.kakao.com/1501931765,천상가옥,https://m.place.naver.com/restaurant/1074358103
494,494,157479724,비엔나커피하우스 서울숲역점,서울 성동구 성수동1가 656-447,서울 성동구 왕십리로 66,070-4628-5049,카페,음식점 > 카페,http://place.map.kakao.com/157479724,비엔나커피하우스 서울숲역점,https://m.place.naver.com/restaurant/1320858854
495,495,1431819126,훔볼트,서울 성동구 성수동2가 325-19,서울 성동구 성수이로 58,,카페,음식점 > 카페 > 테마카페 > 디저트카페,http://place.map.kakao.com/1431819126,훔볼트,https://m.place.naver.com/restaurant/1504347953
496,496,1904529538,업사이드커피 뚝섬점,서울 성동구 성수동1가 7-8,서울 성동구 왕십리로14길 19-1,070-8691-4107,카페,음식점 > 카페,http://place.map.kakao.com/1904529538,업사이드커피 뚝섬점,https://m.place.naver.com/restaurant/1906998225
497,497,1742492568,키커피컴퍼니 왕십리점,서울 성동구 행당동 130-115,서울 성동구 왕십리로 269,070-4230-8893,카페,음식점 > 카페 > 커피전문점,http://place.map.kakao.com/1742492568,키커피컴퍼니 왕십리점,https://m.place.naver.com/restaurant/1976097430
498,498,1653556066,카페온화 성수점,서울 성동구 성수동2가 302-4,서울 성동구 아차산로 78,,카페,음식점 > 카페,http://place.map.kakao.com/1653556066,카페온화 성수점,https://m.place.naver.com/restaurant/1321493330
499,499,1623291829,오우드,서울 성동구 성수동2가 272-3,서울 성동구 연무장길 101-1,070-8844-0196,카페,음식점 > 카페 > 테마카페 > 디저트카페,http://place.map.kakao.com/1623291829,오우드,https://m.place.naver.com/restaurant/1833313793
500,500,1325105515,카페노티드 성수,서울 성동구 성수동2가 316-5,서울 성동구 연무장길 29-17,,카페,음식점 > 카페,http://place.map.kakao.com/1325105515,카페노티드 성수,https://m.place.naver.com/restaurant/1706561777
501,501,17657824,하루노유키,서울 성동구 성수동1가 685-428,서울 성동구 서울숲2길 17,02-548-8662,카페,음식점 > 카페 > 테마카페 > 디저트카페,http://place.map.kakao.com/17657824,하루노유키,https://m.place.naver.com/restaurant/30811760
502,502,483722570,마크69,서울 성동구 성수동1가 685-350,서울 성동구 서울숲길 24,,카페,음식점 > 카페,http://place.map.kakao.com/483722570,마크69,https://m.place.naver.com/restaurant/1430646260
503,503,505665583,맛차차,서울 성동구 성수동1가 685-450,서울 성동구 서울숲2길 18-11,010-9719-8707,카페,음식점 > 카페,http://place.map.kakao.com/505665583,맛차차,https://m.place.naver.com/restaurant/1467953783
504,504,431464251,아이오쓰리 성수사거리점,서울 성동구 성수동2가 275-54,서울 성동구 성수이로20길 60,02-497-1961,카페,음식점 > 카페,http://place.map.kakao.com/431464251,아이오쓰리 성수사거리점,https://m.place.naver.com/restaurant/1918028699
505,505,753723493,브라운팟,서울 성동구 행당동 286-19,서울 성동구 무학봉28길 16,02-2299-7796,카페,음식점 > 카페,http://place.map.kakao.com/753723493,브라운팟,https://m.place.naver.com/restaurant/1165635472
506,506,1431120740,플디 성수점,서울 성동구 성수동1가 13-156,서울 성동구 상원길 44,,카페,음식점 > 카페,http://place.map.kakao.com/1431120740,플디 성수점,https://m.place.naver.com/restaurant/1030413970
507,507,1300323227,카페노티드 피치스,서울 성동구 성수동2가 301-16,서울 성동구 연무장3길 9,0507-1405-9377,카페,음식점 > 카페 > 테마카페 > 디저트카페,http://place.map.kakao.com/1300323227,카페노티드 피치스,https://m.place.naver.com/restaurant/1022973489
508,508,1501931765,천상가옥,서울 성동구 성수동2가 322-4,서울 성동구 성수이로14길 14,,카페,음식점 > 카페,http://place.map.kakao.com/1501931765,천상가옥,https://m.place.naver.com/restaurant/1074358103
509,509,157479724,비엔나커피하우스 서울숲역점,서울 성동구 성수동1가 656-447,서울 성동구 왕십리로 66,070-4628-5049,카페,음식점 > 카페,http://place.map.kakao.com/157479724,비엔나커피하우스 서울숲역점,https://m.place.naver.com/restaurant/1320858854
510,510,1431819126,훔볼트,서울 성동구 성수동2가 325-19,서울 성동구 성수이로 58,,카페,음식점 > 카페 > 테마카페 > 디저트카페,http://place.map.kakao.com/1431819126,훔볼트,https://m.place.naver.com/restaurant/1504347953
511,511,1904529538,업사이드커피 뚝섬점,서울 성동구 성수동1가 7-8,서울 성동구 왕십리로14길 19-1,070-8691-4107,카페,음식점 > 카페,http://place.map.kakao.com/1904529538,업사이드커피 뚝섬점,https://m.place.naver.com/restaurant/1906998225
512,512,1742492568,키커피컴퍼니 왕십리점,서울 성동구 행당동 130-115,서울 성동구 왕십리로 269,070-4230-8893,카페,음식점 > 카페 > 커피전문점,http://place.map.kakao.com/1742492568,키커피컴퍼니 왕십리점,https://m.place.naver.com/restaurant/1976097430
513,513,1653556066,카페온화 성수점,서울 성동구 성수동2가 302-4,서울 성동구 아차산로 78,,카페,음식점 > 카페,http://place.map.kakao.com/1653556066,카페온화 성수점,https://m.place.naver.com/restaurant/1321493330
514,514,1623291829,오우드,서울 성동구 성수동2가 272-3,서울 성동구 연무장길 101-1,070-8844-0196,카페,음식점 > 카페 > 테마카페 > 디저트카페,http://place.map.kakao.com/1623291829,오우드,https://m.place.naver.com/restaurant/1833313793
515,515,1325105515,카페노티드 성수,서울 성동구 성수동2가 316-5,서울 성동구 연무장길 29-17,,카페,음식점 > 카페,http://place.map.kakao.com/1325105515,카페노티드 성수,https://m.place.naver.com/restaurant/1706561777
516,516,17657824,하루노유키,서울 성동구 성수동1가 685-428,서울 성동구 서울숲2길 17,02-548-8662,카페,음식점 > 카페 > 테마카페 > 디저트카페,http://place.map.kakao.com/17657824,하루노유키,https://m.place.naver.com/restaurant/30811760
517,517,483722570,마크69,서울 성동구 성수동1가 685-350,서울 성동구 서울숲길 24,,카페,음식점 > 카페,http://place.map.kakao.com/483722570,마크69,https://m.place.naver.com/restaurant/1430646260
518,518,505665583,맛차차,서울 성동구 성수동1가 685-450,서울 성동구 서울숲2길 18-11,010-9719-8707,카페,음식점 > 카페,http://place.map.kakao.com/505665583,맛차차,https://m.place.naver.com/restaurant/1467953783
519,519,431464251,아이오쓰리 성수사거리점,서울 성동구 성수동2가 275-54,서울 성동구 성수이로20길 60,02-497-1961,카페,음식점 > 카페,http://place.map.kakao.com/431464251,아이오쓰리 성수사거리점,https://m.place.naver.com/restaurant/1918028699
520,520,753723493,브라운팟,서울 성동구 행당동 286-19,서울 성동구 무학봉28길 16,02-2299-7796,카페,음식점 > 카페,http://place.map.kakao.com/753723493,브라운팟,https://m.place.naver.com/restaurant/1165635472
521,521,1431120740,플디 성수점,서울 성동구 성수동1가 13-156,서울 성동구 상원길 44,,카페,음식점 > 카페,http://place.map.kakao.com/1431120740,플디 성수점,https://m.place.naver.com/restaurant/1030413970
522,522,1300323227,카페노티드 피치스,서울 성동구 성수동2가 301-16,서울 성동구 연무장3길 9,0507-1405-9377,카페,음식점 > 카페 > 테마카페 > 디저트카페,http://place.map.kakao.com/1300323227,카페노티드 피치스,https://m.place.naver.com/restaurant/1022973489
523,523,1501931765,천상가옥,서울 성동구 성수동2가 322-4,서울 성동구 성수이로14길 14,,카페,음식점 > 카페,http://place.map.kakao.com/1501931765,천상가옥,https://m.place.naver.com/restaurant/1074358103
524,524,157479724,비엔나커피하우스 서울숲역점,서울 성동구 성수동1가 656-447,서울 성동구 왕십리로 66,070-4628-5049,카페,음식점 > 카페,http://place.map.kakao.com/157479724,비엔나커피하우스 서울숲역점,https://m.place.naver.com/restaurant/1320858854
525,525,1431819126,훔볼트,서울 성동구 성수동2가 325-19,서울 성동구 성수이로 58,,카페,음식점 > 카페 > 테마카페 > 디저트카페,http://place.map.kakao.com/1431819126,훔볼트,https://m.place.naver.com/restaurant/1504347953
526,526,1904529538,업사이드커피 뚝섬점,서울 성동구 성수동1가 7-8,서울 성동구 왕십리로14길 19-1,070-8691-4107,카페,음식점 > 카페,http://place.map.kakao.com/1904529538,업사이드커피 뚝섬점,https://m.place.naver.com/restaurant/1906998225
527,527,1742492568,키커피컴퍼니 왕십리점,서울 성동구 행당동 130-115,서울 성동구 왕십리로 269,070-4230-8893,카페,음식점 > 카페 > 커피전문점,http://place.map.kakao.com/1742492568,키커피컴퍼니 왕십리점,https://m.place.naver.com/restaurant/1976097430
528,528,1653556066,카페온화 성수점,서울 성동구 성수동2가 302-4,서울 성동구 아차산로 78,,카페,음식점 > 카페,http://place.map.kakao.com/1653556066,카페온화 성수점,https://m.place.naver.com/restaurant/1321493330
529,529,1623291829,오우드,서울 성동구 성수동2가 272-3,서울 성동구 연무장길 101-1,070-8844-0196,카페,음식점 > 카페 > 테마카페 > 디저트카페,http://place.map.kakao.com/1623291829,오우드,https://m.place.naver.com/restaurant/1833313793
530,530,1325105515,카페노티드 성수,서울 성동구 성수동2가 316-5,서울 성동구 연무장길 29-17,,카페,음식점 > 카페,http://place.map.kakao.com/1325105515,카페노티드 성수,https://m.place.naver.com/restaurant/1706561777
531,531,17657824,하루노유키,서울 성동구 성수동1가 685-428,서울 성동구 서울숲2길 17,02-548-8662,카페,음식점 > 카페 > 테마카페 > 디저트카페,http://place.map.kakao.com/17657824,하루노유키,https://m.place.naver.com/restaurant/30811760
532,532,483722570,마크69,서울 성동구 성수동1가 685-350,서울 성동구 서울숲길 24,,카페,음식점 > 카페,http://place.map.kakao.com/483722570,마크69,https://m.place.naver.com/restaurant/1430646260
533,533,505665583,맛차차,서울 성동구 성수동1가 685-450,서울 성동구 서울숲2길 18-11,010-9719-8707,카페,음식점 > 카페,http://place.map.kakao.com/505665583,맛차차,https://m.place.naver.com/restaurant/1467953783
534,534,431464251,아이오쓰리 성수사거리점,서울 성동구 성수동2가 275-54,서울 성동구 성수이로20길 60,02-497-1961,카페,음식점 > 카페,http://place.map.kakao.com/431464251,아이오쓰리 성수사거리점,https://m.place.naver.com/restaurant/1918028699
535,535,753723493,브라운팟,서울 성동구 행당동 286-19,서울 성동구 무학봉28길 16,02-2299-7796,카페,음식점 > 카페,http://place.map.kakao.com/753723493,브라운팟,https://m.place.naver.com/restaurant/1165635472
536,536,1431120740,플디 성수점,서울 성동구 성수동1가 13-156,서울 성동구 상원길 44,,카페,음식점 > 카페,http://place.map.kakao.com/1431120740,플디 성수점,https://m.place.naver.com/restaurant/1030413970
537,537,1300323227,카페노티드 피치스,서울 성동구 성수동2가 301-16,서울 성동구 연무장3길 9,0507-1405-9377,카페,음식점 > 카페 > 테마카페 > 디저트카페,http://place.map.kakao.com/1300323227,카페노티드 피치스,https://m.place.naver.com/restaurant/1022973489
538,538,1501931765,천상가옥,서울 성동구 성수동2가 322-4,서울 성동구 성수이로14길 14,,카페,음식점 > 카페,http://place.map.kakao.com/1501931765,천상가옥,https://m.place.naver.com/restaurant/1074358103
539,539,157479724,비엔나커피하우스 서울숲역점,서울 성동구 성수동1가 656-447,서울 성동구 왕십리로 66,070-4628-5049,카페,음식점 > 카페,http://place.map.kakao.com/157479724,비엔나커피하우스 서울숲역점,https://m.place.naver.com/restaurant/1320858854
540,540,1431819126,훔볼트,서울 성동구 성수동2가 325-19,서울 성동구 성수이로 58,,카페,음식점 > 카페 > 테마카페 > 디저트카페,http://place.map.kakao.com/1431819126,훔볼트,https://m.place.naver.com/restaurant/1504347953
541,541,1904529538,업사이드커피 뚝섬점,서울 성동구 성수동1가 7-8,서울 성동구 왕십리로14길 19-1,070-8691-4107,카페,음식점 > 카페,http://place.map.kakao.com/1904529538,업사이드커피 뚝섬점,https://m.place.naver.com/restaurant/1906998225
542,542,1742492568,키커피컴퍼니 왕십리점,서울 성동구 행당동 130-115,서울 성동구 왕십리로 269,070-4230-8893,카페,음식점 > 카페 > 커피전문점,http://place.map.kakao.com/1742492568,키커피컴퍼니 왕십리점,https://m.place.naver.com/restaurant/1976097430
543,543,1653556066,카페온화 성수점,서울 성동구 성수동2가 302-4,서울 성동구 아차산로 78,,카페,음식점 > 카페,http://place.map.kakao.com/1653556066,카페온화 성수점,https://m.place.naver.com/restaurant/1321493330
544,544,1623291829,오우드,서울 성동구 성수동2가 272-3,서울 성동구 연무장길 101-1,070-8844-0196,카페,음식점 > 카페 > 테마카페 > 디저트카페,http://place.map.kakao.com/1623291829,오우드,https://m.place.naver.com/restaurant/1833313793
545,545,1325105515,카페노티드 성수,서울 성동구 성수동2가 316-5,서울 성동구 연무장길 29-17,,카페,음식점 > 카페,http://place.map.kakao.com/1325105515,카페노티드 성수,https://m.place.naver.com/restaurant/1706561777
546,546,17657824,하루노유키,서울 성동구 성수동1가 685-428,서울 성동구 서울숲2길 17,02-548-8662,카페,음식점 > 카페 > 테마카페 > 디저트카페,http://place.map.kakao.com/17657824,하루노유키,https://m.place.naver.com/restaurant/30811760
547,547,483722570,마크69,서울 성동구 성수동1가 685-350,서울 성동구 서울숲길 24,,카페,음식점 > 카페,http://place.map.kakao.com/483722570,마크69,https://m.place.naver.com/restaurant/1430646260
548,548,505665583,맛차차,서울 성동구 성수동1가 685-450,서울 성동구 서울숲2길 18-11,010-9719-8707,카페,음식점 > 카페,http://place.map.kakao.com/505665583,맛차차,https://m.place.naver.com/restaurant/1467953783
549,549,431464251,아이오쓰리 성수사거리점,서울 성동구 성수동2가 275-54,서울 성동구 성수이로20길 60,02-497-1961,카페,음식점 > 카페,http://place.map.kakao.com/431464251,아이오쓰리 성수사거리점,https://m.place.naver.com/restaurant/1918028699
550,550,753723493,브라운팟,서울 성동구 행당동 286-19,서울 성동구 무학봉28길 16,02-2299-7796,카페,음식점 > 카페,http://place.map.kakao.com/753723493,브라운팟,https://m.place.naver.com/restaurant/1165635472
551,551,1431120740,플디 성수점,서울 성동구 성수동1가 13-156,서울 성동구 상원길 44,,카페,음식점 > 카페,http://place.map.kakao.com/1431120740,플디 성수점,https://m.place.naver.com/restaurant/1030413970
552,552,1300323227,카페노티드 피치스,서울 성동구 성수동2가 301-16,서울 성동구 연무장3길 9,0507-1405-9377,카페,음식점 > 카페 > 테마카페 > 디저트카페,http://place.map.kakao.com/1300323227,카페노티드 피치스,https://m.place.naver.com/restaurant/1022973489
553,553,1501931765,천상가옥,서울 성동구 성수동2가 322-4,서울 성동구 성수이로14길 14,,카페,음식점 > 카페,http://place.map.kakao.com/1501931765,천상가옥,https://m.place.naver.com/restaurant/1074358103
554,554,157479724,비엔나커피하우스 서울숲역점,서울 성동구 성수동1가 656-447,서울 성동구 왕십리로 66,070-4628-5049,카페,음식점 > 카페,http://place.map.kakao.com/157479724,비엔나커피하우스 서울숲역점,https://m.place.naver.com/restaurant/1320858854
555,555,1431819126,훔볼트,서울 성동구 성수동2가 325-19,서울 성동구 성수이로 58,,카페,음식점 > 카페 > 테마카페 > 디저트카페,http://place.map.kakao.com/1431819126,훔볼트,https://m.place.naver.com/restaurant/1504347953
556,556,1904529538,업사이드커피 뚝섬점,서울 성동구 성수동1가 7-8,서울 성동구 왕십리로14길 19-1,070-8691-4107,카페,음식점 > 카페,http://place.map.kakao.com/1904529538,업사이드커피 뚝섬점,https://m.place.naver.com/restaurant/1906998225
557,557,1742492568,키커피컴퍼니 왕십리점,서울 성동구 행당동 130-115,서울 성동구 왕십리로 269,070-4230-8893,카페,음식점 > 카페 > 커피전문점,http://place.map.kakao.com/1742492568,키커피컴퍼니 왕십리점,https://m.place.naver.com/restaurant/1976097430
558,558,1653556066,카페온화 성수점,서울 성동구 성수동2가 302-4,서울 성동구 아차산로 78,,카페,음식점 > 카페,http://place.map.kakao.com/1653556066,카페온화 성수점,https://m.place.naver.com/restaurant/1321493330
559,559,1623291829,오우드,서울 성동구 성수동2가 272-3,서울 성동구 연무장길 101-1,070-8844-0196,카페,음식점 > 카페 > 테마카페 > 디저트카페,http://place.map.kakao.com/1623291829,오우드,https://m.place.naver.com/restaurant/1833313793
560,560,1325105515,카페노티드 성수,서울 성동구 성수동2가 316-5,서울 성동구 연무장길 29-17,,카페,음식점 > 카페,http://place.map.kakao.com/1325105515,카페노티드 성수,https://m.place.naver.com/restaurant/1706561777
561,561,17657824,하루노유키,서울 성동구 성수동1가 685-428,서울 성동구 서울숲2길 17,02-548-8662,카페,음식점 > 카페 > 테마카페 > 디저트카페,http://place.map.kakao.com/17657824,하루노유키,https://m.place.naver.com/restaurant/30811760
562,562,483722570,마크69,서울 성동구 성수동1가 685-350,서울 성동구 서울숲길 24,,카페,음식점 > 카페,http://place.map.kakao.com/483722570,마크69,https://m.place.naver.com/restaurant/1430646260
563,563,505665583,맛차차,서울 성동구 성수동1가 685-450,서울 성동구 서울숲2길 18-11,010-9719-8707,카페,음식점 > 카페,http://place.map.kakao.com/505665583,맛차차,https://m.place.naver.com/restaurant/1467953783
564,564,431464251,아이오쓰리 성수사거리점,서울 성동구 성수동2가 275-54,서울 성동구 성수이로20길 60,02-497-1961,카페,음식점 > 카페,http://place.map.kakao.com/431464251,아이오쓰리 성수사거리점,https://m.place.naver.com/restaurant/1918028699
565,565,753723493,브라운팟,서울 성동구 행당동 286-19,서울 성동구 무학봉28길 16,02-2299-7796,카페,음식점 > 카페,http://place.map.kakao.com/753723493,브라운팟,https://m.place.naver.com/restaurant/1165635472
566,566,1431120740,플디 성수점,서울 성동구 성수동1가 13-156,서울 성동구 상원길 44,,카페,음식점 > 카페,http://place.map.kakao.com/1431120740,플디 성수점,https://m.place.naver.com/restaurant/1030413970
567,567,1300323227,카페노티드 피치스,서울 성동구 성수동2가 301-16,서울 성동구 연무장3길 9,0507-1405-9377,카페,음식점 > 카페 > 테마카페 > 디저트카페,http://place.map.kakao.com/1300323227,카페노티드 피치스,https://m.place.naver.com/restaurant/1022973489
568,568,1501931765,천상가옥,서울 성동구 성수동2가 322-4,서울 성동구 성수이로14길 14,,카페,음식점 > 카페,http://place.map.kakao.com/1501931765,천상가옥,https://m.place.naver.com/restaurant/1074358103
569,569,157479724,비엔나커피하우스 서울숲역점,서울 성동구 성수동1가 656-447,서울 성동구 왕십리로 66,070-4628-5049,카페,음식점 > 카페,http://place.map.kakao.com/157479724,비엔나커피하우스 서울숲역점,https://m.place.naver.com/restaurant/1320858854
570,570,1431819126,훔볼트,서울 성동구 성수동2가 325-19,서울 성동구 성수이로 58,,카페,음식점 > 카페 > 테마카페 > 디저트카페,http://place.map.kakao.com/1431819126,훔볼트,https://m.place.naver.com/restaurant/1504347953
571,571,1904529538,업사이드커피 뚝섬점,서울 성동구 성수동1가 7-8,서울 성동구 왕십리로14길 19-1,070-8691-4107,카페,음식점 > 카페,http://place.map.kakao.com/1904529538,업사이드커피 뚝섬점,https://m.place.naver.com/restaurant/1906998225
572,572,1742492568,키커피컴퍼니 왕십리점,서울 성동구 행당동 130-115,서울 성동구 왕십리로 269,070-4230-8893,카페,음식점 > 카페 > 커피전문점,http://place.map.kakao.com/1742492568,키커피컴퍼니 왕십리점,https://m.place.naver.com/restaurant/1976097430
573,573,1653556066,카페온화 성수점,서울 성동구 성수동2가 302-4,서울 성동구 아차산로 78,,카페,음식점 > 카페,http://place.map.kakao.com/1653556066,카페온화 성수점,https://m.place.naver.com/restaurant/1321493330
574,574,1623291829,오우드,서울 성동구 성수동2가 272-3,서울 성동구 연무장길 101-1,070-8844-0196,카페,음식점 > 카페 > 테마카페 > 디저트카페,http://place.map.kakao.com/1623291829,오우드,https://m.place.naver.com/restaurant/1833313793
575,575,1325105515,카페노티드 성수,서울 성동구 성수동2가 316-5,서울 성동구 연무장길 29-17,,카페,음식점 > 카페,http://place.map.kakao.com/1325105515,카페노티드 성수,https://m.place.naver.com/restaurant/1706561777
576,576,17657824,하루노유키,서울 성동구 성수동1가 685-428,서울 성동구 서울숲2길 17,02-548-8662,카페,음식점 > 카페 > 테마카페 > 디저트카페,http://place.map.kakao.com/17657824,하루노유키,https://m.place.naver.com/restaurant/30811760
577,577,483722570,마크69,서울 성동구 성수동1가 685-350,서울 성동구 서울숲길 24,,카페,음식점 > 카페,http://place.map.kakao.com/483722570,마크69,https://m.place.naver.com/restaurant/1430646260
578,578,505665583,맛차차,서울 성동구 성수동1가 685-450,서울 성동구 서울숲2길 18-11,010-9719-8707,카페,음식점 > 카페,http://place.map.kakao.com/505665583,맛차차,https://m.place.naver.com/restaurant/1467953783
579,579,431464251,아이오쓰리 성수사거리점,서울 성동구 성수동2가 275-54,서울 성동구 성수이로20길 60,02-497-1961,카페,음식점 > 카페,http://place.map.kakao.com/431464251,아이오쓰리 성수사거리점,https://m.place.naver.com/restaurant/1918028699
580,580,753723493,브라운팟,서울 성동구 행당동 286-19,서울 성동구 무학봉28길 16,02-2299-7796,카페,음식점 > 카페,http://place.map.kakao.com/753723493,브라운팟,https://m.place.naver.com/restaurant/1165635472
581,581,1431120740,플디 성수점,서울 성동구 성수동1가 13-156,서울 성동구 상원길 44,,카페,음식점 > 카페,http://place.map.kakao.com/1431120740,플디 성수점,https://m.place.naver.com/restaurant/1030413970
582,582,1300323227,카페노티드 피치스,서울 성동구 성수동2가 301-16,서울 성동구 연무장3길 9,0507-1405-9377,카페,음식점 > 카페 > 테마카페 > 디저트카페,http://place.map.kakao.com/1300323227,카페노티드 피치스,https://m.place.naver.com/restaurant/1022973489
583,583,1501931765,천상가옥,서울 성동구 성수동2가 322-4,서울 성동구 성수이로14길 14,,카페,음식점 > 카페,http://place.map.kakao.com/1501931765,천상가옥,https://m.place.naver.com/restaurant/1074358103
584,584,157479724,비엔나커피하우스 서울숲역점,서울 성동구 성수동1가 656-447,서울 성동구 왕십리로 66,070-4628-5049,카페,음식점 > 카페,http://place.map.kakao.com/157479724,비엔나커피하우스 서울숲역점,https://m.place.naver.com/restaurant/1320858854
585,585,1431819126,훔볼트,서울 성동구 성수동2가 325-19,서울 성동구 성수이로 58,,카페,음식점 > 카페 > 테마카페 > 디저트카페,http://place.map.kakao.com/1431819126,훔볼트,https://m.place.naver.com/restaurant/1504347953
586,586,1904529538,업사이드커피 뚝섬점,서울 성동구 성수동1가 7-8,서울 성동구 왕십리로14길 19-1,070-8691-4107,카페,음식점 > 카페,http://place.map.kakao.com/1904529538,업사이드커피 뚝섬점,https://m.place.naver.com/restaurant/1906998225
587,587,1742492568,키커피컴퍼니 왕십리점,서울 성동구 행당동 130-115,서울 성동구 왕십리로 269,070-4230-8893,카페,음식점 > 카페 > 커피전문점,http://place.map.kakao.com/1742492568,키커피컴퍼니 왕십리점,https://m.place.naver.com/restaurant/1976097430
588,588,1653556066,카페온화 성수점,서울 성동구 성수동2가 302-4,서울 성동구 아차산로 78,,카페,음식점 > 카페,http://place.map.kakao.com/1653556066,카페온화 성수점,https://m.place.naver.com/restaurant/1321493330
589,589,1623291829,오우드,서울 성동구 성수동2가 272-3,서울 성동구 연무장길 101-1,070-8844-0196,카페,음식점 > 카페 > 테마카페 > 디저트카페,http://place.map.kakao.com/1623291829,오우드,https://m.place.naver.com/restaurant/1833313793
590,590,1325105515,카페노티드 성수,서울 성동구 성수동2가 316-5,서울 성동구 연무장길 29-17,,카페,음식점 > 카페,http://place.map.kakao.com/1325105515,카페노티드 성수,https://m.place.naver.com/restaurant/1706561777
591,591,17657824,하루노유키,서울 성동구 성수동1가 685-428,서울 성동구 서울숲2길 17,02-548-8662,카페,음식점 > 카페 > 테마카페 > 디저트카페,http://place.map.kakao.com/17657824,하루노유키,https://m.place.naver.com/restaurant/30811760
592,592,483722570,마크69,서울 성동구 성수동1가 685-350,서울 성동구 서울숲길 24,,카페,음식점 > 카페,http://place.map.kakao.com/483722570,마크69,https://m.place.naver.com/restaurant/1430646260
593,593,505665583,맛차차,서울 성동구 성수동1가 685-450,서울 성동구 서울숲2길 18-11,010-9719-8707,카페,음식점 > 카페,http://place.map.kakao.com/505665583,맛차차,https://m.place.naver.com/restaurant/1467953783
594,594,431464251,아이오쓰리 성수사거리점,서울 성동구 성수동2가 275-54,서울 성동구 성수이로20길 60,02-497-1961,카페,음식점 > 카페,http://place.map.kakao.com/431464251,아이오쓰리 성수사거리점,https://m.place.naver.com/restaurant/1918028699
595,595,753723493,브라운팟,서울 성동구 행당동 286-19,서울 성동구 무학봉28길 16,02-2299-7796,카페,음식점 > 카페,http://place.map.kakao.com/753723493,브라운팟,https://m.place.naver.com/restaurant/1165635472
596,596,1431120740,플디 성수점,서울 성동구 성수동1가 13-156,서울 성동구 상원길 44,,카페,음식점 > 카페,http://place.map.kakao.com/1431120740,플디 성수점,https://m.place.naver.com/restaurant/1030413970
597,597,1300323227,카페노티드 피치스,서울 성동구 성수동2가 301-16,서울 성동구 연무장3길 9,0507-1405-9377,카페,음식점 > 카페 > 테마카페 > 디저트카페,http://place.map.kakao.com/1300323227,카페노티드 피치스,https://m.place.naver.com/restaurant/1022973489
598,598,1501931765,천상가옥,서울 성동구 성수동2가 322-4,서울 성동구 성수이로14길 14,,카페,음식점 > 카페,http://place.map.kakao.com/1501931765,천상가옥,https://m.place.naver.com/restaurant/1074358103
599,599,157479724,비엔나커피하우스 서울숲역점,서울 성동구 성수동1가 656-447,서울 성동구 왕십리로 66,070-4628-5049,카페,음식점 > 카페,http://place.map.kakao.com/157479724,비엔나커피하우스 서울숲역점,https://m.place.naver.com/restaurant/1320858854
600,600,1431819126,훔볼트,서울 성동구 성수동2가 325-19,서울 성동구 성수이로 58,,카페,음식점 > 카페 > 테마카페 > 디저트카페,http://place.map.kakao.com/1431819126,훔볼트,https://m.place.naver.com/restaurant/1504347953
601,601,1904529538,업사이드커피 뚝섬점,서울 성동구 성수동1가 7-8,서울 성동구 왕십리로14길 19-1,070-8691-4107,카페,음식점 > 카페,http://place.map.kakao.com/1904529538,업사이드커피 뚝섬점,https://m.place.naver.com/restaurant/1906998225
602,602,1742492568,키커피컴퍼니 왕십리점,서울 성동구 행당동 130-115,서울 성동구 왕십리로 269,070-4230-8893,카페,음식점 > 카페 > 커피전문점,http://place.map.kakao.com/1742492568,키커피컴퍼니 왕십리점,https://m.place.naver.com/restaurant/1976097430
603,603,1653556066,카페온화 성수점,서울 성동구 성수동2가 302-4,서울 성동구 아차산로 78,,카페,음식점 > 카페,http://place.map.kakao.com/1653556066,카페온화 성수점,https://m.place.naver.com/restaurant/1321493330
604,604,1623291829,오우드,서울 성동구 성수동2가 272-3,서울 성동구 연무장길 101-1,070-8844-0196,카페,음식점 > 카페 > 테마카페 > 디저트카페,http://place.map.kakao.com/1623291829,오우드,https://m.place.naver.com/restaurant/1833313793
605,605,1325105515,카페노티드 성수,서울 성동구 성수동2가 316-5,서울 성동구 연무장길 29-17,,카페,음식점 > 카페,http://place.map.kakao.com/1325105515,카페노티드 성수,https://m.place.naver.com/restaurant/1706561777
606,606,17657824,하루노유키,서울 성동구 성수동1가 685-428,서울 성동구 서울숲2길 17,02-548-8662,카페,음식점 > 카페 > 테마카페 > 디저트카페,http://place.map.kakao.com/17657824,하루노유키,https://m.place.naver.com/restaurant/30811760
607,607,483722570,마크69,서울 성동구 성수동1가 685-350,서울 성동구 서울숲길 24,,카페,음식점 > 카페,http://place.map.kakao.com/483722570,마크69,https://m.place.naver.com/restaurant/1430646260
608,608,505665583,맛차차,서울 성동구 성수동1가 685-450,서울 성동구 서울숲2길 18-11,010-9719-8707,카페,음식점 > 카페,http://place.map.kakao.com/505665583,맛차차,https://m.place.naver.com/restaurant/1467953783
609,609,431464251,아이오쓰리 성수사거리점,서울 성동구 성수동2가 275-54,서울 성동구 성수이로20길 60,02-497-1961,카페,음식점 > 카페,http://place.map.kakao.com/431464251,아이오쓰리 성수사거리점,https://m.place.naver.com/restaurant/1918028699
610,610,753723493,브라운팟,서울 성동구 행당동 286-19,서울 성동구 무학봉28길 16,02-2299-7796,카페,음식점 > 카페,http://place.map.kakao.com/753723493,브라운팟,https://m.place.naver.com/restaurant/1165635472
611,611,1431120740,플디 성수점,서울 성동구 성수동1가 13-156,서울 성동구 상원길 44,,카페,음식점 > 카페,http://place.map.kakao.com/1431120740,플디 성수점,https://m.place.naver.com/restaurant/1030413970
612,612,1300323227,카페노티드 피치스,서울 성동구 성수동2가 301-16,서울 성동구 연무장3길 9,0507-1405-9377,카페,음식점 > 카페 > 테마카페 > 디저트카페,http://place.map.kakao.com/1300323227,카페노티드 피치스,https://m.place.naver.com/restaurant/1022973489
613,613,1501931765,천상가옥,서울 성동구 성수동2가 322-4,서울 성동구 성수이로14길 14,,카페,음식점 > 카페,http://place.map.kakao.com/1501931765,천상가옥,https://m.place.naver.com/restaurant/1074358103
614,614,157479724,비엔나커피하우스 서울숲역점,서울 성동구 성수동1가 656-447,서울 성동구 왕십리로 66,070-4628-5049,카페,음식점 > 카페,http://place.map.kakao.com/157479724,비엔나커피하우스 서울숲역점,https://m.place.naver.com/restaurant/1320858854
615,615,1431819126,훔볼트,서울 성동구 성수동2가 325-19,서울 성동구 성수이로 58,,카페,음식점 > 카페 > 테마카페 > 디저트카페,http://place.map.kakao.com/1431819126,훔볼트,https://m.place.naver.com/restaurant/1504347953
616,616,1904529538,업사이드커피 뚝섬점,서울 성동구 성수동1가 7-8,서울 성동구 왕십리로14길 19-1,070-8691-4107,카페,음식점 > 카페,http://place.map.kakao.com/1904529538,업사이드커피 뚝섬점,https://m.place.naver.com/restaurant/1906998225
617,617,1742492568,키커피컴퍼니 왕십리점,서울 성동구 행당동 130-115,서울 성동구 왕십리로 269,070-4230-8893,카페,음식점 > 카페 > 커피전문점,http://place.map.kakao.com/1742492568,키커피컴퍼니 왕십리점,https://m.place.naver.com/restaurant/1976097430
618,618,1653556066,카페온화 성수점,서울 성동구 성수동2가 302-4,서울 성동구 아차산로 78,,카페,음식점 > 카페,http://place.map.kakao.com/1653556066,카페온화 성수점,https://m.place.naver.com/restaurant/1321493330
619,619,1623291829,오우드,서울 성동구 성수동2가 272-3,서울 성동구 연무장길 101-1,070-8844-0196,카페,음식점 > 카페 > 테마카페 > 디저트카페,http://place.map.kakao.com/1623291829,오우드,https://m.place.naver.com/restaurant/1833313793
620,620,1325105515,카페노티드 성수,서울 성동구 성수동2가 316-5,서울 성동구 연무장길 29-17,,카페,음식점 > 카페,http://place.map.kakao.com/1325105515,카페노티드 성수,https://m.place.naver.com/restaurant/1706561777
621,621,17657824,하루노유키,서울 성동구 성수동1가 685-428,서울 성동구 서울숲2길 17,02-548-8662,카페,음식점 > 카페 > 테마카페 > 디저트카페,http://place.map.kakao.com/17657824,하루노유키,https://m.place.naver.com/restaurant/30811760
622,622,483722570,마크69,서울 성동구 성수동1가 685-350,서울 성동구 서울숲길 24,,카페,음식점 > 카페,http://place.map.kakao.com/483722570,마크69,https://m.place.naver.com/restaurant/1430646260
623,623,505665583,맛차차,서울 성동구 성수동1가 685-450,서울 성동구 서울숲2길 18-11,010-9719-8707,카페,음식점 > 카페,http://place.map.kakao.com/505665583,맛차차,https://m.place.naver.com/restaurant/1467953783
624,624,431464251,아이오쓰리 성수사거리점,서울 성동구 성수동2가 275-54,서울 성동구 성수이로20길 60,02-497-1961,카페,음식점 > 카페,http://place.map.kakao.com/431464251,아이오쓰리 성수사거리점,https://m.place.naver.com/restaurant/1918028699
625,625,753723493,브라운팟,서울 성동구 행당동 286-19,서울 성동구 무학봉28길 16,02-2299-7796,카페,음식점 > 카페,http://place.map.kakao.com/753723493,브라운팟,https://m.place.naver.com/restaurant/1165635472
626,626,1431120740,플디 성수점,서울 성동구 성수동1가 13-156,서울 성동구 상원길 44,,카페,음식점 > 카페,http://place.map.kakao.com/1431120740,플디 성수점,https://m.place.naver.com/restaurant/1030413970
627,627,1300323227,카페노티드 피치스,서울 성동구 성수동2가 301-16,서울 성동구 연무장3길 9,0507-1405-9377,카페,음식점 > 카페 > 테마카페 > 디저트카페,http://place.map.kakao.com/1300323227,카페노티드 피치스,https://m.place.naver.com/restaurant/1022973489
628,628,1501931765,천상가옥,서울 성동구 성수동2가 322-4,서울 성동구 성수이로14길 14,,카페,음식점 > 카페,http://place.map.kakao.com/1501931765,천상가옥,https://m.place.naver.com/restaurant/1074358103
629,629,157479724,비엔나커피하우스 서울숲역점,서울 성동구 성수동1가 656-447,서울 성동구 왕십리로 66,070-4628-5049,카페,음식점 > 카페,http://place.map.kakao.com/157479724,비엔나커피하우스 서울숲역점,https://m.place.naver.com/restaurant/1320858854
630,630,1431819126,훔볼트,서울 성동구 성수동2가 325-19,서울 성동구 성수이로 58,,카페,음식점 > 카페 > 테마카페 > 디저트카페,http://place.map.kakao.com/1431819126,훔볼트,https://m.place.naver.com/restaurant/1504347953
631,631,1904529538,업사이드커피 뚝섬점,서울 성동구 성수동1가 7-8,서울 성동구 왕십리로14길 19-1,070-8691-4107,카페,음식점 > 카페,http://place.map.kakao.com/1904529538,업사이드커피 뚝섬점,https://m.place.naver.com/restaurant/1906998225
632,632,1742492568,키커피컴퍼니 왕십리점,서울 성동구 행당동 130-115,서울 성동구 왕십리로 269,070-4230-8893,카페,음식점 > 카페 > 커피전문점,http://place.map.kakao.com/1742492568,키커피컴퍼니 왕십리점,https://m.place.naver.com/restaurant/1976097430
633,633,1653556066,카페온화 성수점,서울 성동구 성수동2가 302-4,서울 성동구 아차산로 78,,카페,음식점 > 카페,http://place.map.kakao.com/1653556066,카페온화 성수점,https://m.place.naver.com/restaurant/1321493330
634,634,1623291829,오우드,서울 성동구 성수동2가 272-3,서울 성동구 연무장길 101-1,070-8844-0196,카페,음식점 > 카페 > 테마카페 > 디저트카페,http://place.map.kakao.com/1623291829,오우드,https://m.place.naver.com/restaurant/1833313793
635,635,1325105515,카페노티드 성수,서울 성동구 성수동2가 316-5,서울 성동구 연무장길 29-17,,카페,음식점 > 카페,http://place.map.kakao.com/1325105515,카페노티드 성수,https://m.place.naver.com/restaurant/1706561777
636,636,17657824,하루노유키,서울 성동구 성수동1가 685-428,서울 성동구 서울숲2길 17,02-548-8662,카페,음식점 > 카페 > 테마카페 > 디저트카페,http://place.map.kakao.com/17657824,하루노유키,https://m.place.naver.com/restaurant/30811760
637,637,483722570,마크69,서울 성동구 성수동1가 685-350,서울 성동구 서울숲길 24,,카페,음식점 > 카페,http://place.map.kakao.com/483722570,마크69,https://m.place.naver.com/restaurant/1430646260
638,638,505665583,맛차차,서울 성동구 성수동1가 685-450,서울 성동구 서울숲2길 18-11,010-9719-8707,카페,음식점 > 카페,http://place.map.kakao.com/505665583,맛차차,https://m.place.naver.com/restaurant/1467953783
639,639,431464251,아이오쓰리 성수사거리점,서울 성동구 성수동2가 275-54,서울 성동구 성수이로20길 60,02-497-1961,카페,음식점 > 카페,http://place.map.kakao.com/431464251,아이오쓰리 성수사거리점,https://m.place.naver.com/restaurant/1918028699
640,640,753723493,브라운팟,서울 성동구 행당동 286-19,서울 성동구 무학봉28길 16,02-2299-7796,카페,음식점 > 카페,http://place.map.kakao.com/753723493,브라운팟,https://m.place.naver.com/restaurant/1165635472
641,641,1431120740,플디 성수점,서울 성동구 성수동1가 13-156,서울 성동구 상원길 44,,카페,음식점 > 카페,http://place.map.kakao.com/1431120740,플디 성수점,https://m.place.naver.com/restaurant/1030413970
642,642,1300323227,카페노티드 피치스,서울 성동구 성수동2가 301-16,서울 성동구 연무장3길 9,0507-1405-9377,카페,음식점 > 카페 > 테마카페 > 디저트카페,http://place.map.kakao.com/1300323227,카페노티드 피치스,https://m.place.naver.com/restaurant/1022973489
643,643,1501931765,천상가옥,서울 성동구 성수동2가 322-4,서울 성동구 성수이로14길 14,,카페,음식점 > 카페,http://place.map.kakao.com/1501931765,천상가옥,https://m.place.naver.com/restaurant/1074358103
644,644,157479724,비엔나커피하우스 서울숲역점,서울 성동구 성수동1가 656-447,서울 성동구 왕십리로 66,070-4628-5049,카페,음식점 > 카페,http://place.map.kakao.com/157479724,비엔나커피하우스 서울숲역점,https://m.place.naver.com/restaurant/1320858854
645,645,1431819126,훔볼트,서울 성동구 성수동2가 325-19,서울 성동구 성수이로 58,,카페,음식점 > 카페 > 테마카페 > 디저트카페,http://place.map.kakao.com/1431819126,훔볼트,https://m.place.naver.com/restaurant/1504347953
646,646,1904529538,업사이드커피 뚝섬점,서울 성동구 성수동1가 7-8,서울 성동구 왕십리로14길 19-1,070-8691-4107,카페,음식점 > 카페,http://place.map.kakao.com/1904529538,업사이드커피 뚝섬점,https://m.place.naver.com/restaurant/1906998225
647,647,1742492568,키커피컴퍼니 왕십리점,서울 성동구 행당동 130-115,서울 성동구 왕십리로 269,070-4230-8893,카페,음식점 > 카페 > 커피전문점,http://place.map.kakao.com/1742492568,키커피컴퍼니 왕십리점,https://m.place.naver.com/restaurant/1976097430
648,648,1653556066,카페온화 성수점,서울 성동구 성수동2가 302-4,서울 성동구 아차산로 78,,카페,음식점 > 카페,http://place.map.kakao.com/1653556066,카페온화 성수점,https://m.place.naver.com/restaurant/1321493330
649,649,1623291829,오우드,서울 성동구 성수동2가 272-3,서울 성동구 연무장길 101-1,070-8844-0196,카페,음식점 > 카페 > 테마카페 > 디저트카페,http://place.map.kakao.com/1623291829,오우드,https://m.place.naver.com/restaurant/1833313793
650,650,1325105515,카페노티드 성수,서울 성동구 성수동2가 316-5,서울 성동구 연무장길 29-17,,카페,음식점 > 카페,http://place.map.kakao.com/1325105515,카페노티드 성수,https://m.place.naver.com/restaurant/1706561777
651,651,17657824,하루노유키,서울 성동구 성수동1가 685-428,서울 성동구 서울숲2길 17,02-548-8662,카페,음식점 > 카페 > 테마카페 > 디저트카페,http://place.map.kakao.com/17657824,하루노유키,https://m.place.naver.com/restaurant/30811760
652,652,483722570,마크69,서울 성동구 성수동1가 685-350,서울 성동구 서울숲길 24,,카페,음식점 > 카페,http://place.map.kakao.com/483722570,마크69,https://m.place.naver.com/restaurant/1430646260
653,653,505665583,맛차차,서울 성동구 성수동1가 685-450,서울 성동구 서울숲2길 18-11,010-9719-8707,카페,음식점 > 카페,http://place.map.kakao.com/505665583,맛차차,https://m.place.naver.com/restaurant/1467953783
654,654,431464251,아이오쓰리 성수사거리점,서울 성동구 성수동2가 275-54,서울 성동구 성수이로20길 60,02-497-1961,카페,음식점 > 카페,http://place.map.kakao.com/431464251,아이오쓰리 성수사거리점,https://m.place.naver.com/restaurant/1918028699
655,655,753723493,브라운팟,서울 성동구 행당동 286-19,서울 성동구 무학봉28길 16,02-2299-7796,카페,음식점 > 카페,http://place.map.kakao.com/753723493,브라운팟,https://m.place.naver.com/restaurant/1165635472
656,656,1431120740,플디 성수점,서울 성동구 성수동1가 13-156,서울 성동구 상원길 44,,카페,음식점 > 카페,http://place.map.kakao.com/1431120740,플디 성수점,https://m.place.naver.com/restaurant/1030413970
657,657,1300323227,카페노티드 피치스,서울 성동구 성수동2가 301-16,서울 성동구 연무장3길 9,0507-1405-9377,카페,음식점 > 카페 > 테마카페 > 디저트카페,http://place.map.kakao.com/1300323227,카페노티드 피치스,https://m.place.naver.com/restaurant/1022973489
658,658,1501931765,천상가옥,서울 성동구 성수동2가 322-4,서울 성동구 성수이로14길 14,,카페,음식점 > 카페,http://place.map.kakao.com/1501931765,천상가옥,https://m.place.naver.com/restaurant/1074358103
659,659,157479724,비엔나커피하우스 서울숲역점,서울 성동구 성수동1가 656-447,서울 성동구 왕십리로 66,070-4628-5049,카페,음식점 > 카페,http://place.map.kakao.com/157479724,비엔나커피하우스 서울숲역점,https://m.place.naver.com/restaurant/1320858854
660,660,1431819126,훔볼트,서울 성동구 성수동2가 325-19,서울 성동구 성수이로 58,,카페,음식점 > 카페 > 테마카페 > 디저트카페,http://place.map.kakao.com/1431819126,훔볼트,https://m.place.naver.com/restaurant/1504347953
661,661,1904529538,업사이드커피 뚝섬점,서울 성동구 성수동1가 7-8,서울 성동구 왕십리로14길 19-1,070-8691-4107,카페,음식점 > 카페,http://place.map.kakao.com/1904529538,업사이드커피 뚝섬점,https://m.place.naver.com/restaurant/1906998225
662,662,1742492568,키커피컴퍼니 왕십리점,서울 성동구 행당동 130-115,서울 성동구 왕십리로 269,070-4230-8893,카페,음식점 > 카페 > 커피전문점,http://place.map.kakao.com/1742492568,키커피컴퍼니 왕십리점,https://m.place.naver.com/restaurant/1976097430
663,663,1653556066,카페온화 성수점,서울 성동구 성수동2가 302-4,서울 성동구 아차산로 78,,카페,음식점 > 카페,http://place.map.kakao.com/1653556066,카페온화 성수점,https://m.place.naver.com/restaurant/1321493330
664,664,1623291829,오우드,서울 성동구 성수동2가 272-3,서울 성동구 연무장길 101-1,070-8844-0196,카페,음식점 > 카페 > 테마카페 > 디저트카페,http://place.map.kakao.com/1623291829,오우드,https://m.place.naver.com/restaurant/1833313793
665,665,1325105515,카페노티드 성수,서울 성동구 성수동2가 316-5,서울 성동구 연무장길 29-17,,카페,음식점 > 카페,http://place.map.kakao.com/1325105515,카페노티드 성수,https://m.place.naver.com/restaurant/1706561777
666,666,17657824,하루노유키,서울 성동구 성수동1가 685-428,서울 성동구 서울숲2길 17,02-548-8662,카페,음식점 > 카페 > 테마카페 > 디저트카페,http://place.map.kakao.com/17657824,하루노유키,https://m.place.naver.com/restaurant/30811760
667,667,483722570,마크69,서울 성동구 성수동1가 685-350,서울 성동구 서울숲길 24,,카페,음식점 > 카페,http://place.map.kakao.com/483722570,마크69,https://m.place.naver.com/restaurant/1430646260
668,668,505665583,맛차차,서울 성동구 성수동1가 685-450,서울 성동구 서울숲2길 18-11,010-9719-8707,카페,음식점 > 카페,http://place.map.kakao.com/505665583,맛차차,https://m.place.naver.com/restaurant/1467953783
669,669,431464251,아이오쓰리 성수사거리점,서울 성동구 성수동2가 275-54,서울 성동구 성수이로20길 60,02-497-1961,카페,음식점 > 카페,http://place.map.kakao.com/431464251,아이오쓰리 성수사거리점,https://m.place.naver.com/restaurant/1918028699
670,670,753723493,브라운팟,서울 성동구 행당동 286-19,서울 성동구 무학봉28길 16,02-2299-7796,카페,음식점 > 카페,http://place.map.kakao.com/753723493,브라운팟,https://m.place.naver.com/restaurant/1165635472
671,671,1431120740,플디 성수점,서울 성동구 성수동1가 13-156,서울 성동구 상원길 44,,카페,음식점 > 카페,http://place.map.kakao.com/1431120740,플디 성수점,https://m.place.naver.com/restaurant/1030413970
672,672,1300323227,카페노티드 피치스,서울 성동구 성수동2가 301-16,서울 성동구 연무장3길 9,0507-1405-9377,카페,음식점 > 카페 > 테마카페 > 디저트카페,http://place.map.kakao.com/1300323227,카페노티드 피치스,https://m.place.naver.com/restaurant/1022973489
673,673,1501931765,천상가옥,서울 성동구 성수동2가 322-4,서울 성동구 성수이로14길 14,,카페,음식점 > 카페,http://place.map.kakao.com/1501931765,천상가옥,https://m.place.naver.com/restaurant/1074358103
674,674,157479724,비엔나커피하우스 서울숲역점,서울 성동구 성수동1가 656-447,서울 성동구 왕십리로 66,070-4628-5049,카페,음식점 > 카페,http://place.map.kakao.com/157479724,비엔나커피하우스 서울숲역점,https://m.place.naver.com/restaurant/1320858854
