,id,place_name,address_name,road_address_name,phone,category_group_name,category_name,place_url
0,1974266862,카페노티드 안국,서울 종로구 재동 86,서울 종로구 북촌로 6-3,0507-1337-9973,카페,음식점 > 카페 > 테마카페 > 디저트카페,http://place.map.kakao.com/1974266862
1,8574728,토즈모임센터 종로점,서울 종로구 종로2가 84-8,서울 종로구 종로 68,02-736-0061,카페,"서비스,산업 > 전문대행 > 공간대여 > 모임공간 > 토즈모임센터",http://place.map.kakao.com/8574728
2,853028118,어니언 안국점,서울 종로구 계동 146-1,서울 종로구 계동길 5,070-7543-2123,카페,음식점 > 카페,http://place.map.kakao.com/853028118
3,353512935,블루보틀 삼청 카페,서울 종로구 소격동 86,서울 종로구 북촌로5길 76,1533-6906,카페,음식점 > 카페,http://place.map.kakao.com/353512935
4,1779571274,안녕인사동,서울 종로구 관훈동 155-2,서울 종로구 인사동길 49,02-6954-2910,카페,음식점 > 카페 > 테마카페,http://place.map.kakao.com/1779571274
5,1508329235,스태픽스,서울 종로구 필운동 32-1,서울 종로구 사직로9길 22,0507-1341-2055,카페,음식점 > 카페,http://place.map.kakao.com/1508329235
6,1429224581,아키비스트,서울 종로구 효자동 164-7,서울 종로구 효자로13길 52,02-738-1517,카페,음식점 > 카페,http://place.map.kakao.com/1429224581
7,7912367,산모퉁이,서울 종로구 부암동 97-5,서울 종로구 백석동길 153,02-391-4737,카페,음식점 > 카페,http://place.map.kakao.com/7912367
8,27187492,포비 광화문점,서울 종로구 청진동 246,서울 종로구 종로3길 17,02-2251-8125,카페,음식점 > 카페,http://place.map.kakao.com/27187492
9,8082652,차마시는 뜰,서울 종로구 삼청동 35-169,서울 종로구 북촌로11나길 26,02-722-7006,카페,음식점 > 카페 > 전통찻집,http://place.map.kakao.com/8082652
10,24725284,테라로사 광화문점,서울 종로구 중학동 19,서울 종로구 종로1길 50,,카페,음식점 > 카페 > 커피전문점,http://place.map.kakao.com/24725284
11,826692169,카페 레이어드 안국점,서울 종로구 재동 84-14,서울 종로구 북촌로2길 2-3,,카페,음식점 > 카페 > 테마카페 > 디저트카페,http://place.map.kakao.com/826692169
12,1154772851,프릳츠 원서점,서울 종로구 원서동 221-1,서울 종로구 율곡로 83,02-747-8101,카페,음식점 > 카페,http://place.map.kakao.com/1154772851
13,11016313,나무사이로,서울 종로구 내자동 196,서울 종로구 사직로8길 21,070-7590-0885,카페,음식점 > 카페 > 커피전문점,http://place.map.kakao.com/11016313
14,281666038,포비브라이트 광화문점,서울 종로구 신문로1가 115,서울 종로구 새문안로 76,02-6744-0120,카페,음식점 > 카페,http://place.map.kakao.com/281666038
15,8143287,학림다방,서울 종로구 명륜4가 94-2,서울 종로구 대학로 119,02-742-2877,카페,음식점 > 카페,http://place.map.kakao.com/8143287
16,890843625,개뿔,서울 종로구 이화동 9-443,서울 종로구 낙산성곽서1길 26,02-765-2019,카페,음식점 > 카페 > 테마카페 > 갤러리카페,http://place.map.kakao.com/890843625
17,967168196,H라운지,서울 종로구 통의동 35-21,서울 종로구 자하문로4길 21-9,02-722-0028,카페,음식점 > 카페,http://place.map.kakao.com/967168196
18,78911659,청수당,서울 종로구 익선동 144,서울 종로구 돈화문로11나길 31-9,0507-1318-8215,카페,음식점 > 카페,http://place.map.kakao.com/78911659
19,27411968,토즈모임센터 광화문점,서울 종로구 신문로1가 25,서울 종로구 새문안로 89,02-735-0022,카페,"서비스,산업 > 전문대행 > 공간대여 > 모임공간 > 토즈모임센터",http://place.map.kakao.com/27411968
20,20459372,부빙,서울 종로구 부암동 254-2,서울 종로구 창의문로 136,02-394-8288,카페,음식점 > 카페 > 테마카페 > 디저트카페,http://place.map.kakao.com/20459372
21,468528939,카페키이로,서울 종로구 명륜4가 154-2,서울 종로구 창경궁로26길 41-3,02-747-0848,카페,음식점 > 카페 > 커피전문점,http://place.map.kakao.com/468528939
22,320882660,도트블랭킷,서울 종로구 안국동 83,서울 종로구 윤보선길 22,0507-1431-2226,카페,음식점 > 카페,http://place.map.kakao.com/320882660
23,7941905,서울서 둘째로잘하는집,서울 종로구 삼청동 28-21,서울 종로구 삼청로 122-1,02-734-5302,카페,음식점 > 카페 > 전통찻집,http://place.map.kakao.com/7941905
24,2084457534,카페 하이웨스트 익선점,서울 종로구 돈의동 13,서울 종로구 돈화문로11다길 18,,카페,음식점 > 카페,http://place.map.kakao.com/2084457534
25,1882706147,대충유원지 인왕산,서울 종로구 누하동 22,서울 종로구 필운대로 46,,카페,음식점 > 카페,http://place.map.kakao.com/1882706147
26,17382138,라카페갤러리,서울 종로구 통의동 10,서울 종로구 자하문로10길 28,02-379-1975,카페,음식점 > 카페 > 테마카페 > 갤러리카페,http://place.map.kakao.com/17382138
27,27278291,슬로우파크,서울 종로구 삼청동 15-2,서울 종로구 삼청로 141,02-739-8797,카페,음식점 > 카페,http://place.map.kakao.com/27278291
28,594338477,가배도 삼청점,서울 종로구 소격동 142-2,서울 종로구 북촌로5길 56-8,02-732-4542,카페,음식점 > 카페 > 다방,http://place.map.kakao.com/594338477
29,10405822,반쥴,서울 종로구 관철동 12-16,서울 종로구 삼일대로17길 23,02-735-5437,카페,음식점 > 카페 > 커피전문점,http://place.map.kakao.com/10405822
30,8045991,카페이마,서울 종로구 세종로 139-8,서울 종로구 세종대로 152,02-2020-2088,카페,음식점 > 카페,http://place.map.kakao.com/8045991
31,212413668,내자상회,서울 종로구 내자동 142,서울 종로구 사직로10길 3,070-7755-0142,카페,음식점 > 카페,http://place.map.kakao.com/212413668
32,1182434312,제이히든하우스,서울 종로구 종로6가 94,서울 종로구 종로 269-4,02-744-1915,카페,음식점 > 카페,http://place.map.kakao.com/1182434312
33,1154343797,한옥찻집,서울 종로구 관훈동 64,서울 종로구 인사동12길 9,,카페,음식점 > 카페 > 전통찻집,http://place.map.kakao.com/1154343797
34,971978748,로코랩,서울 종로구 수송동 46-13,서울 종로구 율곡로4길 51,02-3210-3258,카페,음식점 > 카페,http://place.map.kakao.com/971978748
35,517442171,결,서울 종로구 공평동 17,서울 종로구 우정국로 26,02-6370-5840,카페,음식점 > 카페,http://place.map.kakao.com/517442171
36,15815825,mk2,서울 종로구 창성동 122-2,서울 종로구 자하문로10길 17,,카페,음식점 > 카페,http://place.map.kakao.com/15815825
37,630916358,동백양과점 익선점,서울 종로구 익선동 166-73,서울 종로구 수표로28길 17-24,02-3144-0429,카페,음식점 > 카페 > 커피전문점,http://place.map.kakao.com/630916358
38,9544927,클럽에스프레소,서울 종로구 부암동 257-1,서울 종로구 창의문로 132,02-764-8719,카페,음식점 > 카페 > 커피전문점,http://place.map.kakao.com/9544927
39,1041123432,애즈라이크,서울 종로구 통의동 7-33,서울 종로구 효자로7길 23,02-722-9994,카페,음식점 > 카페,http://place.map.kakao.com/1041123432
40,1711700322,밀크홀1937 종로점,서울 종로구 종로2가 71-5,서울 종로구 종로 86-1,070-8801-1937,카페,음식점 > 카페,http://place.map.kakao.com/1711700322
41,1742096339,카페온화 익선점,서울 종로구 익선동 166-39,서울 종로구 수표로28길 21-10,,카페,음식점 > 카페,http://place.map.kakao.com/1742096339
42,855621421,호텔세느장,서울 종로구 낙원동 122,서울 종로구 돈화문로11길 28-5,02-766-8211,카페,음식점 > 카페 > 테마카페 > 디저트카페,http://place.map.kakao.com/855621421
43,26964717,코피티암커피 경복궁점,서울 종로구 통의동 35-29,서울 종로구 자하문로4길 7,070-7670-8837,카페,음식점 > 카페,http://place.map.kakao.com/26964717
44,8105618,커피스트,서울 종로구 신문로2가 1-335,서울 종로구 경희궁길 39,02-725-5557,카페,음식점 > 카페 > 커피전문점,http://place.map.kakao.com/8105618
45,8045991,카페이마,서울 종로구 세종로 139-8,서울 종로구 세종대로 152,02-2020-2088,카페,음식점 > 카페,http://place.map.kakao.com/8045991
46,212413668,내자상회,서울 종로구 내자동 142,서울 종로구 사직로10길 3,070-7755-0142,카페,음식점 > 카페,http://place.map.kakao.com/212413668
47,1182434312,제이히든하우스,서울 종로구 종로6가 94,서울 종로구 종로 269-4,02-744-1915,카페,음식점 > 카페,http://place.map.kakao.com/1182434312
48,1154343797,한옥찻집,서울 종로구 관훈동 64,서울 종로구 인사동12길 9,,카페,음식점 > 카페 > 전통찻집,http://place.map.kakao.com/1154343797
49,971978748,로코랩,서울 종로구 수송동 46-13,서울 종로구 율곡로4길 51,02-3210-3258,카페,음식점 > 카페,http://place.map.kakao.com/971978748
50,517442171,결,서울 종로구 공평동 17,서울 종로구 우정국로 26,02-6370-5840,카페,음식점 > 카페,http://place.map.kakao.com/517442171
51,15815825,mk2,서울 종로구 창성동 122-2,서울 종로구 자하문로10길 17,,카페,음식점 > 카페,http://place.map.kakao.com/15815825
52,630916358,동백양과점 익선점,서울 종로구 익선동 166-73,서울 종로구 수표로28길 17-24,02-3144-0429,카페,음식점 > 카페 > 커피전문점,http://place.map.kakao.com/630916358
53,9544927,클럽에스프레소,서울 종로구 부암동 257-1,서울 종로구 창의문로 132,02-764-8719,카페,음식점 > 카페 > 커피전문점,http://place.map.kakao.com/9544927
54,1041123432,애즈라이크,서울 종로구 통의동 7-33,서울 종로구 효자로7길 23,02-722-9994,카페,음식점 > 카페,http://place.map.kakao.com/1041123432
55,1711700322,밀크홀1937 종로점,서울 종로구 종로2가 71-5,서울 종로구 종로 86-1,070-8801-1937,카페,음식점 > 카페,http://place.map.kakao.com/1711700322
56,1742096339,카페온화 익선점,서울 종로구 익선동 166-39,서울 종로구 수표로28길 21-10,,카페,음식점 > 카페,http://place.map.kakao.com/1742096339
57,855621421,호텔세느장,서울 종로구 낙원동 122,서울 종로구 돈화문로11길 28-5,02-766-8211,카페,음식점 > 카페 > 테마카페 > 디저트카페,http://place.map.kakao.com/855621421
58,26964717,코피티암커피 경복궁점,서울 종로구 통의동 35-29,서울 종로구 자하문로4길 7,070-7670-8837,카페,음식점 > 카페,http://place.map.kakao.com/26964717
59,8105618,커피스트,서울 종로구 신문로2가 1-335,서울 종로구 경희궁길 39,02-725-5557,카페,음식점 > 카페 > 커피전문점,http://place.map.kakao.com/8105618
60,8045991,카페이마,서울 종로구 세종로 139-8,서울 종로구 세종대로 152,02-2020-2088,카페,음식점 > 카페,http://place.map.kakao.com/8045991
61,212413668,내자상회,서울 종로구 내자동 142,서울 종로구 사직로10길 3,070-7755-0142,카페,음식점 > 카페,http://place.map.kakao.com/212413668
62,1182434312,제이히든하우스,서울 종로구 종로6가 94,서울 종로구 종로 269-4,02-744-1915,카페,음식점 > 카페,http://place.map.kakao.com/1182434312
63,1154343797,한옥찻집,서울 종로구 관훈동 64,서울 종로구 인사동12길 9,,카페,음식점 > 카페 > 전통찻집,http://place.map.kakao.com/1154343797
64,971978748,로코랩,서울 종로구 수송동 46-13,서울 종로구 율곡로4길 51,02-3210-3258,카페,음식점 > 카페,http://place.map.kakao.com/971978748
65,517442171,결,서울 종로구 공평동 17,서울 종로구 우정국로 26,02-6370-5840,카페,음식점 > 카페,http://place.map.kakao.com/517442171
66,15815825,mk2,서울 종로구 창성동 122-2,서울 종로구 자하문로10길 17,,카페,음식점 > 카페,http://place.map.kakao.com/15815825
67,630916358,동백양과점 익선점,서울 종로구 익선동 166-73,서울 종로구 수표로28길 17-24,02-3144-0429,카페,음식점 > 카페 > 커피전문점,http://place.map.kakao.com/630916358
68,9544927,클럽에스프레소,서울 종로구 부암동 257-1,서울 종로구 창의문로 132,02-764-8719,카페,음식점 > 카페 > 커피전문점,http://place.map.kakao.com/9544927
69,1041123432,애즈라이크,서울 종로구 통의동 7-33,서울 종로구 효자로7길 23,02-722-9994,카페,음식점 > 카페,http://place.map.kakao.com/1041123432
70,1711700322,밀크홀1937 종로점,서울 종로구 종로2가 71-5,서울 종로구 종로 86-1,070-8801-1937,카페,음식점 > 카페,http://place.map.kakao.com/1711700322
71,1742096339,카페온화 익선점,서울 종로구 익선동 166-39,서울 종로구 수표로28길 21-10,,카페,음식점 > 카페,http://place.map.kakao.com/1742096339
72,855621421,호텔세느장,서울 종로구 낙원동 122,서울 종로구 돈화문로11길 28-5,02-766-8211,카페,음식점 > 카페 > 테마카페 > 디저트카페,http://place.map.kakao.com/855621421
73,26964717,코피티암커피 경복궁점,서울 종로구 통의동 35-29,서울 종로구 자하문로4길 7,070-7670-8837,카페,음식점 > 카페,http://place.map.kakao.com/26964717
74,8105618,커피스트,서울 종로구 신문로2가 1-335,서울 종로구 경희궁길 39,02-725-5557,카페,음식점 > 카페 > 커피전문점,http://place.map.kakao.com/8105618
75,8045991,카페이마,서울 종로구 세종로 139-8,서울 종로구 세종대로 152,02-2020-2088,카페,음식점 > 카페,http://place.map.kakao.com/8045991
76,212413668,내자상회,서울 종로구 내자동 142,서울 종로구 사직로10길 3,070-7755-0142,카페,음식점 > 카페,http://place.map.kakao.com/212413668
77,1182434312,제이히든하우스,서울 종로구 종로6가 94,서울 종로구 종로 269-4,02-744-1915,카페,음식점 > 카페,http://place.map.kakao.com/1182434312
78,1154343797,한옥찻집,서울 종로구 관훈동 64,서울 종로구 인사동12길 9,,카페,음식점 > 카페 > 전통찻집,http://place.map.kakao.com/1154343797
79,971978748,로코랩,서울 종로구 수송동 46-13,서울 종로구 율곡로4길 51,02-3210-3258,카페,음식점 > 카페,http://place.map.kakao.com/971978748
80,517442171,결,서울 종로구 공평동 17,서울 종로구 우정국로 26,02-6370-5840,카페,음식점 > 카페,http://place.map.kakao.com/517442171
81,15815825,mk2,서울 종로구 창성동 122-2,서울 종로구 자하문로10길 17,,카페,음식점 > 카페,http://place.map.kakao.com/15815825
82,630916358,동백양과점 익선점,서울 종로구 익선동 166-73,서울 종로구 수표로28길 17-24,02-3144-0429,카페,음식점 > 카페 > 커피전문점,http://place.map.kakao.com/630916358
83,9544927,클럽에스프레소,서울 종로구 부암동 257-1,서울 종로구 창의문로 132,02-764-8719,카페,음식점 > 카페 > 커피전문점,http://place.map.kakao.com/9544927
84,1041123432,애즈라이크,서울 종로구 통의동 7-33,서울 종로구 효자로7길 23,02-722-9994,카페,음식점 > 카페,http://place.map.kakao.com/1041123432
85,1711700322,밀크홀1937 종로점,서울 종로구 종로2가 71-5,서울 종로구 종로 86-1,070-8801-1937,카페,음식점 > 카페,http://place.map.kakao.com/1711700322
86,1742096339,카페온화 익선점,서울 종로구 익선동 166-39,서울 종로구 수표로28길 21-10,,카페,음식점 > 카페,http://place.map.kakao.com/1742096339
87,855621421,호텔세느장,서울 종로구 낙원동 122,서울 종로구 돈화문로11길 28-5,02-766-8211,카페,음식점 > 카페 > 테마카페 > 디저트카페,http://place.map.kakao.com/855621421
88,26964717,코피티암커피 경복궁점,서울 종로구 통의동 35-29,서울 종로구 자하문로4길 7,070-7670-8837,카페,음식점 > 카페,http://place.map.kakao.com/26964717
89,8105618,커피스트,서울 종로구 신문로2가 1-335,서울 종로구 경희궁길 39,02-725-5557,카페,음식점 > 카페 > 커피전문점,http://place.map.kakao.com/8105618
90,8045991,카페이마,서울 종로구 세종로 139-8,서울 종로구 세종대로 152,02-2020-2088,카페,음식점 > 카페,http://place.map.kakao.com/8045991
91,212413668,내자상회,서울 종로구 내자동 142,서울 종로구 사직로10길 3,070-7755-0142,카페,음식점 > 카페,http://place.map.kakao.com/212413668
92,1182434312,제이히든하우스,서울 종로구 종로6가 94,서울 종로구 종로 269-4,02-744-1915,카페,음식점 > 카페,http://place.map.kakao.com/1182434312
93,1154343797,한옥찻집,서울 종로구 관훈동 64,서울 종로구 인사동12길 9,,카페,음식점 > 카페 > 전통찻집,http://place.map.kakao.com/1154343797
94,971978748,로코랩,서울 종로구 수송동 46-13,서울 종로구 율곡로4길 51,02-3210-3258,카페,음식점 > 카페,http://place.map.kakao.com/971978748
95,517442171,결,서울 종로구 공평동 17,서울 종로구 우정국로 26,02-6370-5840,카페,음식점 > 카페,http://place.map.kakao.com/517442171
96,15815825,mk2,서울 종로구 창성동 122-2,서울 종로구 자하문로10길 17,,카페,음식점 > 카페,http://place.map.kakao.com/15815825
97,630916358,동백양과점 익선점,서울 종로구 익선동 166-73,서울 종로구 수표로28길 17-24,02-3144-0429,카페,음식점 > 카페 > 커피전문점,http://place.map.kakao.com/630916358
98,9544927,클럽에스프레소,서울 종로구 부암동 257-1,서울 종로구 창의문로 132,02-764-8719,카페,음식점 > 카페 > 커피전문점,http://place.map.kakao.com/9544927
99,1041123432,애즈라이크,서울 종로구 통의동 7-33,서울 종로구 효자로7길 23,02-722-9994,카페,음식점 > 카페,http://place.map.kakao.com/1041123432
100,1711700322,밀크홀1937 종로점,서울 종로구 종로2가 71-5,서울 종로구 종로 86-1,070-8801-1937,카페,음식점 > 카페,http://place.map.kakao.com/1711700322
101,1742096339,카페온화 익선점,서울 종로구 익선동 166-39,서울 종로구 수표로28길 21-10,,카페,음식점 > 카페,http://place.map.kakao.com/1742096339
102,855621421,호텔세느장,서울 종로구 낙원동 122,서울 종로구 돈화문로11길 28-5,02-766-8211,카페,음식점 > 카페 > 테마카페 > 디저트카페,http://place.map.kakao.com/855621421
103,26964717,코피티암커피 경복궁점,서울 종로구 통의동 35-29,서울 종로구 자하문로4길 7,070-7670-8837,카페,음식점 > 카페,http://place.map.kakao.com/26964717
104,8105618,커피스트,서울 종로구 신문로2가 1-335,서울 종로구 경희궁길 39,02-725-5557,카페,음식점 > 카페 > 커피전문점,http://place.map.kakao.com/8105618
105,8045991,카페이마,서울 종로구 세종로 139-8,서울 종로구 세종대로 152,02-2020-2088,카페,음식점 > 카페,http://place.map.kakao.com/8045991
106,212413668,내자상회,서울 종로구 내자동 142,서울 종로구 사직로10길 3,070-7755-0142,카페,음식점 > 카페,http://place.map.kakao.com/212413668
107,1182434312,제이히든하우스,서울 종로구 종로6가 94,서울 종로구 종로 269-4,02-744-1915,카페,음식점 > 카페,http://place.map.kakao.com/1182434312
108,1154343797,한옥찻집,서울 종로구 관훈동 64,서울 종로구 인사동12길 9,,카페,음식점 > 카페 > 전통찻집,http://place.map.kakao.com/1154343797
109,971978748,로코랩,서울 종로구 수송동 46-13,서울 종로구 율곡로4길 51,02-3210-3258,카페,음식점 > 카페,http://place.map.kakao.com/971978748
110,517442171,결,서울 종로구 공평동 17,서울 종로구 우정국로 26,02-6370-5840,카페,음식점 > 카페,http://place.map.kakao.com/517442171
111,15815825,mk2,서울 종로구 창성동 122-2,서울 종로구 자하문로10길 17,,카페,음식점 > 카페,http://place.map.kakao.com/15815825
112,630916358,동백양과점 익선점,서울 종로구 익선동 166-73,서울 종로구 수표로28길 17-24,02-3144-0429,카페,음식점 > 카페 > 커피전문점,http://place.map.kakao.com/630916358
113,9544927,클럽에스프레소,서울 종로구 부암동 257-1,서울 종로구 창의문로 132,02-764-8719,카페,음식점 > 카페 > 커피전문점,http://place.map.kakao.com/9544927
114,1041123432,애즈라이크,서울 종로구 통의동 7-33,서울 종로구 효자로7길 23,02-722-9994,카페,음식점 > 카페,http://place.map.kakao.com/1041123432
115,1711700322,밀크홀1937 종로점,서울 종로구 종로2가 71-5,서울 종로구 종로 86-1,070-8801-1937,카페,음식점 > 카페,http://place.map.kakao.com/1711700322
116,1742096339,카페온화 익선점,서울 종로구 익선동 166-39,서울 종로구 수표로28길 21-10,,카페,음식점 > 카페,http://place.map.kakao.com/1742096339
117,855621421,호텔세느장,서울 종로구 낙원동 122,서울 종로구 돈화문로11길 28-5,02-766-8211,카페,음식점 > 카페 > 테마카페 > 디저트카페,http://place.map.kakao.com/855621421
118,26964717,코피티암커피 경복궁점,서울 종로구 통의동 35-29,서울 종로구 자하문로4길 7,070-7670-8837,카페,음식점 > 카페,http://place.map.kakao.com/26964717
119,8105618,커피스트,서울 종로구 신문로2가 1-335,서울 종로구 경희궁길 39,02-725-5557,카페,음식점 > 카페 > 커피전문점,http://place.map.kakao.com/8105618
120,8045991,카페이마,서울 종로구 세종로 139-8,서울 종로구 세종대로 152,02-2020-2088,카페,음식점 > 카페,http://place.map.kakao.com/8045991
121,212413668,내자상회,서울 종로구 내자동 142,서울 종로구 사직로10길 3,070-7755-0142,카페,음식점 > 카페,http://place.map.kakao.com/212413668
122,1182434312,제이히든하우스,서울 종로구 종로6가 94,서울 종로구 종로 269-4,02-744-1915,카페,음식점 > 카페,http://place.map.kakao.com/1182434312
123,1154343797,한옥찻집,서울 종로구 관훈동 64,서울 종로구 인사동12길 9,,카페,음식점 > 카페 > 전통찻집,http://place.map.kakao.com/1154343797
124,971978748,로코랩,서울 종로구 수송동 46-13,서울 종로구 율곡로4길 51,02-3210-3258,카페,음식점 > 카페,http://place.map.kakao.com/971978748
125,517442171,결,서울 종로구 공평동 17,서울 종로구 우정국로 26,02-6370-5840,카페,음식점 > 카페,http://place.map.kakao.com/517442171
126,15815825,mk2,서울 종로구 창성동 122-2,서울 종로구 자하문로10길 17,,카페,음식점 > 카페,http://place.map.kakao.com/15815825
127,630916358,동백양과점 익선점,서울 종로구 익선동 166-73,서울 종로구 수표로28길 17-24,02-3144-0429,카페,음식점 > 카페 > 커피전문점,http://place.map.kakao.com/630916358
128,9544927,클럽에스프레소,서울 종로구 부암동 257-1,서울 종로구 창의문로 132,02-764-8719,카페,음식점 > 카페 > 커피전문점,http://place.map.kakao.com/9544927
129,1041123432,애즈라이크,서울 종로구 통의동 7-33,서울 종로구 효자로7길 23,02-722-9994,카페,음식점 > 카페,http://place.map.kakao.com/1041123432
130,1711700322,밀크홀1937 종로점,서울 종로구 종로2가 71-5,서울 종로구 종로 86-1,070-8801-1937,카페,음식점 > 카페,http://place.map.kakao.com/1711700322
131,1742096339,카페온화 익선점,서울 종로구 익선동 166-39,서울 종로구 수표로28길 21-10,,카페,음식점 > 카페,http://place.map.kakao.com/1742096339
132,855621421,호텔세느장,서울 종로구 낙원동 122,서울 종로구 돈화문로11길 28-5,02-766-8211,카페,음식점 > 카페 > 테마카페 > 디저트카페,http://place.map.kakao.com/855621421
133,26964717,코피티암커피 경복궁점,서울 종로구 통의동 35-29,서울 종로구 자하문로4길 7,070-7670-8837,카페,음식점 > 카페,http://place.map.kakao.com/26964717
134,8105618,커피스트,서울 종로구 신문로2가 1-335,서울 종로구 경희궁길 39,02-725-5557,카페,음식점 > 카페 > 커피전문점,http://place.map.kakao.com/8105618
135,8045991,카페이마,서울 종로구 세종로 139-8,서울 종로구 세종대로 152,02-2020-2088,카페,음식점 > 카페,http://place.map.kakao.com/8045991
136,212413668,내자상회,서울 종로구 내자동 142,서울 종로구 사직로10길 3,070-7755-0142,카페,음식점 > 카페,http://place.map.kakao.com/212413668
137,1182434312,제이히든하우스,서울 종로구 종로6가 94,서울 종로구 종로 269-4,02-744-1915,카페,음식점 > 카페,http://place.map.kakao.com/1182434312
138,1154343797,한옥찻집,서울 종로구 관훈동 64,서울 종로구 인사동12길 9,,카페,음식점 > 카페 > 전통찻집,http://place.map.kakao.com/1154343797
139,971978748,로코랩,서울 종로구 수송동 46-13,서울 종로구 율곡로4길 51,02-3210-3258,카페,음식점 > 카페,http://place.map.kakao.com/971978748
140,517442171,결,서울 종로구 공평동 17,서울 종로구 우정국로 26,02-6370-5840,카페,음식점 > 카페,http://place.map.kakao.com/517442171
141,15815825,mk2,서울 종로구 창성동 122-2,서울 종로구 자하문로10길 17,,카페,음식점 > 카페,http://place.map.kakao.com/15815825
142,630916358,동백양과점 익선점,서울 종로구 익선동 166-73,서울 종로구 수표로28길 17-24,02-3144-0429,카페,음식점 > 카페 > 커피전문점,http://place.map.kakao.com/630916358
143,9544927,클럽에스프레소,서울 종로구 부암동 257-1,서울 종로구 창의문로 132,02-764-8719,카페,음식점 > 카페 > 커피전문점,http://place.map.kakao.com/9544927
144,1041123432,애즈라이크,서울 종로구 통의동 7-33,서울 종로구 효자로7길 23,02-722-9994,카페,음식점 > 카페,http://place.map.kakao.com/1041123432
145,1711700322,밀크홀1937 종로점,서울 종로구 종로2가 71-5,서울 종로구 종로 86-1,070-8801-1937,카페,음식점 > 카페,http://place.map.kakao.com/1711700322
146,1742096339,카페온화 익선점,서울 종로구 익선동 166-39,서울 종로구 수표로28길 21-10,,카페,음식점 > 카페,http://place.map.kakao.com/1742096339
147,855621421,호텔세느장,서울 종로구 낙원동 122,서울 종로구 돈화문로11길 28-5,02-766-8211,카페,음식점 > 카페 > 테마카페 > 디저트카페,http://place.map.kakao.com/855621421
148,26964717,코피티암커피 경복궁점,서울 종로구 통의동 35-29,서울 종로구 자하문로4길 7,070-7670-8837,카페,음식점 > 카페,http://place.map.kakao.com/26964717
149,8105618,커피스트,서울 종로구 신문로2가 1-335,서울 종로구 경희궁길 39,02-725-5557,카페,음식점 > 카페 > 커피전문점,http://place.map.kakao.com/8105618
150,8045991,카페이마,서울 종로구 세종로 139-8,서울 종로구 세종대로 152,02-2020-2088,카페,음식점 > 카페,http://place.map.kakao.com/8045991
151,212413668,내자상회,서울 종로구 내자동 142,서울 종로구 사직로10길 3,070-7755-0142,카페,음식점 > 카페,http://place.map.kakao.com/212413668
152,1182434312,제이히든하우스,서울 종로구 종로6가 94,서울 종로구 종로 269-4,02-744-1915,카페,음식점 > 카페,http://place.map.kakao.com/1182434312
153,1154343797,한옥찻집,서울 종로구 관훈동 64,서울 종로구 인사동12길 9,,카페,음식점 > 카페 > 전통찻집,http://place.map.kakao.com/1154343797
154,971978748,로코랩,서울 종로구 수송동 46-13,서울 종로구 율곡로4길 51,02-3210-3258,카페,음식점 > 카페,http://place.map.kakao.com/971978748
155,517442171,결,서울 종로구 공평동 17,서울 종로구 우정국로 26,02-6370-5840,카페,음식점 > 카페,http://place.map.kakao.com/517442171
156,15815825,mk2,서울 종로구 창성동 122-2,서울 종로구 자하문로10길 17,,카페,음식점 > 카페,http://place.map.kakao.com/15815825
157,630916358,동백양과점 익선점,서울 종로구 익선동 166-73,서울 종로구 수표로28길 17-24,02-3144-0429,카페,음식점 > 카페 > 커피전문점,http://place.map.kakao.com/630916358
158,9544927,클럽에스프레소,서울 종로구 부암동 257-1,서울 종로구 창의문로 132,02-764-8719,카페,음식점 > 카페 > 커피전문점,http://place.map.kakao.com/9544927
159,1041123432,애즈라이크,서울 종로구 통의동 7-33,서울 종로구 효자로7길 23,02-722-9994,카페,음식점 > 카페,http://place.map.kakao.com/1041123432
160,1711700322,밀크홀1937 종로점,서울 종로구 종로2가 71-5,서울 종로구 종로 86-1,070-8801-1937,카페,음식점 > 카페,http://place.map.kakao.com/1711700322
161,1742096339,카페온화 익선점,서울 종로구 익선동 166-39,서울 종로구 수표로28길 21-10,,카페,음식점 > 카페,http://place.map.kakao.com/1742096339
162,855621421,호텔세느장,서울 종로구 낙원동 122,서울 종로구 돈화문로11길 28-5,02-766-8211,카페,음식점 > 카페 > 테마카페 > 디저트카페,http://place.map.kakao.com/855621421
163,26964717,코피티암커피 경복궁점,서울 종로구 통의동 35-29,서울 종로구 자하문로4길 7,070-7670-8837,카페,음식점 > 카페,http://place.map.kakao.com/26964717
164,8105618,커피스트,서울 종로구 신문로2가 1-335,서울 종로구 경희궁길 39,02-725-5557,카페,음식점 > 카페 > 커피전문점,http://place.map.kakao.com/8105618
165,8045991,카페이마,서울 종로구 세종로 139-8,서울 종로구 세종대로 152,02-2020-2088,카페,음식점 > 카페,http://place.map.kakao.com/8045991
166,212413668,내자상회,서울 종로구 내자동 142,서울 종로구 사직로10길 3,070-7755-0142,카페,음식점 > 카페,http://place.map.kakao.com/212413668
167,1182434312,제이히든하우스,서울 종로구 종로6가 94,서울 종로구 종로 269-4,02-744-1915,카페,음식점 > 카페,http://place.map.kakao.com/1182434312
168,1154343797,한옥찻집,서울 종로구 관훈동 64,서울 종로구 인사동12길 9,,카페,음식점 > 카페 > 전통찻집,http://place.map.kakao.com/1154343797
169,971978748,로코랩,서울 종로구 수송동 46-13,서울 종로구 율곡로4길 51,02-3210-3258,카페,음식점 > 카페,http://place.map.kakao.com/971978748
170,517442171,결,서울 종로구 공평동 17,서울 종로구 우정국로 26,02-6370-5840,카페,음식점 > 카페,http://place.map.kakao.com/517442171
171,15815825,mk2,서울 종로구 창성동 122-2,서울 종로구 자하문로10길 17,,카페,음식점 > 카페,http://place.map.kakao.com/15815825
172,630916358,동백양과점 익선점,서울 종로구 익선동 166-73,서울 종로구 수표로28길 17-24,02-3144-0429,카페,음식점 > 카페 > 커피전문점,http://place.map.kakao.com/630916358
173,9544927,클럽에스프레소,서울 종로구 부암동 257-1,서울 종로구 창의문로 132,02-764-8719,카페,음식점 > 카페 > 커피전문점,http://place.map.kakao.com/9544927
174,1041123432,애즈라이크,서울 종로구 통의동 7-33,서울 종로구 효자로7길 23,02-722-9994,카페,음식점 > 카페,http://place.map.kakao.com/1041123432
175,1711700322,밀크홀1937 종로점,서울 종로구 종로2가 71-5,서울 종로구 종로 86-1,070-8801-1937,카페,음식점 > 카페,http://place.map.kakao.com/1711700322
176,1742096339,카페온화 익선점,서울 종로구 익선동 166-39,서울 종로구 수표로28길 21-10,,카페,음식점 > 카페,http://place.map.kakao.com/1742096339
177,855621421,호텔세느장,서울 종로구 낙원동 122,서울 종로구 돈화문로11길 28-5,02-766-8211,카페,음식점 > 카페 > 테마카페 > 디저트카페,http://place.map.kakao.com/855621421
178,26964717,코피티암커피 경복궁점,서울 종로구 통의동 35-29,서울 종로구 자하문로4길 7,070-7670-8837,카페,음식점 > 카페,http://place.map.kakao.com/26964717
179,8105618,커피스트,서울 종로구 신문로2가 1-335,서울 종로구 경희궁길 39,02-725-5557,카페,음식점 > 카페 > 커피전문점,http://place.map.kakao.com/8105618
180,8045991,카페이마,서울 종로구 세종로 139-8,서울 종로구 세종대로 152,02-2020-2088,카페,음식점 > 카페,http://place.map.kakao.com/8045991
181,212413668,내자상회,서울 종로구 내자동 142,서울 종로구 사직로10길 3,070-7755-0142,카페,음식점 > 카페,http://place.map.kakao.com/212413668
182,1182434312,제이히든하우스,서울 종로구 종로6가 94,서울 종로구 종로 269-4,02-744-1915,카페,음식점 > 카페,http://place.map.kakao.com/1182434312
183,1154343797,한옥찻집,서울 종로구 관훈동 64,서울 종로구 인사동12길 9,,카페,음식점 > 카페 > 전통찻집,http://place.map.kakao.com/1154343797
184,971978748,로코랩,서울 종로구 수송동 46-13,서울 종로구 율곡로4길 51,02-3210-3258,카페,음식점 > 카페,http://place.map.kakao.com/971978748
185,517442171,결,서울 종로구 공평동 17,서울 종로구 우정국로 26,02-6370-5840,카페,음식점 > 카페,http://place.map.kakao.com/517442171
186,15815825,mk2,서울 종로구 창성동 122-2,서울 종로구 자하문로10길 17,,카페,음식점 > 카페,http://place.map.kakao.com/15815825
187,630916358,동백양과점 익선점,서울 종로구 익선동 166-73,서울 종로구 수표로28길 17-24,02-3144-0429,카페,음식점 > 카페 > 커피전문점,http://place.map.kakao.com/630916358
188,9544927,클럽에스프레소,서울 종로구 부암동 257-1,서울 종로구 창의문로 132,02-764-8719,카페,음식점 > 카페 > 커피전문점,http://place.map.kakao.com/9544927
189,1041123432,애즈라이크,서울 종로구 통의동 7-33,서울 종로구 효자로7길 23,02-722-9994,카페,음식점 > 카페,http://place.map.kakao.com/1041123432
190,1711700322,밀크홀1937 종로점,서울 종로구 종로2가 71-5,서울 종로구 종로 86-1,070-8801-1937,카페,음식점 > 카페,http://place.map.kakao.com/1711700322
191,1742096339,카페온화 익선점,서울 종로구 익선동 166-39,서울 종로구 수표로28길 21-10,,카페,음식점 > 카페,http://place.map.kakao.com/1742096339
192,855621421,호텔세느장,서울 종로구 낙원동 122,서울 종로구 돈화문로11길 28-5,02-766-8211,카페,음식점 > 카페 > 테마카페 > 디저트카페,http://place.map.kakao.com/855621421
193,26964717,코피티암커피 경복궁점,서울 종로구 통의동 35-29,서울 종로구 자하문로4길 7,070-7670-8837,카페,음식점 > 카페,http://place.map.kakao.com/26964717
194,8105618,커피스트,서울 종로구 신문로2가 1-335,서울 종로구 경희궁길 39,02-725-5557,카페,음식점 > 카페 > 커피전문점,http://place.map.kakao.com/8105618
195,8045991,카페이마,서울 종로구 세종로 139-8,서울 종로구 세종대로 152,02-2020-2088,카페,음식점 > 카페,http://place.map.kakao.com/8045991
196,212413668,내자상회,서울 종로구 내자동 142,서울 종로구 사직로10길 3,070-7755-0142,카페,음식점 > 카페,http://place.map.kakao.com/212413668
197,1182434312,제이히든하우스,서울 종로구 종로6가 94,서울 종로구 종로 269-4,02-744-1915,카페,음식점 > 카페,http://place.map.kakao.com/1182434312
198,1154343797,한옥찻집,서울 종로구 관훈동 64,서울 종로구 인사동12길 9,,카페,음식점 > 카페 > 전통찻집,http://place.map.kakao.com/1154343797
199,971978748,로코랩,서울 종로구 수송동 46-13,서울 종로구 율곡로4길 51,02-3210-3258,카페,음식점 > 카페,http://place.map.kakao.com/971978748
200,517442171,결,서울 종로구 공평동 17,서울 종로구 우정국로 26,02-6370-5840,카페,음식점 > 카페,http://place.map.kakao.com/517442171
201,15815825,mk2,서울 종로구 창성동 122-2,서울 종로구 자하문로10길 17,,카페,음식점 > 카페,http://place.map.kakao.com/15815825
202,630916358,동백양과점 익선점,서울 종로구 익선동 166-73,서울 종로구 수표로28길 17-24,02-3144-0429,카페,음식점 > 카페 > 커피전문점,http://place.map.kakao.com/630916358
203,9544927,클럽에스프레소,서울 종로구 부암동 257-1,서울 종로구 창의문로 132,02-764-8719,카페,음식점 > 카페 > 커피전문점,http://place.map.kakao.com/9544927
204,1041123432,애즈라이크,서울 종로구 통의동 7-33,서울 종로구 효자로7길 23,02-722-9994,카페,음식점 > 카페,http://place.map.kakao.com/1041123432
205,1711700322,밀크홀1937 종로점,서울 종로구 종로2가 71-5,서울 종로구 종로 86-1,070-8801-1937,카페,음식점 > 카페,http://place.map.kakao.com/1711700322
206,1742096339,카페온화 익선점,서울 종로구 익선동 166-39,서울 종로구 수표로28길 21-10,,카페,음식점 > 카페,http://place.map.kakao.com/1742096339
207,855621421,호텔세느장,서울 종로구 낙원동 122,서울 종로구 돈화문로11길 28-5,02-766-8211,카페,음식점 > 카페 > 테마카페 > 디저트카페,http://place.map.kakao.com/855621421
208,26964717,코피티암커피 경복궁점,서울 종로구 통의동 35-29,서울 종로구 자하문로4길 7,070-7670-8837,카페,음식점 > 카페,http://place.map.kakao.com/26964717
209,8105618,커피스트,서울 종로구 신문로2가 1-335,서울 종로구 경희궁길 39,02-725-5557,카페,음식점 > 카페 > 커피전문점,http://place.map.kakao.com/8105618
210,8045991,카페이마,서울 종로구 세종로 139-8,서울 종로구 세종대로 152,02-2020-2088,카페,음식점 > 카페,http://place.map.kakao.com/8045991
211,212413668,내자상회,서울 종로구 내자동 142,서울 종로구 사직로10길 3,070-7755-0142,카페,음식점 > 카페,http://place.map.kakao.com/212413668
212,1182434312,제이히든하우스,서울 종로구 종로6가 94,서울 종로구 종로 269-4,02-744-1915,카페,음식점 > 카페,http://place.map.kakao.com/1182434312
213,1154343797,한옥찻집,서울 종로구 관훈동 64,서울 종로구 인사동12길 9,,카페,음식점 > 카페 > 전통찻집,http://place.map.kakao.com/1154343797
214,971978748,로코랩,서울 종로구 수송동 46-13,서울 종로구 율곡로4길 51,02-3210-3258,카페,음식점 > 카페,http://place.map.kakao.com/971978748
215,517442171,결,서울 종로구 공평동 17,서울 종로구 우정국로 26,02-6370-5840,카페,음식점 > 카페,http://place.map.kakao.com/517442171
216,15815825,mk2,서울 종로구 창성동 122-2,서울 종로구 자하문로10길 17,,카페,음식점 > 카페,http://place.map.kakao.com/15815825
217,630916358,동백양과점 익선점,서울 종로구 익선동 166-73,서울 종로구 수표로28길 17-24,02-3144-0429,카페,음식점 > 카페 > 커피전문점,http://place.map.kakao.com/630916358
218,9544927,클럽에스프레소,서울 종로구 부암동 257-1,서울 종로구 창의문로 132,02-764-8719,카페,음식점 > 카페 > 커피전문점,http://place.map.kakao.com/9544927
219,1041123432,애즈라이크,서울 종로구 통의동 7-33,서울 종로구 효자로7길 23,02-722-9994,카페,음식점 > 카페,http://place.map.kakao.com/1041123432
220,1711700322,밀크홀1937 종로점,서울 종로구 종로2가 71-5,서울 종로구 종로 86-1,070-8801-1937,카페,음식점 > 카페,http://place.map.kakao.com/1711700322
221,1742096339,카페온화 익선점,서울 종로구 익선동 166-39,서울 종로구 수표로28길 21-10,,카페,음식점 > 카페,http://place.map.kakao.com/1742096339
222,855621421,호텔세느장,서울 종로구 낙원동 122,서울 종로구 돈화문로11길 28-5,02-766-8211,카페,음식점 > 카페 > 테마카페 > 디저트카페,http://place.map.kakao.com/855621421
223,26964717,코피티암커피 경복궁점,서울 종로구 통의동 35-29,서울 종로구 자하문로4길 7,070-7670-8837,카페,음식점 > 카페,http://place.map.kakao.com/26964717
224,8105618,커피스트,서울 종로구 신문로2가 1-335,서울 종로구 경희궁길 39,02-725-5557,카페,음식점 > 카페 > 커피전문점,http://place.map.kakao.com/8105618
225,8045991,카페이마,서울 종로구 세종로 139-8,서울 종로구 세종대로 152,02-2020-2088,카페,음식점 > 카페,http://place.map.kakao.com/8045991
226,212413668,내자상회,서울 종로구 내자동 142,서울 종로구 사직로10길 3,070-7755-0142,카페,음식점 > 카페,http://place.map.kakao.com/212413668
227,1182434312,제이히든하우스,서울 종로구 종로6가 94,서울 종로구 종로 269-4,02-744-1915,카페,음식점 > 카페,http://place.map.kakao.com/1182434312
228,1154343797,한옥찻집,서울 종로구 관훈동 64,서울 종로구 인사동12길 9,,카페,음식점 > 카페 > 전통찻집,http://place.map.kakao.com/1154343797
229,971978748,로코랩,서울 종로구 수송동 46-13,서울 종로구 율곡로4길 51,02-3210-3258,카페,음식점 > 카페,http://place.map.kakao.com/971978748
230,517442171,결,서울 종로구 공평동 17,서울 종로구 우정국로 26,02-6370-5840,카페,음식점 > 카페,http://place.map.kakao.com/517442171
231,15815825,mk2,서울 종로구 창성동 122-2,서울 종로구 자하문로10길 17,,카페,음식점 > 카페,http://place.map.kakao.com/15815825
232,630916358,동백양과점 익선점,서울 종로구 익선동 166-73,서울 종로구 수표로28길 17-24,02-3144-0429,카페,음식점 > 카페 > 커피전문점,http://place.map.kakao.com/630916358
233,9544927,클럽에스프레소,서울 종로구 부암동 257-1,서울 종로구 창의문로 132,02-764-8719,카페,음식점 > 카페 > 커피전문점,http://place.map.kakao.com/9544927
234,1041123432,애즈라이크,서울 종로구 통의동 7-33,서울 종로구 효자로7길 23,02-722-9994,카페,음식점 > 카페,http://place.map.kakao.com/1041123432
235,1711700322,밀크홀1937 종로점,서울 종로구 종로2가 71-5,서울 종로구 종로 86-1,070-8801-1937,카페,음식점 > 카페,http://place.map.kakao.com/1711700322
236,1742096339,카페온화 익선점,서울 종로구 익선동 166-39,서울 종로구 수표로28길 21-10,,카페,음식점 > 카페,http://place.map.kakao.com/1742096339
237,855621421,호텔세느장,서울 종로구 낙원동 122,서울 종로구 돈화문로11길 28-5,02-766-8211,카페,음식점 > 카페 > 테마카페 > 디저트카페,http://place.map.kakao.com/855621421
238,26964717,코피티암커피 경복궁점,서울 종로구 통의동 35-29,서울 종로구 자하문로4길 7,070-7670-8837,카페,음식점 > 카페,http://place.map.kakao.com/26964717
239,8105618,커피스트,서울 종로구 신문로2가 1-335,서울 종로구 경희궁길 39,02-725-5557,카페,음식점 > 카페 > 커피전문점,http://place.map.kakao.com/8105618
240,8045991,카페이마,서울 종로구 세종로 139-8,서울 종로구 세종대로 152,02-2020-2088,카페,음식점 > 카페,http://place.map.kakao.com/8045991
241,212413668,내자상회,서울 종로구 내자동 142,서울 종로구 사직로10길 3,070-7755-0142,카페,음식점 > 카페,http://place.map.kakao.com/212413668
242,1182434312,제이히든하우스,서울 종로구 종로6가 94,서울 종로구 종로 269-4,02-744-1915,카페,음식점 > 카페,http://place.map.kakao.com/1182434312
243,1154343797,한옥찻집,서울 종로구 관훈동 64,서울 종로구 인사동12길 9,,카페,음식점 > 카페 > 전통찻집,http://place.map.kakao.com/1154343797
244,971978748,로코랩,서울 종로구 수송동 46-13,서울 종로구 율곡로4길 51,02-3210-3258,카페,음식점 > 카페,http://place.map.kakao.com/971978748
245,517442171,결,서울 종로구 공평동 17,서울 종로구 우정국로 26,02-6370-5840,카페,음식점 > 카페,http://place.map.kakao.com/517442171
246,15815825,mk2,서울 종로구 창성동 122-2,서울 종로구 자하문로10길 17,,카페,음식점 > 카페,http://place.map.kakao.com/15815825
247,630916358,동백양과점 익선점,서울 종로구 익선동 166-73,서울 종로구 수표로28길 17-24,02-3144-0429,카페,음식점 > 카페 > 커피전문점,http://place.map.kakao.com/630916358
248,9544927,클럽에스프레소,서울 종로구 부암동 257-1,서울 종로구 창의문로 132,02-764-8719,카페,음식점 > 카페 > 커피전문점,http://place.map.kakao.com/9544927
249,1041123432,애즈라이크,서울 종로구 통의동 7-33,서울 종로구 효자로7길 23,02-722-9994,카페,음식점 > 카페,http://place.map.kakao.com/1041123432
250,1711700322,밀크홀1937 종로점,서울 종로구 종로2가 71-5,서울 종로구 종로 86-1,070-8801-1937,카페,음식점 > 카페,http://place.map.kakao.com/1711700322
251,1742096339,카페온화 익선점,서울 종로구 익선동 166-39,서울 종로구 수표로28길 21-10,,카페,음식점 > 카페,http://place.map.kakao.com/1742096339
252,855621421,호텔세느장,서울 종로구 낙원동 122,서울 종로구 돈화문로11길 28-5,02-766-8211,카페,음식점 > 카페 > 테마카페 > 디저트카페,http://place.map.kakao.com/855621421
253,26964717,코피티암커피 경복궁점,서울 종로구 통의동 35-29,서울 종로구 자하문로4길 7,070-7670-8837,카페,음식점 > 카페,http://place.map.kakao.com/26964717
254,8105618,커피스트,서울 종로구 신문로2가 1-335,서울 종로구 경희궁길 39,02-725-5557,카페,음식점 > 카페 > 커피전문점,http://place.map.kakao.com/8105618
255,8045991,카페이마,서울 종로구 세종로 139-8,서울 종로구 세종대로 152,02-2020-2088,카페,음식점 > 카페,http://place.map.kakao.com/8045991
256,212413668,내자상회,서울 종로구 내자동 142,서울 종로구 사직로10길 3,070-7755-0142,카페,음식점 > 카페,http://place.map.kakao.com/212413668
257,1182434312,제이히든하우스,서울 종로구 종로6가 94,서울 종로구 종로 269-4,02-744-1915,카페,음식점 > 카페,http://place.map.kakao.com/1182434312
258,1154343797,한옥찻집,서울 종로구 관훈동 64,서울 종로구 인사동12길 9,,카페,음식점 > 카페 > 전통찻집,http://place.map.kakao.com/1154343797
259,971978748,로코랩,서울 종로구 수송동 46-13,서울 종로구 율곡로4길 51,02-3210-3258,카페,음식점 > 카페,http://place.map.kakao.com/971978748
260,517442171,결,서울 종로구 공평동 17,서울 종로구 우정국로 26,02-6370-5840,카페,음식점 > 카페,http://place.map.kakao.com/517442171
261,15815825,mk2,서울 종로구 창성동 122-2,서울 종로구 자하문로10길 17,,카페,음식점 > 카페,http://place.map.kakao.com/15815825
262,630916358,동백양과점 익선점,서울 종로구 익선동 166-73,서울 종로구 수표로28길 17-24,02-3144-0429,카페,음식점 > 카페 > 커피전문점,http://place.map.kakao.com/630916358
263,9544927,클럽에스프레소,서울 종로구 부암동 257-1,서울 종로구 창의문로 132,02-764-8719,카페,음식점 > 카페 > 커피전문점,http://place.map.kakao.com/9544927
264,1041123432,애즈라이크,서울 종로구 통의동 7-33,서울 종로구 효자로7길 23,02-722-9994,카페,음식점 > 카페,http://place.map.kakao.com/1041123432
265,1711700322,밀크홀1937 종로점,서울 종로구 종로2가 71-5,서울 종로구 종로 86-1,070-8801-1937,카페,음식점 > 카페,http://place.map.kakao.com/1711700322
266,1742096339,카페온화 익선점,서울 종로구 익선동 166-39,서울 종로구 수표로28길 21-10,,카페,음식점 > 카페,http://place.map.kakao.com/1742096339
267,855621421,호텔세느장,서울 종로구 낙원동 122,서울 종로구 돈화문로11길 28-5,02-766-8211,카페,음식점 > 카페 > 테마카페 > 디저트카페,http://place.map.kakao.com/855621421
268,26964717,코피티암커피 경복궁점,서울 종로구 통의동 35-29,서울 종로구 자하문로4길 7,070-7670-8837,카페,음식점 > 카페,http://place.map.kakao.com/26964717
269,8105618,커피스트,서울 종로구 신문로2가 1-335,서울 종로구 경희궁길 39,02-725-5557,카페,음식점 > 카페 > 커피전문점,http://place.map.kakao.com/8105618
270,8045991,카페이마,서울 종로구 세종로 139-8,서울 종로구 세종대로 152,02-2020-2088,카페,음식점 > 카페,http://place.map.kakao.com/8045991
271,212413668,내자상회,서울 종로구 내자동 142,서울 종로구 사직로10길 3,070-7755-0142,카페,음식점 > 카페,http://place.map.kakao.com/212413668
272,1182434312,제이히든하우스,서울 종로구 종로6가 94,서울 종로구 종로 269-4,02-744-1915,카페,음식점 > 카페,http://place.map.kakao.com/1182434312
273,1154343797,한옥찻집,서울 종로구 관훈동 64,서울 종로구 인사동12길 9,,카페,음식점 > 카페 > 전통찻집,http://place.map.kakao.com/1154343797
274,971978748,로코랩,서울 종로구 수송동 46-13,서울 종로구 율곡로4길 51,02-3210-3258,카페,음식점 > 카페,http://place.map.kakao.com/971978748
275,517442171,결,서울 종로구 공평동 17,서울 종로구 우정국로 26,02-6370-5840,카페,음식점 > 카페,http://place.map.kakao.com/517442171
276,15815825,mk2,서울 종로구 창성동 122-2,서울 종로구 자하문로10길 17,,카페,음식점 > 카페,http://place.map.kakao.com/15815825
277,630916358,동백양과점 익선점,서울 종로구 익선동 166-73,서울 종로구 수표로28길 17-24,02-3144-0429,카페,음식점 > 카페 > 커피전문점,http://place.map.kakao.com/630916358
278,9544927,클럽에스프레소,서울 종로구 부암동 257-1,서울 종로구 창의문로 132,02-764-8719,카페,음식점 > 카페 > 커피전문점,http://place.map.kakao.com/9544927
279,1041123432,애즈라이크,서울 종로구 통의동 7-33,서울 종로구 효자로7길 23,02-722-9994,카페,음식점 > 카페,http://place.map.kakao.com/1041123432
280,1711700322,밀크홀1937 종로점,서울 종로구 종로2가 71-5,서울 종로구 종로 86-1,070-8801-1937,카페,음식점 > 카페,http://place.map.kakao.com/1711700322
281,1742096339,카페온화 익선점,서울 종로구 익선동 166-39,서울 종로구 수표로28길 21-10,,카페,음식점 > 카페,http://place.map.kakao.com/1742096339
282,855621421,호텔세느장,서울 종로구 낙원동 122,서울 종로구 돈화문로11길 28-5,02-766-8211,카페,음식점 > 카페 > 테마카페 > 디저트카페,http://place.map.kakao.com/855621421
283,26964717,코피티암커피 경복궁점,서울 종로구 통의동 35-29,서울 종로구 자하문로4길 7,070-7670-8837,카페,음식점 > 카페,http://place.map.kakao.com/26964717
284,8105618,커피스트,서울 종로구 신문로2가 1-335,서울 종로구 경희궁길 39,02-725-5557,카페,음식점 > 카페 > 커피전문점,http://place.map.kakao.com/8105618
285,8045991,카페이마,서울 종로구 세종로 139-8,서울 종로구 세종대로 152,02-2020-2088,카페,음식점 > 카페,http://place.map.kakao.com/8045991
286,212413668,내자상회,서울 종로구 내자동 142,서울 종로구 사직로10길 3,070-7755-0142,카페,음식점 > 카페,http://place.map.kakao.com/212413668
287,1182434312,제이히든하우스,서울 종로구 종로6가 94,서울 종로구 종로 269-4,02-744-1915,카페,음식점 > 카페,http://place.map.kakao.com/1182434312
288,1154343797,한옥찻집,서울 종로구 관훈동 64,서울 종로구 인사동12길 9,,카페,음식점 > 카페 > 전통찻집,http://place.map.kakao.com/1154343797
289,971978748,로코랩,서울 종로구 수송동 46-13,서울 종로구 율곡로4길 51,02-3210-3258,카페,음식점 > 카페,http://place.map.kakao.com/971978748
290,517442171,결,서울 종로구 공평동 17,서울 종로구 우정국로 26,02-6370-5840,카페,음식점 > 카페,http://place.map.kakao.com/517442171
291,15815825,mk2,서울 종로구 창성동 122-2,서울 종로구 자하문로10길 17,,카페,음식점 > 카페,http://place.map.kakao.com/15815825
292,630916358,동백양과점 익선점,서울 종로구 익선동 166-73,서울 종로구 수표로28길 17-24,02-3144-0429,카페,음식점 > 카페 > 커피전문점,http://place.map.kakao.com/630916358
293,9544927,클럽에스프레소,서울 종로구 부암동 257-1,서울 종로구 창의문로 132,02-764-8719,카페,음식점 > 카페 > 커피전문점,http://place.map.kakao.com/9544927
294,1041123432,애즈라이크,서울 종로구 통의동 7-33,서울 종로구 효자로7길 23,02-722-9994,카페,음식점 > 카페,http://place.map.kakao.com/1041123432
295,1711700322,밀크홀1937 종로점,서울 종로구 종로2가 71-5,서울 종로구 종로 86-1,070-8801-1937,카페,음식점 > 카페,http://place.map.kakao.com/1711700322
296,1742096339,카페온화 익선점,서울 종로구 익선동 166-39,서울 종로구 수표로28길 21-10,,카페,음식점 > 카페,http://place.map.kakao.com/1742096339
297,855621421,호텔세느장,서울 종로구 낙원동 122,서울 종로구 돈화문로11길 28-5,02-766-8211,카페,음식점 > 카페 > 테마카페 > 디저트카페,http://place.map.kakao.com/855621421
298,26964717,코피티암커피 경복궁점,서울 종로구 통의동 35-29,서울 종로구 자하문로4길 7,070-7670-8837,카페,음식점 > 카페,http://place.map.kakao.com/26964717
299,8105618,커피스트,서울 종로구 신문로2가 1-335,서울 종로구 경희궁길 39,02-725-5557,카페,음식점 > 카페 > 커피전문점,http://place.map.kakao.com/8105618
300,8045991,카페이마,서울 종로구 세종로 139-8,서울 종로구 세종대로 152,02-2020-2088,카페,음식점 > 카페,http://place.map.kakao.com/8045991
301,212413668,내자상회,서울 종로구 내자동 142,서울 종로구 사직로10길 3,070-7755-0142,카페,음식점 > 카페,http://place.map.kakao.com/212413668
302,1182434312,제이히든하우스,서울 종로구 종로6가 94,서울 종로구 종로 269-4,02-744-1915,카페,음식점 > 카페,http://place.map.kakao.com/1182434312
303,1154343797,한옥찻집,서울 종로구 관훈동 64,서울 종로구 인사동12길 9,,카페,음식점 > 카페 > 전통찻집,http://place.map.kakao.com/1154343797
304,971978748,로코랩,서울 종로구 수송동 46-13,서울 종로구 율곡로4길 51,02-3210-3258,카페,음식점 > 카페,http://place.map.kakao.com/971978748
305,517442171,결,서울 종로구 공평동 17,서울 종로구 우정국로 26,02-6370-5840,카페,음식점 > 카페,http://place.map.kakao.com/517442171
306,15815825,mk2,서울 종로구 창성동 122-2,서울 종로구 자하문로10길 17,,카페,음식점 > 카페,http://place.map.kakao.com/15815825
307,630916358,동백양과점 익선점,서울 종로구 익선동 166-73,서울 종로구 수표로28길 17-24,02-3144-0429,카페,음식점 > 카페 > 커피전문점,http://place.map.kakao.com/630916358
308,9544927,클럽에스프레소,서울 종로구 부암동 257-1,서울 종로구 창의문로 132,02-764-8719,카페,음식점 > 카페 > 커피전문점,http://place.map.kakao.com/9544927
309,1041123432,애즈라이크,서울 종로구 통의동 7-33,서울 종로구 효자로7길 23,02-722-9994,카페,음식점 > 카페,http://place.map.kakao.com/1041123432
310,1711700322,밀크홀1937 종로점,서울 종로구 종로2가 71-5,서울 종로구 종로 86-1,070-8801-1937,카페,음식점 > 카페,http://place.map.kakao.com/1711700322
311,1742096339,카페온화 익선점,서울 종로구 익선동 166-39,서울 종로구 수표로28길 21-10,,카페,음식점 > 카페,http://place.map.kakao.com/1742096339
312,855621421,호텔세느장,서울 종로구 낙원동 122,서울 종로구 돈화문로11길 28-5,02-766-8211,카페,음식점 > 카페 > 테마카페 > 디저트카페,http://place.map.kakao.com/855621421
313,26964717,코피티암커피 경복궁점,서울 종로구 통의동 35-29,서울 종로구 자하문로4길 7,070-7670-8837,카페,음식점 > 카페,http://place.map.kakao.com/26964717
314,8105618,커피스트,서울 종로구 신문로2가 1-335,서울 종로구 경희궁길 39,02-725-5557,카페,음식점 > 카페 > 커피전문점,http://place.map.kakao.com/8105618
315,8045991,카페이마,서울 종로구 세종로 139-8,서울 종로구 세종대로 152,02-2020-2088,카페,음식점 > 카페,http://place.map.kakao.com/8045991
316,212413668,내자상회,서울 종로구 내자동 142,서울 종로구 사직로10길 3,070-7755-0142,카페,음식점 > 카페,http://place.map.kakao.com/212413668
317,1182434312,제이히든하우스,서울 종로구 종로6가 94,서울 종로구 종로 269-4,02-744-1915,카페,음식점 > 카페,http://place.map.kakao.com/1182434312
318,1154343797,한옥찻집,서울 종로구 관훈동 64,서울 종로구 인사동12길 9,,카페,음식점 > 카페 > 전통찻집,http://place.map.kakao.com/1154343797
319,971978748,로코랩,서울 종로구 수송동 46-13,서울 종로구 율곡로4길 51,02-3210-3258,카페,음식점 > 카페,http://place.map.kakao.com/971978748
320,517442171,결,서울 종로구 공평동 17,서울 종로구 우정국로 26,02-6370-5840,카페,음식점 > 카페,http://place.map.kakao.com/517442171
321,15815825,mk2,서울 종로구 창성동 122-2,서울 종로구 자하문로10길 17,,카페,음식점 > 카페,http://place.map.kakao.com/15815825
322,630916358,동백양과점 익선점,서울 종로구 익선동 166-73,서울 종로구 수표로28길 17-24,02-3144-0429,카페,음식점 > 카페 > 커피전문점,http://place.map.kakao.com/630916358
323,9544927,클럽에스프레소,서울 종로구 부암동 257-1,서울 종로구 창의문로 132,02-764-8719,카페,음식점 > 카페 > 커피전문점,http://place.map.kakao.com/9544927
324,1041123432,애즈라이크,서울 종로구 통의동 7-33,서울 종로구 효자로7길 23,02-722-9994,카페,음식점 > 카페,http://place.map.kakao.com/1041123432
325,1711700322,밀크홀1937 종로점,서울 종로구 종로2가 71-5,서울 종로구 종로 86-1,070-8801-1937,카페,음식점 > 카페,http://place.map.kakao.com/1711700322
326,1742096339,카페온화 익선점,서울 종로구 익선동 166-39,서울 종로구 수표로28길 21-10,,카페,음식점 > 카페,http://place.map.kakao.com/1742096339
327,855621421,호텔세느장,서울 종로구 낙원동 122,서울 종로구 돈화문로11길 28-5,02-766-8211,카페,음식점 > 카페 > 테마카페 > 디저트카페,http://place.map.kakao.com/855621421
328,26964717,코피티암커피 경복궁점,서울 종로구 통의동 35-29,서울 종로구 자하문로4길 7,070-7670-8837,카페,음식점 > 카페,http://place.map.kakao.com/26964717
329,8105618,커피스트,서울 종로구 신문로2가 1-335,서울 종로구 경희궁길 39,02-725-5557,카페,음식점 > 카페 > 커피전문점,http://place.map.kakao.com/8105618
330,8045991,카페이마,서울 종로구 세종로 139-8,서울 종로구 세종대로 152,02-2020-2088,카페,음식점 > 카페,http://place.map.kakao.com/8045991
331,212413668,내자상회,서울 종로구 내자동 142,서울 종로구 사직로10길 3,070-7755-0142,카페,음식점 > 카페,http://place.map.kakao.com/212413668
332,1182434312,제이히든하우스,서울 종로구 종로6가 94,서울 종로구 종로 269-4,02-744-1915,카페,음식점 > 카페,http://place.map.kakao.com/1182434312
333,1154343797,한옥찻집,서울 종로구 관훈동 64,서울 종로구 인사동12길 9,,카페,음식점 > 카페 > 전통찻집,http://place.map.kakao.com/1154343797
334,971978748,로코랩,서울 종로구 수송동 46-13,서울 종로구 율곡로4길 51,02-3210-3258,카페,음식점 > 카페,http://place.map.kakao.com/971978748
335,517442171,결,서울 종로구 공평동 17,서울 종로구 우정국로 26,02-6370-5840,카페,음식점 > 카페,http://place.map.kakao.com/517442171
336,15815825,mk2,서울 종로구 창성동 122-2,서울 종로구 자하문로10길 17,,카페,음식점 > 카페,http://place.map.kakao.com/15815825
337,630916358,동백양과점 익선점,서울 종로구 익선동 166-73,서울 종로구 수표로28길 17-24,02-3144-0429,카페,음식점 > 카페 > 커피전문점,http://place.map.kakao.com/630916358
338,9544927,클럽에스프레소,서울 종로구 부암동 257-1,서울 종로구 창의문로 132,02-764-8719,카페,음식점 > 카페 > 커피전문점,http://place.map.kakao.com/9544927
339,1041123432,애즈라이크,서울 종로구 통의동 7-33,서울 종로구 효자로7길 23,02-722-9994,카페,음식점 > 카페,http://place.map.kakao.com/1041123432
340,1711700322,밀크홀1937 종로점,서울 종로구 종로2가 71-5,서울 종로구 종로 86-1,070-8801-1937,카페,음식점 > 카페,http://place.map.kakao.com/1711700322
341,1742096339,카페온화 익선점,서울 종로구 익선동 166-39,서울 종로구 수표로28길 21-10,,카페,음식점 > 카페,http://place.map.kakao.com/1742096339
342,855621421,호텔세느장,서울 종로구 낙원동 122,서울 종로구 돈화문로11길 28-5,02-766-8211,카페,음식점 > 카페 > 테마카페 > 디저트카페,http://place.map.kakao.com/855621421
343,26964717,코피티암커피 경복궁점,서울 종로구 통의동 35-29,서울 종로구 자하문로4길 7,070-7670-8837,카페,음식점 > 카페,http://place.map.kakao.com/26964717
344,8105618,커피스트,서울 종로구 신문로2가 1-335,서울 종로구 경희궁길 39,02-725-5557,카페,음식점 > 카페 > 커피전문점,http://place.map.kakao.com/8105618
345,8045991,카페이마,서울 종로구 세종로 139-8,서울 종로구 세종대로 152,02-2020-2088,카페,음식점 > 카페,http://place.map.kakao.com/8045991
346,212413668,내자상회,서울 종로구 내자동 142,서울 종로구 사직로10길 3,070-7755-0142,카페,음식점 > 카페,http://place.map.kakao.com/212413668
347,1182434312,제이히든하우스,서울 종로구 종로6가 94,서울 종로구 종로 269-4,02-744-1915,카페,음식점 > 카페,http://place.map.kakao.com/1182434312
348,1154343797,한옥찻집,서울 종로구 관훈동 64,서울 종로구 인사동12길 9,,카페,음식점 > 카페 > 전통찻집,http://place.map.kakao.com/1154343797
349,971978748,로코랩,서울 종로구 수송동 46-13,서울 종로구 율곡로4길 51,02-3210-3258,카페,음식점 > 카페,http://place.map.kakao.com/971978748
350,517442171,결,서울 종로구 공평동 17,서울 종로구 우정국로 26,02-6370-5840,카페,음식점 > 카페,http://place.map.kakao.com/517442171
351,15815825,mk2,서울 종로구 창성동 122-2,서울 종로구 자하문로10길 17,,카페,음식점 > 카페,http://place.map.kakao.com/15815825
352,630916358,동백양과점 익선점,서울 종로구 익선동 166-73,서울 종로구 수표로28길 17-24,02-3144-0429,카페,음식점 > 카페 > 커피전문점,http://place.map.kakao.com/630916358
353,9544927,클럽에스프레소,서울 종로구 부암동 257-1,서울 종로구 창의문로 132,02-764-8719,카페,음식점 > 카페 > 커피전문점,http://place.map.kakao.com/9544927
354,1041123432,애즈라이크,서울 종로구 통의동 7-33,서울 종로구 효자로7길 23,02-722-9994,카페,음식점 > 카페,http://place.map.kakao.com/1041123432
355,1711700322,밀크홀1937 종로점,서울 종로구 종로2가 71-5,서울 종로구 종로 86-1,070-8801-1937,카페,음식점 > 카페,http://place.map.kakao.com/1711700322
356,1742096339,카페온화 익선점,서울 종로구 익선동 166-39,서울 종로구 수표로28길 21-10,,카페,음식점 > 카페,http://place.map.kakao.com/1742096339
357,855621421,호텔세느장,서울 종로구 낙원동 122,서울 종로구 돈화문로11길 28-5,02-766-8211,카페,음식점 > 카페 > 테마카페 > 디저트카페,http://place.map.kakao.com/855621421
358,26964717,코피티암커피 경복궁점,서울 종로구 통의동 35-29,서울 종로구 자하문로4길 7,070-7670-8837,카페,음식점 > 카페,http://place.map.kakao.com/26964717
359,8105618,커피스트,서울 종로구 신문로2가 1-335,서울 종로구 경희궁길 39,02-725-5557,카페,음식점 > 카페 > 커피전문점,http://place.map.kakao.com/8105618
360,8045991,카페이마,서울 종로구 세종로 139-8,서울 종로구 세종대로 152,02-2020-2088,카페,음식점 > 카페,http://place.map.kakao.com/8045991
361,212413668,내자상회,서울 종로구 내자동 142,서울 종로구 사직로10길 3,070-7755-0142,카페,음식점 > 카페,http://place.map.kakao.com/212413668
362,1182434312,제이히든하우스,서울 종로구 종로6가 94,서울 종로구 종로 269-4,02-744-1915,카페,음식점 > 카페,http://place.map.kakao.com/1182434312
363,1154343797,한옥찻집,서울 종로구 관훈동 64,서울 종로구 인사동12길 9,,카페,음식점 > 카페 > 전통찻집,http://place.map.kakao.com/1154343797
364,971978748,로코랩,서울 종로구 수송동 46-13,서울 종로구 율곡로4길 51,02-3210-3258,카페,음식점 > 카페,http://place.map.kakao.com/971978748
365,517442171,결,서울 종로구 공평동 17,서울 종로구 우정국로 26,02-6370-5840,카페,음식점 > 카페,http://place.map.kakao.com/517442171
366,15815825,mk2,서울 종로구 창성동 122-2,서울 종로구 자하문로10길 17,,카페,음식점 > 카페,http://place.map.kakao.com/15815825
367,630916358,동백양과점 익선점,서울 종로구 익선동 166-73,서울 종로구 수표로28길 17-24,02-3144-0429,카페,음식점 > 카페 > 커피전문점,http://place.map.kakao.com/630916358
368,9544927,클럽에스프레소,서울 종로구 부암동 257-1,서울 종로구 창의문로 132,02-764-8719,카페,음식점 > 카페 > 커피전문점,http://place.map.kakao.com/9544927
369,1041123432,애즈라이크,서울 종로구 통의동 7-33,서울 종로구 효자로7길 23,02-722-9994,카페,음식점 > 카페,http://place.map.kakao.com/1041123432
370,1711700322,밀크홀1937 종로점,서울 종로구 종로2가 71-5,서울 종로구 종로 86-1,070-8801-1937,카페,음식점 > 카페,http://place.map.kakao.com/1711700322
371,1742096339,카페온화 익선점,서울 종로구 익선동 166-39,서울 종로구 수표로28길 21-10,,카페,음식점 > 카페,http://place.map.kakao.com/1742096339
372,855621421,호텔세느장,서울 종로구 낙원동 122,서울 종로구 돈화문로11길 28-5,02-766-8211,카페,음식점 > 카페 > 테마카페 > 디저트카페,http://place.map.kakao.com/855621421
373,26964717,코피티암커피 경복궁점,서울 종로구 통의동 35-29,서울 종로구 자하문로4길 7,070-7670-8837,카페,음식점 > 카페,http://place.map.kakao.com/26964717
374,8105618,커피스트,서울 종로구 신문로2가 1-335,서울 종로구 경희궁길 39,02-725-5557,카페,음식점 > 카페 > 커피전문점,http://place.map.kakao.com/8105618
375,8045991,카페이마,서울 종로구 세종로 139-8,서울 종로구 세종대로 152,02-2020-2088,카페,음식점 > 카페,http://place.map.kakao.com/8045991
376,212413668,내자상회,서울 종로구 내자동 142,서울 종로구 사직로10길 3,070-7755-0142,카페,음식점 > 카페,http://place.map.kakao.com/212413668
377,1182434312,제이히든하우스,서울 종로구 종로6가 94,서울 종로구 종로 269-4,02-744-1915,카페,음식점 > 카페,http://place.map.kakao.com/1182434312
378,1154343797,한옥찻집,서울 종로구 관훈동 64,서울 종로구 인사동12길 9,,카페,음식점 > 카페 > 전통찻집,http://place.map.kakao.com/1154343797
379,971978748,로코랩,서울 종로구 수송동 46-13,서울 종로구 율곡로4길 51,02-3210-3258,카페,음식점 > 카페,http://place.map.kakao.com/971978748
380,517442171,결,서울 종로구 공평동 17,서울 종로구 우정국로 26,02-6370-5840,카페,음식점 > 카페,http://place.map.kakao.com/517442171
381,15815825,mk2,서울 종로구 창성동 122-2,서울 종로구 자하문로10길 17,,카페,음식점 > 카페,http://place.map.kakao.com/15815825
382,630916358,동백양과점 익선점,서울 종로구 익선동 166-73,서울 종로구 수표로28길 17-24,02-3144-0429,카페,음식점 > 카페 > 커피전문점,http://place.map.kakao.com/630916358
383,9544927,클럽에스프레소,서울 종로구 부암동 257-1,서울 종로구 창의문로 132,02-764-8719,카페,음식점 > 카페 > 커피전문점,http://place.map.kakao.com/9544927
384,1041123432,애즈라이크,서울 종로구 통의동 7-33,서울 종로구 효자로7길 23,02-722-9994,카페,음식점 > 카페,http://place.map.kakao.com/1041123432
385,1711700322,밀크홀1937 종로점,서울 종로구 종로2가 71-5,서울 종로구 종로 86-1,070-8801-1937,카페,음식점 > 카페,http://place.map.kakao.com/1711700322
386,1742096339,카페온화 익선점,서울 종로구 익선동 166-39,서울 종로구 수표로28길 21-10,,카페,음식점 > 카페,http://place.map.kakao.com/1742096339
387,855621421,호텔세느장,서울 종로구 낙원동 122,서울 종로구 돈화문로11길 28-5,02-766-8211,카페,음식점 > 카페 > 테마카페 > 디저트카페,http://place.map.kakao.com/855621421
388,26964717,코피티암커피 경복궁점,서울 종로구 통의동 35-29,서울 종로구 자하문로4길 7,070-7670-8837,카페,음식점 > 카페,http://place.map.kakao.com/26964717
389,8105618,커피스트,서울 종로구 신문로2가 1-335,서울 종로구 경희궁길 39,02-725-5557,카페,음식점 > 카페 > 커피전문점,http://place.map.kakao.com/8105618
390,8045991,카페이마,서울 종로구 세종로 139-8,서울 종로구 세종대로 152,02-2020-2088,카페,음식점 > 카페,http://place.map.kakao.com/8045991
391,212413668,내자상회,서울 종로구 내자동 142,서울 종로구 사직로10길 3,070-7755-0142,카페,음식점 > 카페,http://place.map.kakao.com/212413668
392,1182434312,제이히든하우스,서울 종로구 종로6가 94,서울 종로구 종로 269-4,02-744-1915,카페,음식점 > 카페,http://place.map.kakao.com/1182434312
393,1154343797,한옥찻집,서울 종로구 관훈동 64,서울 종로구 인사동12길 9,,카페,음식점 > 카페 > 전통찻집,http://place.map.kakao.com/1154343797
394,971978748,로코랩,서울 종로구 수송동 46-13,서울 종로구 율곡로4길 51,02-3210-3258,카페,음식점 > 카페,http://place.map.kakao.com/971978748
395,517442171,결,서울 종로구 공평동 17,서울 종로구 우정국로 26,02-6370-5840,카페,음식점 > 카페,http://place.map.kakao.com/517442171
396,15815825,mk2,서울 종로구 창성동 122-2,서울 종로구 자하문로10길 17,,카페,음식점 > 카페,http://place.map.kakao.com/15815825
397,630916358,동백양과점 익선점,서울 종로구 익선동 166-73,서울 종로구 수표로28길 17-24,02-3144-0429,카페,음식점 > 카페 > 커피전문점,http://place.map.kakao.com/630916358
398,9544927,클럽에스프레소,서울 종로구 부암동 257-1,서울 종로구 창의문로 132,02-764-8719,카페,음식점 > 카페 > 커피전문점,http://place.map.kakao.com/9544927
399,1041123432,애즈라이크,서울 종로구 통의동 7-33,서울 종로구 효자로7길 23,02-722-9994,카페,음식점 > 카페,http://place.map.kakao.com/1041123432
400,1711700322,밀크홀1937 종로점,서울 종로구 종로2가 71-5,서울 종로구 종로 86-1,070-8801-1937,카페,음식점 > 카페,http://place.map.kakao.com/1711700322
401,1742096339,카페온화 익선점,서울 종로구 익선동 166-39,서울 종로구 수표로28길 21-10,,카페,음식점 > 카페,http://place.map.kakao.com/1742096339
402,855621421,호텔세느장,서울 종로구 낙원동 122,서울 종로구 돈화문로11길 28-5,02-766-8211,카페,음식점 > 카페 > 테마카페 > 디저트카페,http://place.map.kakao.com/855621421
403,26964717,코피티암커피 경복궁점,서울 종로구 통의동 35-29,서울 종로구 자하문로4길 7,070-7670-8837,카페,음식점 > 카페,http://place.map.kakao.com/26964717
404,8105618,커피스트,서울 종로구 신문로2가 1-335,서울 종로구 경희궁길 39,02-725-5557,카페,음식점 > 카페 > 커피전문점,http://place.map.kakao.com/8105618
405,8045991,카페이마,서울 종로구 세종로 139-8,서울 종로구 세종대로 152,02-2020-2088,카페,음식점 > 카페,http://place.map.kakao.com/8045991
406,212413668,내자상회,서울 종로구 내자동 142,서울 종로구 사직로10길 3,070-7755-0142,카페,음식점 > 카페,http://place.map.kakao.com/212413668
407,1182434312,제이히든하우스,서울 종로구 종로6가 94,서울 종로구 종로 269-4,02-744-1915,카페,음식점 > 카페,http://place.map.kakao.com/1182434312
408,1154343797,한옥찻집,서울 종로구 관훈동 64,서울 종로구 인사동12길 9,,카페,음식점 > 카페 > 전통찻집,http://place.map.kakao.com/1154343797
409,971978748,로코랩,서울 종로구 수송동 46-13,서울 종로구 율곡로4길 51,02-3210-3258,카페,음식점 > 카페,http://place.map.kakao.com/971978748
410,517442171,결,서울 종로구 공평동 17,서울 종로구 우정국로 26,02-6370-5840,카페,음식점 > 카페,http://place.map.kakao.com/517442171
411,15815825,mk2,서울 종로구 창성동 122-2,서울 종로구 자하문로10길 17,,카페,음식점 > 카페,http://place.map.kakao.com/15815825
412,630916358,동백양과점 익선점,서울 종로구 익선동 166-73,서울 종로구 수표로28길 17-24,02-3144-0429,카페,음식점 > 카페 > 커피전문점,http://place.map.kakao.com/630916358
413,9544927,클럽에스프레소,서울 종로구 부암동 257-1,서울 종로구 창의문로 132,02-764-8719,카페,음식점 > 카페 > 커피전문점,http://place.map.kakao.com/9544927
414,1041123432,애즈라이크,서울 종로구 통의동 7-33,서울 종로구 효자로7길 23,02-722-9994,카페,음식점 > 카페,http://place.map.kakao.com/1041123432
415,1711700322,밀크홀1937 종로점,서울 종로구 종로2가 71-5,서울 종로구 종로 86-1,070-8801-1937,카페,음식점 > 카페,http://place.map.kakao.com/1711700322
416,1742096339,카페온화 익선점,서울 종로구 익선동 166-39,서울 종로구 수표로28길 21-10,,카페,음식점 > 카페,http://place.map.kakao.com/1742096339
417,855621421,호텔세느장,서울 종로구 낙원동 122,서울 종로구 돈화문로11길 28-5,02-766-8211,카페,음식점 > 카페 > 테마카페 > 디저트카페,http://place.map.kakao.com/855621421
418,26964717,코피티암커피 경복궁점,서울 종로구 통의동 35-29,서울 종로구 자하문로4길 7,070-7670-8837,카페,음식점 > 카페,http://place.map.kakao.com/26964717
419,8105618,커피스트,서울 종로구 신문로2가 1-335,서울 종로구 경희궁길 39,02-725-5557,카페,음식점 > 카페 > 커피전문점,http://place.map.kakao.com/8105618
420,8045991,카페이마,서울 종로구 세종로 139-8,서울 종로구 세종대로 152,02-2020-2088,카페,음식점 > 카페,http://place.map.kakao.com/8045991
421,212413668,내자상회,서울 종로구 내자동 142,서울 종로구 사직로10길 3,070-7755-0142,카페,음식점 > 카페,http://place.map.kakao.com/212413668
422,1182434312,제이히든하우스,서울 종로구 종로6가 94,서울 종로구 종로 269-4,02-744-1915,카페,음식점 > 카페,http://place.map.kakao.com/1182434312
423,1154343797,한옥찻집,서울 종로구 관훈동 64,서울 종로구 인사동12길 9,,카페,음식점 > 카페 > 전통찻집,http://place.map.kakao.com/1154343797
424,971978748,로코랩,서울 종로구 수송동 46-13,서울 종로구 율곡로4길 51,02-3210-3258,카페,음식점 > 카페,http://place.map.kakao.com/971978748
425,517442171,결,서울 종로구 공평동 17,서울 종로구 우정국로 26,02-6370-5840,카페,음식점 > 카페,http://place.map.kakao.com/517442171
426,15815825,mk2,서울 종로구 창성동 122-2,서울 종로구 자하문로10길 17,,카페,음식점 > 카페,http://place.map.kakao.com/15815825
427,630916358,동백양과점 익선점,서울 종로구 익선동 166-73,서울 종로구 수표로28길 17-24,02-3144-0429,카페,음식점 > 카페 > 커피전문점,http://place.map.kakao.com/630916358
428,9544927,클럽에스프레소,서울 종로구 부암동 257-1,서울 종로구 창의문로 132,02-764-8719,카페,음식점 > 카페 > 커피전문점,http://place.map.kakao.com/9544927
429,1041123432,애즈라이크,서울 종로구 통의동 7-33,서울 종로구 효자로7길 23,02-722-9994,카페,음식점 > 카페,http://place.map.kakao.com/1041123432
430,1711700322,밀크홀1937 종로점,서울 종로구 종로2가 71-5,서울 종로구 종로 86-1,070-8801-1937,카페,음식점 > 카페,http://place.map.kakao.com/1711700322
431,1742096339,카페온화 익선점,서울 종로구 익선동 166-39,서울 종로구 수표로28길 21-10,,카페,음식점 > 카페,http://place.map.kakao.com/1742096339
432,855621421,호텔세느장,서울 종로구 낙원동 122,서울 종로구 돈화문로11길 28-5,02-766-8211,카페,음식점 > 카페 > 테마카페 > 디저트카페,http://place.map.kakao.com/855621421
433,26964717,코피티암커피 경복궁점,서울 종로구 통의동 35-29,서울 종로구 자하문로4길 7,070-7670-8837,카페,음식점 > 카페,http://place.map.kakao.com/26964717
434,8105618,커피스트,서울 종로구 신문로2가 1-335,서울 종로구 경희궁길 39,02-725-5557,카페,음식점 > 카페 > 커피전문점,http://place.map.kakao.com/8105618
435,8045991,카페이마,서울 종로구 세종로 139-8,서울 종로구 세종대로 152,02-2020-2088,카페,음식점 > 카페,http://place.map.kakao.com/8045991
436,212413668,내자상회,서울 종로구 내자동 142,서울 종로구 사직로10길 3,070-7755-0142,카페,음식점 > 카페,http://place.map.kakao.com/212413668
437,1182434312,제이히든하우스,서울 종로구 종로6가 94,서울 종로구 종로 269-4,02-744-1915,카페,음식점 > 카페,http://place.map.kakao.com/1182434312
438,1154343797,한옥찻집,서울 종로구 관훈동 64,서울 종로구 인사동12길 9,,카페,음식점 > 카페 > 전통찻집,http://place.map.kakao.com/1154343797
439,971978748,로코랩,서울 종로구 수송동 46-13,서울 종로구 율곡로4길 51,02-3210-3258,카페,음식점 > 카페,http://place.map.kakao.com/971978748
440,517442171,결,서울 종로구 공평동 17,서울 종로구 우정국로 26,02-6370-5840,카페,음식점 > 카페,http://place.map.kakao.com/517442171
441,15815825,mk2,서울 종로구 창성동 122-2,서울 종로구 자하문로10길 17,,카페,음식점 > 카페,http://place.map.kakao.com/15815825
442,630916358,동백양과점 익선점,서울 종로구 익선동 166-73,서울 종로구 수표로28길 17-24,02-3144-0429,카페,음식점 > 카페 > 커피전문점,http://place.map.kakao.com/630916358
443,9544927,클럽에스프레소,서울 종로구 부암동 257-1,서울 종로구 창의문로 132,02-764-8719,카페,음식점 > 카페 > 커피전문점,http://place.map.kakao.com/9544927
444,1041123432,애즈라이크,서울 종로구 통의동 7-33,서울 종로구 효자로7길 23,02-722-9994,카페,음식점 > 카페,http://place.map.kakao.com/1041123432
445,1711700322,밀크홀1937 종로점,서울 종로구 종로2가 71-5,서울 종로구 종로 86-1,070-8801-1937,카페,음식점 > 카페,http://place.map.kakao.com/1711700322
446,1742096339,카페온화 익선점,서울 종로구 익선동 166-39,서울 종로구 수표로28길 21-10,,카페,음식점 > 카페,http://place.map.kakao.com/1742096339
447,855621421,호텔세느장,서울 종로구 낙원동 122,서울 종로구 돈화문로11길 28-5,02-766-8211,카페,음식점 > 카페 > 테마카페 > 디저트카페,http://place.map.kakao.com/855621421
448,26964717,코피티암커피 경복궁점,서울 종로구 통의동 35-29,서울 종로구 자하문로4길 7,070-7670-8837,카페,음식점 > 카페,http://place.map.kakao.com/26964717
449,8105618,커피스트,서울 종로구 신문로2가 1-335,서울 종로구 경희궁길 39,02-725-5557,카페,음식점 > 카페 > 커피전문점,http://place.map.kakao.com/8105618
450,8045991,카페이마,서울 종로구 세종로 139-8,서울 종로구 세종대로 152,02-2020-2088,카페,음식점 > 카페,http://place.map.kakao.com/8045991
451,212413668,내자상회,서울 종로구 내자동 142,서울 종로구 사직로10길 3,070-7755-0142,카페,음식점 > 카페,http://place.map.kakao.com/212413668
452,1182434312,제이히든하우스,서울 종로구 종로6가 94,서울 종로구 종로 269-4,02-744-1915,카페,음식점 > 카페,http://place.map.kakao.com/1182434312
453,1154343797,한옥찻집,서울 종로구 관훈동 64,서울 종로구 인사동12길 9,,카페,음식점 > 카페 > 전통찻집,http://place.map.kakao.com/1154343797
454,971978748,로코랩,서울 종로구 수송동 46-13,서울 종로구 율곡로4길 51,02-3210-3258,카페,음식점 > 카페,http://place.map.kakao.com/971978748
455,517442171,결,서울 종로구 공평동 17,서울 종로구 우정국로 26,02-6370-5840,카페,음식점 > 카페,http://place.map.kakao.com/517442171
456,15815825,mk2,서울 종로구 창성동 122-2,서울 종로구 자하문로10길 17,,카페,음식점 > 카페,http://place.map.kakao.com/15815825
457,630916358,동백양과점 익선점,서울 종로구 익선동 166-73,서울 종로구 수표로28길 17-24,02-3144-0429,카페,음식점 > 카페 > 커피전문점,http://place.map.kakao.com/630916358
458,9544927,클럽에스프레소,서울 종로구 부암동 257-1,서울 종로구 창의문로 132,02-764-8719,카페,음식점 > 카페 > 커피전문점,http://place.map.kakao.com/9544927
459,1041123432,애즈라이크,서울 종로구 통의동 7-33,서울 종로구 효자로7길 23,02-722-9994,카페,음식점 > 카페,http://place.map.kakao.com/1041123432
460,1711700322,밀크홀1937 종로점,서울 종로구 종로2가 71-5,서울 종로구 종로 86-1,070-8801-1937,카페,음식점 > 카페,http://place.map.kakao.com/1711700322
461,1742096339,카페온화 익선점,서울 종로구 익선동 166-39,서울 종로구 수표로28길 21-10,,카페,음식점 > 카페,http://place.map.kakao.com/1742096339
462,855621421,호텔세느장,서울 종로구 낙원동 122,서울 종로구 돈화문로11길 28-5,02-766-8211,카페,음식점 > 카페 > 테마카페 > 디저트카페,http://place.map.kakao.com/855621421
463,26964717,코피티암커피 경복궁점,서울 종로구 통의동 35-29,서울 종로구 자하문로4길 7,070-7670-8837,카페,음식점 > 카페,http://place.map.kakao.com/26964717
464,8105618,커피스트,서울 종로구 신문로2가 1-335,서울 종로구 경희궁길 39,02-725-5557,카페,음식점 > 카페 > 커피전문점,http://place.map.kakao.com/8105618
465,8045991,카페이마,서울 종로구 세종로 139-8,서울 종로구 세종대로 152,02-2020-2088,카페,음식점 > 카페,http://place.map.kakao.com/8045991
466,212413668,내자상회,서울 종로구 내자동 142,서울 종로구 사직로10길 3,070-7755-0142,카페,음식점 > 카페,http://place.map.kakao.com/212413668
467,1182434312,제이히든하우스,서울 종로구 종로6가 94,서울 종로구 종로 269-4,02-744-1915,카페,음식점 > 카페,http://place.map.kakao.com/1182434312
468,1154343797,한옥찻집,서울 종로구 관훈동 64,서울 종로구 인사동12길 9,,카페,음식점 > 카페 > 전통찻집,http://place.map.kakao.com/1154343797
469,971978748,로코랩,서울 종로구 수송동 46-13,서울 종로구 율곡로4길 51,02-3210-3258,카페,음식점 > 카페,http://place.map.kakao.com/971978748
470,517442171,결,서울 종로구 공평동 17,서울 종로구 우정국로 26,02-6370-5840,카페,음식점 > 카페,http://place.map.kakao.com/517442171
471,15815825,mk2,서울 종로구 창성동 122-2,서울 종로구 자하문로10길 17,,카페,음식점 > 카페,http://place.map.kakao.com/15815825
472,630916358,동백양과점 익선점,서울 종로구 익선동 166-73,서울 종로구 수표로28길 17-24,02-3144-0429,카페,음식점 > 카페 > 커피전문점,http://place.map.kakao.com/630916358
473,9544927,클럽에스프레소,서울 종로구 부암동 257-1,서울 종로구 창의문로 132,02-764-8719,카페,음식점 > 카페 > 커피전문점,http://place.map.kakao.com/9544927
474,1041123432,애즈라이크,서울 종로구 통의동 7-33,서울 종로구 효자로7길 23,02-722-9994,카페,음식점 > 카페,http://place.map.kakao.com/1041123432
475,1711700322,밀크홀1937 종로점,서울 종로구 종로2가 71-5,서울 종로구 종로 86-1,070-8801-1937,카페,음식점 > 카페,http://place.map.kakao.com/1711700322
476,1742096339,카페온화 익선점,서울 종로구 익선동 166-39,서울 종로구 수표로28길 21-10,,카페,음식점 > 카페,http://place.map.kakao.com/1742096339
477,855621421,호텔세느장,서울 종로구 낙원동 122,서울 종로구 돈화문로11길 28-5,02-766-8211,카페,음식점 > 카페 > 테마카페 > 디저트카페,http://place.map.kakao.com/855621421
478,26964717,코피티암커피 경복궁점,서울 종로구 통의동 35-29,서울 종로구 자하문로4길 7,070-7670-8837,카페,음식점 > 카페,http://place.map.kakao.com/26964717
479,8105618,커피스트,서울 종로구 신문로2가 1-335,서울 종로구 경희궁길 39,02-725-5557,카페,음식점 > 카페 > 커피전문점,http://place.map.kakao.com/8105618
480,8045991,카페이마,서울 종로구 세종로 139-8,서울 종로구 세종대로 152,02-2020-2088,카페,음식점 > 카페,http://place.map.kakao.com/8045991
481,212413668,내자상회,서울 종로구 내자동 142,서울 종로구 사직로10길 3,070-7755-0142,카페,음식점 > 카페,http://place.map.kakao.com/212413668
482,1182434312,제이히든하우스,서울 종로구 종로6가 94,서울 종로구 종로 269-4,02-744-1915,카페,음식점 > 카페,http://place.map.kakao.com/1182434312
483,1154343797,한옥찻집,서울 종로구 관훈동 64,서울 종로구 인사동12길 9,,카페,음식점 > 카페 > 전통찻집,http://place.map.kakao.com/1154343797
484,971978748,로코랩,서울 종로구 수송동 46-13,서울 종로구 율곡로4길 51,02-3210-3258,카페,음식점 > 카페,http://place.map.kakao.com/971978748
485,517442171,결,서울 종로구 공평동 17,서울 종로구 우정국로 26,02-6370-5840,카페,음식점 > 카페,http://place.map.kakao.com/517442171
486,15815825,mk2,서울 종로구 창성동 122-2,서울 종로구 자하문로10길 17,,카페,음식점 > 카페,http://place.map.kakao.com/15815825
487,630916358,동백양과점 익선점,서울 종로구 익선동 166-73,서울 종로구 수표로28길 17-24,02-3144-0429,카페,음식점 > 카페 > 커피전문점,http://place.map.kakao.com/630916358
488,9544927,클럽에스프레소,서울 종로구 부암동 257-1,서울 종로구 창의문로 132,02-764-8719,카페,음식점 > 카페 > 커피전문점,http://place.map.kakao.com/9544927
489,1041123432,애즈라이크,서울 종로구 통의동 7-33,서울 종로구 효자로7길 23,02-722-9994,카페,음식점 > 카페,http://place.map.kakao.com/1041123432
490,1711700322,밀크홀1937 종로점,서울 종로구 종로2가 71-5,서울 종로구 종로 86-1,070-8801-1937,카페,음식점 > 카페,http://place.map.kakao.com/1711700322
491,1742096339,카페온화 익선점,서울 종로구 익선동 166-39,서울 종로구 수표로28길 21-10,,카페,음식점 > 카페,http://place.map.kakao.com/1742096339
492,855621421,호텔세느장,서울 종로구 낙원동 122,서울 종로구 돈화문로11길 28-5,02-766-8211,카페,음식점 > 카페 > 테마카페 > 디저트카페,http://place.map.kakao.com/855621421
493,26964717,코피티암커피 경복궁점,서울 종로구 통의동 35-29,서울 종로구 자하문로4길 7,070-7670-8837,카페,음식점 > 카페,http://place.map.kakao.com/26964717
494,8105618,커피스트,서울 종로구 신문로2가 1-335,서울 종로구 경희궁길 39,02-725-5557,카페,음식점 > 카페 > 커피전문점,http://place.map.kakao.com/8105618
495,8045991,카페이마,서울 종로구 세종로 139-8,서울 종로구 세종대로 152,02-2020-2088,카페,음식점 > 카페,http://place.map.kakao.com/8045991
496,212413668,내자상회,서울 종로구 내자동 142,서울 종로구 사직로10길 3,070-7755-0142,카페,음식점 > 카페,http://place.map.kakao.com/212413668
497,1182434312,제이히든하우스,서울 종로구 종로6가 94,서울 종로구 종로 269-4,02-744-1915,카페,음식점 > 카페,http://place.map.kakao.com/1182434312
498,1154343797,한옥찻집,서울 종로구 관훈동 64,서울 종로구 인사동12길 9,,카페,음식점 > 카페 > 전통찻집,http://place.map.kakao.com/1154343797
499,971978748,로코랩,서울 종로구 수송동 46-13,서울 종로구 율곡로4길 51,02-3210-3258,카페,음식점 > 카페,http://place.map.kakao.com/971978748
500,517442171,결,서울 종로구 공평동 17,서울 종로구 우정국로 26,02-6370-5840,카페,음식점 > 카페,http://place.map.kakao.com/517442171
501,15815825,mk2,서울 종로구 창성동 122-2,서울 종로구 자하문로10길 17,,카페,음식점 > 카페,http://place.map.kakao.com/15815825
502,630916358,동백양과점 익선점,서울 종로구 익선동 166-73,서울 종로구 수표로28길 17-24,02-3144-0429,카페,음식점 > 카페 > 커피전문점,http://place.map.kakao.com/630916358
503,9544927,클럽에스프레소,서울 종로구 부암동 257-1,서울 종로구 창의문로 132,02-764-8719,카페,음식점 > 카페 > 커피전문점,http://place.map.kakao.com/9544927
504,1041123432,애즈라이크,서울 종로구 통의동 7-33,서울 종로구 효자로7길 23,02-722-9994,카페,음식점 > 카페,http://place.map.kakao.com/1041123432
505,1711700322,밀크홀1937 종로점,서울 종로구 종로2가 71-5,서울 종로구 종로 86-1,070-8801-1937,카페,음식점 > 카페,http://place.map.kakao.com/1711700322
506,1742096339,카페온화 익선점,서울 종로구 익선동 166-39,서울 종로구 수표로28길 21-10,,카페,음식점 > 카페,http://place.map.kakao.com/1742096339
507,855621421,호텔세느장,서울 종로구 낙원동 122,서울 종로구 돈화문로11길 28-5,02-766-8211,카페,음식점 > 카페 > 테마카페 > 디저트카페,http://place.map.kakao.com/855621421
508,26964717,코피티암커피 경복궁점,서울 종로구 통의동 35-29,서울 종로구 자하문로4길 7,070-7670-8837,카페,음식점 > 카페,http://place.map.kakao.com/26964717
509,8105618,커피스트,서울 종로구 신문로2가 1-335,서울 종로구 경희궁길 39,02-725-5557,카페,음식점 > 카페 > 커피전문점,http://place.map.kakao.com/8105618
510,8045991,카페이마,서울 종로구 세종로 139-8,서울 종로구 세종대로 152,02-2020-2088,카페,음식점 > 카페,http://place.map.kakao.com/8045991
511,212413668,내자상회,서울 종로구 내자동 142,서울 종로구 사직로10길 3,070-7755-0142,카페,음식점 > 카페,http://place.map.kakao.com/212413668
512,1182434312,제이히든하우스,서울 종로구 종로6가 94,서울 종로구 종로 269-4,02-744-1915,카페,음식점 > 카페,http://place.map.kakao.com/1182434312
513,1154343797,한옥찻집,서울 종로구 관훈동 64,서울 종로구 인사동12길 9,,카페,음식점 > 카페 > 전통찻집,http://place.map.kakao.com/1154343797
514,971978748,로코랩,서울 종로구 수송동 46-13,서울 종로구 율곡로4길 51,02-3210-3258,카페,음식점 > 카페,http://place.map.kakao.com/971978748
515,517442171,결,서울 종로구 공평동 17,서울 종로구 우정국로 26,02-6370-5840,카페,음식점 > 카페,http://place.map.kakao.com/517442171
516,15815825,mk2,서울 종로구 창성동 122-2,서울 종로구 자하문로10길 17,,카페,음식점 > 카페,http://place.map.kakao.com/15815825
517,630916358,동백양과점 익선점,서울 종로구 익선동 166-73,서울 종로구 수표로28길 17-24,02-3144-0429,카페,음식점 > 카페 > 커피전문점,http://place.map.kakao.com/630916358
518,9544927,클럽에스프레소,서울 종로구 부암동 257-1,서울 종로구 창의문로 132,02-764-8719,카페,음식점 > 카페 > 커피전문점,http://place.map.kakao.com/9544927
519,1041123432,애즈라이크,서울 종로구 통의동 7-33,서울 종로구 효자로7길 23,02-722-9994,카페,음식점 > 카페,http://place.map.kakao.com/1041123432
520,1711700322,밀크홀1937 종로점,서울 종로구 종로2가 71-5,서울 종로구 종로 86-1,070-8801-1937,카페,음식점 > 카페,http://place.map.kakao.com/1711700322
521,1742096339,카페온화 익선점,서울 종로구 익선동 166-39,서울 종로구 수표로28길 21-10,,카페,음식점 > 카페,http://place.map.kakao.com/1742096339
522,855621421,호텔세느장,서울 종로구 낙원동 122,서울 종로구 돈화문로11길 28-5,02-766-8211,카페,음식점 > 카페 > 테마카페 > 디저트카페,http://place.map.kakao.com/855621421
523,26964717,코피티암커피 경복궁점,서울 종로구 통의동 35-29,서울 종로구 자하문로4길 7,070-7670-8837,카페,음식점 > 카페,http://place.map.kakao.com/26964717
524,8105618,커피스트,서울 종로구 신문로2가 1-335,서울 종로구 경희궁길 39,02-725-5557,카페,음식점 > 카페 > 커피전문점,http://place.map.kakao.com/8105618
525,8045991,카페이마,서울 종로구 세종로 139-8,서울 종로구 세종대로 152,02-2020-2088,카페,음식점 > 카페,http://place.map.kakao.com/8045991
526,212413668,내자상회,서울 종로구 내자동 142,서울 종로구 사직로10길 3,070-7755-0142,카페,음식점 > 카페,http://place.map.kakao.com/212413668
527,1182434312,제이히든하우스,서울 종로구 종로6가 94,서울 종로구 종로 269-4,02-744-1915,카페,음식점 > 카페,http://place.map.kakao.com/1182434312
528,1154343797,한옥찻집,서울 종로구 관훈동 64,서울 종로구 인사동12길 9,,카페,음식점 > 카페 > 전통찻집,http://place.map.kakao.com/1154343797
529,971978748,로코랩,서울 종로구 수송동 46-13,서울 종로구 율곡로4길 51,02-3210-3258,카페,음식점 > 카페,http://place.map.kakao.com/971978748
530,517442171,결,서울 종로구 공평동 17,서울 종로구 우정국로 26,02-6370-5840,카페,음식점 > 카페,http://place.map.kakao.com/517442171
531,15815825,mk2,서울 종로구 창성동 122-2,서울 종로구 자하문로10길 17,,카페,음식점 > 카페,http://place.map.kakao.com/15815825
532,630916358,동백양과점 익선점,서울 종로구 익선동 166-73,서울 종로구 수표로28길 17-24,02-3144-0429,카페,음식점 > 카페 > 커피전문점,http://place.map.kakao.com/630916358
533,9544927,클럽에스프레소,서울 종로구 부암동 257-1,서울 종로구 창의문로 132,02-764-8719,카페,음식점 > 카페 > 커피전문점,http://place.map.kakao.com/9544927
534,1041123432,애즈라이크,서울 종로구 통의동 7-33,서울 종로구 효자로7길 23,02-722-9994,카페,음식점 > 카페,http://place.map.kakao.com/1041123432
535,1711700322,밀크홀1937 종로점,서울 종로구 종로2가 71-5,서울 종로구 종로 86-1,070-8801-1937,카페,음식점 > 카페,http://place.map.kakao.com/1711700322
536,1742096339,카페온화 익선점,서울 종로구 익선동 166-39,서울 종로구 수표로28길 21-10,,카페,음식점 > 카페,http://place.map.kakao.com/1742096339
537,855621421,호텔세느장,서울 종로구 낙원동 122,서울 종로구 돈화문로11길 28-5,02-766-8211,카페,음식점 > 카페 > 테마카페 > 디저트카페,http://place.map.kakao.com/855621421
538,26964717,코피티암커피 경복궁점,서울 종로구 통의동 35-29,서울 종로구 자하문로4길 7,070-7670-8837,카페,음식점 > 카페,http://place.map.kakao.com/26964717
539,8105618,커피스트,서울 종로구 신문로2가 1-335,서울 종로구 경희궁길 39,02-725-5557,카페,음식점 > 카페 > 커피전문점,http://place.map.kakao.com/8105618
540,8045991,카페이마,서울 종로구 세종로 139-8,서울 종로구 세종대로 152,02-2020-2088,카페,음식점 > 카페,http://place.map.kakao.com/8045991
541,212413668,내자상회,서울 종로구 내자동 142,서울 종로구 사직로10길 3,070-7755-0142,카페,음식점 > 카페,http://place.map.kakao.com/212413668
542,1182434312,제이히든하우스,서울 종로구 종로6가 94,서울 종로구 종로 269-4,02-744-1915,카페,음식점 > 카페,http://place.map.kakao.com/1182434312
543,1154343797,한옥찻집,서울 종로구 관훈동 64,서울 종로구 인사동12길 9,,카페,음식점 > 카페 > 전통찻집,http://place.map.kakao.com/1154343797
544,971978748,로코랩,서울 종로구 수송동 46-13,서울 종로구 율곡로4길 51,02-3210-3258,카페,음식점 > 카페,http://place.map.kakao.com/971978748
545,517442171,결,서울 종로구 공평동 17,서울 종로구 우정국로 26,02-6370-5840,카페,음식점 > 카페,http://place.map.kakao.com/517442171
546,15815825,mk2,서울 종로구 창성동 122-2,서울 종로구 자하문로10길 17,,카페,음식점 > 카페,http://place.map.kakao.com/15815825
547,630916358,동백양과점 익선점,서울 종로구 익선동 166-73,서울 종로구 수표로28길 17-24,02-3144-0429,카페,음식점 > 카페 > 커피전문점,http://place.map.kakao.com/630916358
548,9544927,클럽에스프레소,서울 종로구 부암동 257-1,서울 종로구 창의문로 132,02-764-8719,카페,음식점 > 카페 > 커피전문점,http://place.map.kakao.com/9544927
549,1041123432,애즈라이크,서울 종로구 통의동 7-33,서울 종로구 효자로7길 23,02-722-9994,카페,음식점 > 카페,http://place.map.kakao.com/1041123432
550,1711700322,밀크홀1937 종로점,서울 종로구 종로2가 71-5,서울 종로구 종로 86-1,070-8801-1937,카페,음식점 > 카페,http://place.map.kakao.com/1711700322
551,1742096339,카페온화 익선점,서울 종로구 익선동 166-39,서울 종로구 수표로28길 21-10,,카페,음식점 > 카페,http://place.map.kakao.com/1742096339
552,855621421,호텔세느장,서울 종로구 낙원동 122,서울 종로구 돈화문로11길 28-5,02-766-8211,카페,음식점 > 카페 > 테마카페 > 디저트카페,http://place.map.kakao.com/855621421
553,26964717,코피티암커피 경복궁점,서울 종로구 통의동 35-29,서울 종로구 자하문로4길 7,070-7670-8837,카페,음식점 > 카페,http://place.map.kakao.com/26964717
554,8105618,커피스트,서울 종로구 신문로2가 1-335,서울 종로구 경희궁길 39,02-725-5557,카페,음식점 > 카페 > 커피전문점,http://place.map.kakao.com/8105618
555,8045991,카페이마,서울 종로구 세종로 139-8,서울 종로구 세종대로 152,02-2020-2088,카페,음식점 > 카페,http://place.map.kakao.com/8045991
556,212413668,내자상회,서울 종로구 내자동 142,서울 종로구 사직로10길 3,070-7755-0142,카페,음식점 > 카페,http://place.map.kakao.com/212413668
557,1182434312,제이히든하우스,서울 종로구 종로6가 94,서울 종로구 종로 269-4,02-744-1915,카페,음식점 > 카페,http://place.map.kakao.com/1182434312
558,1154343797,한옥찻집,서울 종로구 관훈동 64,서울 종로구 인사동12길 9,,카페,음식점 > 카페 > 전통찻집,http://place.map.kakao.com/1154343797
559,971978748,로코랩,서울 종로구 수송동 46-13,서울 종로구 율곡로4길 51,02-3210-3258,카페,음식점 > 카페,http://place.map.kakao.com/971978748
560,517442171,결,서울 종로구 공평동 17,서울 종로구 우정국로 26,02-6370-5840,카페,음식점 > 카페,http://place.map.kakao.com/517442171
561,15815825,mk2,서울 종로구 창성동 122-2,서울 종로구 자하문로10길 17,,카페,음식점 > 카페,http://place.map.kakao.com/15815825
562,630916358,동백양과점 익선점,서울 종로구 익선동 166-73,서울 종로구 수표로28길 17-24,02-3144-0429,카페,음식점 > 카페 > 커피전문점,http://place.map.kakao.com/630916358
563,9544927,클럽에스프레소,서울 종로구 부암동 257-1,서울 종로구 창의문로 132,02-764-8719,카페,음식점 > 카페 > 커피전문점,http://place.map.kakao.com/9544927
564,1041123432,애즈라이크,서울 종로구 통의동 7-33,서울 종로구 효자로7길 23,02-722-9994,카페,음식점 > 카페,http://place.map.kakao.com/1041123432
565,1711700322,밀크홀1937 종로점,서울 종로구 종로2가 71-5,서울 종로구 종로 86-1,070-8801-1937,카페,음식점 > 카페,http://place.map.kakao.com/1711700322
566,1742096339,카페온화 익선점,서울 종로구 익선동 166-39,서울 종로구 수표로28길 21-10,,카페,음식점 > 카페,http://place.map.kakao.com/1742096339
567,855621421,호텔세느장,서울 종로구 낙원동 122,서울 종로구 돈화문로11길 28-5,02-766-8211,카페,음식점 > 카페 > 테마카페 > 디저트카페,http://place.map.kakao.com/855621421
568,26964717,코피티암커피 경복궁점,서울 종로구 통의동 35-29,서울 종로구 자하문로4길 7,070-7670-8837,카페,음식점 > 카페,http://place.map.kakao.com/26964717
569,8105618,커피스트,서울 종로구 신문로2가 1-335,서울 종로구 경희궁길 39,02-725-5557,카페,음식점 > 카페 > 커피전문점,http://place.map.kakao.com/8105618
570,8045991,카페이마,서울 종로구 세종로 139-8,서울 종로구 세종대로 152,02-2020-2088,카페,음식점 > 카페,http://place.map.kakao.com/8045991
571,212413668,내자상회,서울 종로구 내자동 142,서울 종로구 사직로10길 3,070-7755-0142,카페,음식점 > 카페,http://place.map.kakao.com/212413668
572,1182434312,제이히든하우스,서울 종로구 종로6가 94,서울 종로구 종로 269-4,02-744-1915,카페,음식점 > 카페,http://place.map.kakao.com/1182434312
573,1154343797,한옥찻집,서울 종로구 관훈동 64,서울 종로구 인사동12길 9,,카페,음식점 > 카페 > 전통찻집,http://place.map.kakao.com/1154343797
574,971978748,로코랩,서울 종로구 수송동 46-13,서울 종로구 율곡로4길 51,02-3210-3258,카페,음식점 > 카페,http://place.map.kakao.com/971978748
575,517442171,결,서울 종로구 공평동 17,서울 종로구 우정국로 26,02-6370-5840,카페,음식점 > 카페,http://place.map.kakao.com/517442171
576,15815825,mk2,서울 종로구 창성동 122-2,서울 종로구 자하문로10길 17,,카페,음식점 > 카페,http://place.map.kakao.com/15815825
577,630916358,동백양과점 익선점,서울 종로구 익선동 166-73,서울 종로구 수표로28길 17-24,02-3144-0429,카페,음식점 > 카페 > 커피전문점,http://place.map.kakao.com/630916358
578,9544927,클럽에스프레소,서울 종로구 부암동 257-1,서울 종로구 창의문로 132,02-764-8719,카페,음식점 > 카페 > 커피전문점,http://place.map.kakao.com/9544927
579,1041123432,애즈라이크,서울 종로구 통의동 7-33,서울 종로구 효자로7길 23,02-722-9994,카페,음식점 > 카페,http://place.map.kakao.com/1041123432
580,1711700322,밀크홀1937 종로점,서울 종로구 종로2가 71-5,서울 종로구 종로 86-1,070-8801-1937,카페,음식점 > 카페,http://place.map.kakao.com/1711700322
581,1742096339,카페온화 익선점,서울 종로구 익선동 166-39,서울 종로구 수표로28길 21-10,,카페,음식점 > 카페,http://place.map.kakao.com/1742096339
582,855621421,호텔세느장,서울 종로구 낙원동 122,서울 종로구 돈화문로11길 28-5,02-766-8211,카페,음식점 > 카페 > 테마카페 > 디저트카페,http://place.map.kakao.com/855621421
583,26964717,코피티암커피 경복궁점,서울 종로구 통의동 35-29,서울 종로구 자하문로4길 7,070-7670-8837,카페,음식점 > 카페,http://place.map.kakao.com/26964717
584,8105618,커피스트,서울 종로구 신문로2가 1-335,서울 종로구 경희궁길 39,02-725-5557,카페,음식점 > 카페 > 커피전문점,http://place.map.kakao.com/8105618
585,8045991,카페이마,서울 종로구 세종로 139-8,서울 종로구 세종대로 152,02-2020-2088,카페,음식점 > 카페,http://place.map.kakao.com/8045991
586,212413668,내자상회,서울 종로구 내자동 142,서울 종로구 사직로10길 3,070-7755-0142,카페,음식점 > 카페,http://place.map.kakao.com/212413668
587,1182434312,제이히든하우스,서울 종로구 종로6가 94,서울 종로구 종로 269-4,02-744-1915,카페,음식점 > 카페,http://place.map.kakao.com/1182434312
588,1154343797,한옥찻집,서울 종로구 관훈동 64,서울 종로구 인사동12길 9,,카페,음식점 > 카페 > 전통찻집,http://place.map.kakao.com/1154343797
589,971978748,로코랩,서울 종로구 수송동 46-13,서울 종로구 율곡로4길 51,02-3210-3258,카페,음식점 > 카페,http://place.map.kakao.com/971978748
590,517442171,결,서울 종로구 공평동 17,서울 종로구 우정국로 26,02-6370-5840,카페,음식점 > 카페,http://place.map.kakao.com/517442171
591,15815825,mk2,서울 종로구 창성동 122-2,서울 종로구 자하문로10길 17,,카페,음식점 > 카페,http://place.map.kakao.com/15815825
592,630916358,동백양과점 익선점,서울 종로구 익선동 166-73,서울 종로구 수표로28길 17-24,02-3144-0429,카페,음식점 > 카페 > 커피전문점,http://place.map.kakao.com/630916358
593,9544927,클럽에스프레소,서울 종로구 부암동 257-1,서울 종로구 창의문로 132,02-764-8719,카페,음식점 > 카페 > 커피전문점,http://place.map.kakao.com/9544927
594,1041123432,애즈라이크,서울 종로구 통의동 7-33,서울 종로구 효자로7길 23,02-722-9994,카페,음식점 > 카페,http://place.map.kakao.com/1041123432
595,1711700322,밀크홀1937 종로점,서울 종로구 종로2가 71-5,서울 종로구 종로 86-1,070-8801-1937,카페,음식점 > 카페,http://place.map.kakao.com/1711700322
596,1742096339,카페온화 익선점,서울 종로구 익선동 166-39,서울 종로구 수표로28길 21-10,,카페,음식점 > 카페,http://place.map.kakao.com/1742096339
597,855621421,호텔세느장,서울 종로구 낙원동 122,서울 종로구 돈화문로11길 28-5,02-766-8211,카페,음식점 > 카페 > 테마카페 > 디저트카페,http://place.map.kakao.com/855621421
598,26964717,코피티암커피 경복궁점,서울 종로구 통의동 35-29,서울 종로구 자하문로4길 7,070-7670-8837,카페,음식점 > 카페,http://place.map.kakao.com/26964717
599,8105618,커피스트,서울 종로구 신문로2가 1-335,서울 종로구 경희궁길 39,02-725-5557,카페,음식점 > 카페 > 커피전문점,http://place.map.kakao.com/8105618
600,8045991,카페이마,서울 종로구 세종로 139-8,서울 종로구 세종대로 152,02-2020-2088,카페,음식점 > 카페,http://place.map.kakao.com/8045991
601,212413668,내자상회,서울 종로구 내자동 142,서울 종로구 사직로10길 3,070-7755-0142,카페,음식점 > 카페,http://place.map.kakao.com/212413668
602,1182434312,제이히든하우스,서울 종로구 종로6가 94,서울 종로구 종로 269-4,02-744-1915,카페,음식점 > 카페,http://place.map.kakao.com/1182434312
603,1154343797,한옥찻집,서울 종로구 관훈동 64,서울 종로구 인사동12길 9,,카페,음식점 > 카페 > 전통찻집,http://place.map.kakao.com/1154343797
604,971978748,로코랩,서울 종로구 수송동 46-13,서울 종로구 율곡로4길 51,02-3210-3258,카페,음식점 > 카페,http://place.map.kakao.com/971978748
605,517442171,결,서울 종로구 공평동 17,서울 종로구 우정국로 26,02-6370-5840,카페,음식점 > 카페,http://place.map.kakao.com/517442171
606,15815825,mk2,서울 종로구 창성동 122-2,서울 종로구 자하문로10길 17,,카페,음식점 > 카페,http://place.map.kakao.com/15815825
607,630916358,동백양과점 익선점,서울 종로구 익선동 166-73,서울 종로구 수표로28길 17-24,02-3144-0429,카페,음식점 > 카페 > 커피전문점,http://place.map.kakao.com/630916358
608,9544927,클럽에스프레소,서울 종로구 부암동 257-1,서울 종로구 창의문로 132,02-764-8719,카페,음식점 > 카페 > 커피전문점,http://place.map.kakao.com/9544927
609,1041123432,애즈라이크,서울 종로구 통의동 7-33,서울 종로구 효자로7길 23,02-722-9994,카페,음식점 > 카페,http://place.map.kakao.com/1041123432
610,1711700322,밀크홀1937 종로점,서울 종로구 종로2가 71-5,서울 종로구 종로 86-1,070-8801-1937,카페,음식점 > 카페,http://place.map.kakao.com/1711700322
611,1742096339,카페온화 익선점,서울 종로구 익선동 166-39,서울 종로구 수표로28길 21-10,,카페,음식점 > 카페,http://place.map.kakao.com/1742096339
612,855621421,호텔세느장,서울 종로구 낙원동 122,서울 종로구 돈화문로11길 28-5,02-766-8211,카페,음식점 > 카페 > 테마카페 > 디저트카페,http://place.map.kakao.com/855621421
613,26964717,코피티암커피 경복궁점,서울 종로구 통의동 35-29,서울 종로구 자하문로4길 7,070-7670-8837,카페,음식점 > 카페,http://place.map.kakao.com/26964717
614,8105618,커피스트,서울 종로구 신문로2가 1-335,서울 종로구 경희궁길 39,02-725-5557,카페,음식점 > 카페 > 커피전문점,http://place.map.kakao.com/8105618
615,8045991,카페이마,서울 종로구 세종로 139-8,서울 종로구 세종대로 152,02-2020-2088,카페,음식점 > 카페,http://place.map.kakao.com/8045991
616,212413668,내자상회,서울 종로구 내자동 142,서울 종로구 사직로10길 3,070-7755-0142,카페,음식점 > 카페,http://place.map.kakao.com/212413668
617,1182434312,제이히든하우스,서울 종로구 종로6가 94,서울 종로구 종로 269-4,02-744-1915,카페,음식점 > 카페,http://place.map.kakao.com/1182434312
618,1154343797,한옥찻집,서울 종로구 관훈동 64,서울 종로구 인사동12길 9,,카페,음식점 > 카페 > 전통찻집,http://place.map.kakao.com/1154343797
619,971978748,로코랩,서울 종로구 수송동 46-13,서울 종로구 율곡로4길 51,02-3210-3258,카페,음식점 > 카페,http://place.map.kakao.com/971978748
620,517442171,결,서울 종로구 공평동 17,서울 종로구 우정국로 26,02-6370-5840,카페,음식점 > 카페,http://place.map.kakao.com/517442171
621,15815825,mk2,서울 종로구 창성동 122-2,서울 종로구 자하문로10길 17,,카페,음식점 > 카페,http://place.map.kakao.com/15815825
622,630916358,동백양과점 익선점,서울 종로구 익선동 166-73,서울 종로구 수표로28길 17-24,02-3144-0429,카페,음식점 > 카페 > 커피전문점,http://place.map.kakao.com/630916358
623,9544927,클럽에스프레소,서울 종로구 부암동 257-1,서울 종로구 창의문로 132,02-764-8719,카페,음식점 > 카페 > 커피전문점,http://place.map.kakao.com/9544927
624,1041123432,애즈라이크,서울 종로구 통의동 7-33,서울 종로구 효자로7길 23,02-722-9994,카페,음식점 > 카페,http://place.map.kakao.com/1041123432
625,1711700322,밀크홀1937 종로점,서울 종로구 종로2가 71-5,서울 종로구 종로 86-1,070-8801-1937,카페,음식점 > 카페,http://place.map.kakao.com/1711700322
626,1742096339,카페온화 익선점,서울 종로구 익선동 166-39,서울 종로구 수표로28길 21-10,,카페,음식점 > 카페,http://place.map.kakao.com/1742096339
627,855621421,호텔세느장,서울 종로구 낙원동 122,서울 종로구 돈화문로11길 28-5,02-766-8211,카페,음식점 > 카페 > 테마카페 > 디저트카페,http://place.map.kakao.com/855621421
628,26964717,코피티암커피 경복궁점,서울 종로구 통의동 35-29,서울 종로구 자하문로4길 7,070-7670-8837,카페,음식점 > 카페,http://place.map.kakao.com/26964717
629,8105618,커피스트,서울 종로구 신문로2가 1-335,서울 종로구 경희궁길 39,02-725-5557,카페,음식점 > 카페 > 커피전문점,http://place.map.kakao.com/8105618
630,8045991,카페이마,서울 종로구 세종로 139-8,서울 종로구 세종대로 152,02-2020-2088,카페,음식점 > 카페,http://place.map.kakao.com/8045991
631,212413668,내자상회,서울 종로구 내자동 142,서울 종로구 사직로10길 3,070-7755-0142,카페,음식점 > 카페,http://place.map.kakao.com/212413668
632,1182434312,제이히든하우스,서울 종로구 종로6가 94,서울 종로구 종로 269-4,02-744-1915,카페,음식점 > 카페,http://place.map.kakao.com/1182434312
633,1154343797,한옥찻집,서울 종로구 관훈동 64,서울 종로구 인사동12길 9,,카페,음식점 > 카페 > 전통찻집,http://place.map.kakao.com/1154343797
634,971978748,로코랩,서울 종로구 수송동 46-13,서울 종로구 율곡로4길 51,02-3210-3258,카페,음식점 > 카페,http://place.map.kakao.com/971978748
635,517442171,결,서울 종로구 공평동 17,서울 종로구 우정국로 26,02-6370-5840,카페,음식점 > 카페,http://place.map.kakao.com/517442171
636,15815825,mk2,서울 종로구 창성동 122-2,서울 종로구 자하문로10길 17,,카페,음식점 > 카페,http://place.map.kakao.com/15815825
637,630916358,동백양과점 익선점,서울 종로구 익선동 166-73,서울 종로구 수표로28길 17-24,02-3144-0429,카페,음식점 > 카페 > 커피전문점,http://place.map.kakao.com/630916358
638,9544927,클럽에스프레소,서울 종로구 부암동 257-1,서울 종로구 창의문로 132,02-764-8719,카페,음식점 > 카페 > 커피전문점,http://place.map.kakao.com/9544927
639,1041123432,애즈라이크,서울 종로구 통의동 7-33,서울 종로구 효자로7길 23,02-722-9994,카페,음식점 > 카페,http://place.map.kakao.com/1041123432
640,1711700322,밀크홀1937 종로점,서울 종로구 종로2가 71-5,서울 종로구 종로 86-1,070-8801-1937,카페,음식점 > 카페,http://place.map.kakao.com/1711700322
641,1742096339,카페온화 익선점,서울 종로구 익선동 166-39,서울 종로구 수표로28길 21-10,,카페,음식점 > 카페,http://place.map.kakao.com/1742096339
642,855621421,호텔세느장,서울 종로구 낙원동 122,서울 종로구 돈화문로11길 28-5,02-766-8211,카페,음식점 > 카페 > 테마카페 > 디저트카페,http://place.map.kakao.com/855621421
643,26964717,코피티암커피 경복궁점,서울 종로구 통의동 35-29,서울 종로구 자하문로4길 7,070-7670-8837,카페,음식점 > 카페,http://place.map.kakao.com/26964717
644,8105618,커피스트,서울 종로구 신문로2가 1-335,서울 종로구 경희궁길 39,02-725-5557,카페,음식점 > 카페 > 커피전문점,http://place.map.kakao.com/8105618
645,8045991,카페이마,서울 종로구 세종로 139-8,서울 종로구 세종대로 152,02-2020-2088,카페,음식점 > 카페,http://place.map.kakao.com/8045991
646,212413668,내자상회,서울 종로구 내자동 142,서울 종로구 사직로10길 3,070-7755-0142,카페,음식점 > 카페,http://place.map.kakao.com/212413668
647,1182434312,제이히든하우스,서울 종로구 종로6가 94,서울 종로구 종로 269-4,02-744-1915,카페,음식점 > 카페,http://place.map.kakao.com/1182434312
648,1154343797,한옥찻집,서울 종로구 관훈동 64,서울 종로구 인사동12길 9,,카페,음식점 > 카페 > 전통찻집,http://place.map.kakao.com/1154343797
649,971978748,로코랩,서울 종로구 수송동 46-13,서울 종로구 율곡로4길 51,02-3210-3258,카페,음식점 > 카페,http://place.map.kakao.com/971978748
650,517442171,결,서울 종로구 공평동 17,서울 종로구 우정국로 26,02-6370-5840,카페,음식점 > 카페,http://place.map.kakao.com/517442171
651,15815825,mk2,서울 종로구 창성동 122-2,서울 종로구 자하문로10길 17,,카페,음식점 > 카페,http://place.map.kakao.com/15815825
652,630916358,동백양과점 익선점,서울 종로구 익선동 166-73,서울 종로구 수표로28길 17-24,02-3144-0429,카페,음식점 > 카페 > 커피전문점,http://place.map.kakao.com/630916358
653,9544927,클럽에스프레소,서울 종로구 부암동 257-1,서울 종로구 창의문로 132,02-764-8719,카페,음식점 > 카페 > 커피전문점,http://place.map.kakao.com/9544927
654,1041123432,애즈라이크,서울 종로구 통의동 7-33,서울 종로구 효자로7길 23,02-722-9994,카페,음식점 > 카페,http://place.map.kakao.com/1041123432
655,1711700322,밀크홀1937 종로점,서울 종로구 종로2가 71-5,서울 종로구 종로 86-1,070-8801-1937,카페,음식점 > 카페,http://place.map.kakao.com/1711700322
656,1742096339,카페온화 익선점,서울 종로구 익선동 166-39,서울 종로구 수표로28길 21-10,,카페,음식점 > 카페,http://place.map.kakao.com/1742096339
657,855621421,호텔세느장,서울 종로구 낙원동 122,서울 종로구 돈화문로11길 28-5,02-766-8211,카페,음식점 > 카페 > 테마카페 > 디저트카페,http://place.map.kakao.com/855621421
658,26964717,코피티암커피 경복궁점,서울 종로구 통의동 35-29,서울 종로구 자하문로4길 7,070-7670-8837,카페,음식점 > 카페,http://place.map.kakao.com/26964717
659,8105618,커피스트,서울 종로구 신문로2가 1-335,서울 종로구 경희궁길 39,02-725-5557,카페,음식점 > 카페 > 커피전문점,http://place.map.kakao.com/8105618
660,8045991,카페이마,서울 종로구 세종로 139-8,서울 종로구 세종대로 152,02-2020-2088,카페,음식점 > 카페,http://place.map.kakao.com/8045991
661,212413668,내자상회,서울 종로구 내자동 142,서울 종로구 사직로10길 3,070-7755-0142,카페,음식점 > 카페,http://place.map.kakao.com/212413668
662,1182434312,제이히든하우스,서울 종로구 종로6가 94,서울 종로구 종로 269-4,02-744-1915,카페,음식점 > 카페,http://place.map.kakao.com/1182434312
663,1154343797,한옥찻집,서울 종로구 관훈동 64,서울 종로구 인사동12길 9,,카페,음식점 > 카페 > 전통찻집,http://place.map.kakao.com/1154343797
664,971978748,로코랩,서울 종로구 수송동 46-13,서울 종로구 율곡로4길 51,02-3210-3258,카페,음식점 > 카페,http://place.map.kakao.com/971978748
665,517442171,결,서울 종로구 공평동 17,서울 종로구 우정국로 26,02-6370-5840,카페,음식점 > 카페,http://place.map.kakao.com/517442171
666,15815825,mk2,서울 종로구 창성동 122-2,서울 종로구 자하문로10길 17,,카페,음식점 > 카페,http://place.map.kakao.com/15815825
667,630916358,동백양과점 익선점,서울 종로구 익선동 166-73,서울 종로구 수표로28길 17-24,02-3144-0429,카페,음식점 > 카페 > 커피전문점,http://place.map.kakao.com/630916358
668,9544927,클럽에스프레소,서울 종로구 부암동 257-1,서울 종로구 창의문로 132,02-764-8719,카페,음식점 > 카페 > 커피전문점,http://place.map.kakao.com/9544927
669,1041123432,애즈라이크,서울 종로구 통의동 7-33,서울 종로구 효자로7길 23,02-722-9994,카페,음식점 > 카페,http://place.map.kakao.com/1041123432
670,1711700322,밀크홀1937 종로점,서울 종로구 종로2가 71-5,서울 종로구 종로 86-1,070-8801-1937,카페,음식점 > 카페,http://place.map.kakao.com/1711700322
671,1742096339,카페온화 익선점,서울 종로구 익선동 166-39,서울 종로구 수표로28길 21-10,,카페,음식점 > 카페,http://place.map.kakao.com/1742096339
672,855621421,호텔세느장,서울 종로구 낙원동 122,서울 종로구 돈화문로11길 28-5,02-766-8211,카페,음식점 > 카페 > 테마카페 > 디저트카페,http://place.map.kakao.com/855621421
673,26964717,코피티암커피 경복궁점,서울 종로구 통의동 35-29,서울 종로구 자하문로4길 7,070-7670-8837,카페,음식점 > 카페,http://place.map.kakao.com/26964717
674,8105618,커피스트,서울 종로구 신문로2가 1-335,서울 종로구 경희궁길 39,02-725-5557,카페,음식점 > 카페 > 커피전문점,http://place.map.kakao.com/8105618
