,id,place_name,address_name,road_address_name,phone,category_group_name,category_name,place_url
0,1974266862,카페노티드 안국,서울 종로구 재동 86,서울 종로구 북촌로 6-3,0507-1337-9973,카페,음식점 > 카페 > 테마카페 > 디저트카페,http://place.map.kakao.com/1974266862
1,8574728,토즈모임센터 종로점,서울 종로구 종로2가 84-8,서울 종로구 종로 68,02-736-0061,카페,"서비스,산업 > 전문대행 > 공간대여 > 모임공간 > 토즈모임센터",http://place.map.kakao.com/8574728
2,853028118,어니언 안국점,서울 종로구 계동 146-1,서울 종로구 계동길 5,070-7543-2123,카페,음식점 > 카페,http://place.map.kakao.com/853028118
3,353512935,블루보틀 삼청 카페,서울 종로구 소격동 86,서울 종로구 북촌로5길 76,1533-6906,카페,음식점 > 카페,http://place.map.kakao.com/353512935
4,1779571274,안녕인사동,서울 종로구 관훈동 155-2,서울 종로구 인사동길 49,02-6954-2910,카페,음식점 > 카페 > 테마카페,http://place.map.kakao.com/1779571274
5,1508329235,스태픽스,서울 종로구 필운동 32-1,서울 종로구 사직로9길 22,0507-1341-2055,카페,음식점 > 카페,http://place.map.kakao.com/1508329235
6,1429224581,아키비스트,서울 종로구 효자동 164-7,서울 종로구 효자로13길 52,02-738-1517,카페,음식점 > 카페,http://place.map.kakao.com/1429224581
7,7912367,산모퉁이,서울 종로구 부암동 97-5,서울 종로구 백석동길 153,02-391-4737,카페,음식점 > 카페,http://place.map.kakao.com/7912367
8,27187492,포비 광화문점,서울 종로구 청진동 246,서울 종로구 종로3길 17,02-2251-8125,카페,음식점 > 카페,http://place.map.kakao.com/27187492
9,8082652,차마시는 뜰,서울 종로구 삼청동 35-169,서울 종로구 북촌로11나길 26,02-722-7006,카페,음식점 > 카페 > 전통찻집,http://place.map.kakao.com/8082652
10,24725284,테라로사 광화문점,서울 종로구 중학동 19,서울 종로구 종로1길 50,,카페,음식점 > 카페 > 커피전문점,http://place.map.kakao.com/24725284
11,826692169,카페 레이어드 안국점,서울 종로구 재동 84-14,서울 종로구 북촌로2길 2-3,,카페,음식점 > 카페 > 테마카페 > 디저트카페,http://place.map.kakao.com/826692169
12,1154772851,프릳츠 원서점,서울 종로구 원서동 221-1,서울 종로구 율곡로 83,02-747-8101,카페,음식점 > 카페,http://place.map.kakao.com/1154772851
13,11016313,나무사이로,서울 종로구 내자동 196,서울 종로구 사직로8길 21,070-7590-0885,카페,음식점 > 카페 > 커피전문점,http://place.map.kakao.com/11016313
14,281666038,포비브라이트 광화문점,서울 종로구 신문로1가 115,서울 종로구 새문안로 76,02-6744-0120,카페,음식점 > 카페,http://place.map.kakao.com/281666038
15,8143287,학림다방,서울 종로구 명륜4가 94-2,서울 종로구 대학로 119,02-742-2877,카페,음식점 > 카페,http://place.map.kakao.com/8143287
16,890843625,개뿔,서울 종로구 이화동 9-443,서울 종로구 낙산성곽서1길 26,02-765-2019,카페,음식점 > 카페 > 테마카페 > 갤러리카페,http://place.map.kakao.com/890843625
17,967168196,H라운지,서울 종로구 통의동 35-21,서울 종로구 자하문로4길 21-9,02-722-0028,카페,음식점 > 카페,http://place.map.kakao.com/967168196
18,78911659,청수당,서울 종로구 익선동 144,서울 종로구 돈화문로11나길 31-9,0507-1318-8215,카페,음식점 > 카페,http://place.map.kakao.com/78911659
19,27411968,토즈모임센터 광화문점,서울 종로구 신문로1가 25,서울 종로구 새문안로 89,02-735-0022,카페,"서비스,산업 > 전문대행 > 공간대여 > 모임공간 > 토즈모임센터",http://place.map.kakao.com/27411968
20,20459372,부빙,서울 종로구 부암동 254-2,서울 종로구 창의문로 136,02-394-8288,카페,음식점 > 카페 > 테마카페 > 디저트카페,http://place.map.kakao.com/20459372
21,468528939,카페키이로,서울 종로구 명륜4가 154-2,서울 종로구 창경궁로26길 41-3,02-747-0848,카페,음식점 > 카페 > 커피전문점,http://place.map.kakao.com/468528939
22,320882660,도트블랭킷,서울 종로구 안국동 83,서울 종로구 윤보선길 22,0507-1431-2226,카페,음식점 > 카페,http://place.map.kakao.com/320882660
23,7941905,서울서 둘째로잘하는집,서울 종로구 삼청동 28-21,서울 종로구 삼청로 122-1,02-734-5302,카페,음식점 > 카페 > 전통찻집,http://place.map.kakao.com/7941905
24,2084457534,카페 하이웨스트 익선점,서울 종로구 돈의동 13,서울 종로구 돈화문로11다길 18,,카페,음식점 > 카페,http://place.map.kakao.com/2084457534
25,1882706147,대충유원지 인왕산,서울 종로구 누하동 22,서울 종로구 필운대로 46,,카페,음식점 > 카페,http://place.map.kakao.com/1882706147
26,17382138,라카페갤러리,서울 종로구 통의동 10,서울 종로구 자하문로10길 28,02-379-1975,카페,음식점 > 카페 > 테마카페 > 갤러리카페,http://place.map.kakao.com/17382138
27,27278291,슬로우파크,서울 종로구 삼청동 15-2,서울 종로구 삼청로 141,02-739-8797,카페,음식점 > 카페,http://place.map.kakao.com/27278291
28,594338477,가배도 삼청점,서울 종로구 소격동 142-2,서울 종로구 북촌로5길 56-8,02-732-4542,카페,음식점 > 카페 > 다방,http://place.map.kakao.com/594338477
29,10405822,반쥴,서울 종로구 관철동 12-16,서울 종로구 삼일대로17길 23,02-735-5437,카페,음식점 > 카페 > 커피전문점,http://place.map.kakao.com/10405822
30,8045991,카페이마,서울 종로구 세종로 139-8,서울 종로구 세종대로 152,02-2020-2088,카페,음식점 > 카페,http://place.map.kakao.com/8045991
31,212413668,내자상회,서울 종로구 내자동 142,서울 종로구 사직로10길 3,070-7755-0142,카페,음식점 > 카페,http://place.map.kakao.com/212413668
32,1182434312,제이히든하우스,서울 종로구 종로6가 94,서울 종로구 종로 269-4,02-744-1915,카페,음식점 > 카페,http://place.map.kakao.com/1182434312
33,1154343797,한옥찻집,서울 종로구 관훈동 64,서울 종로구 인사동12길 9,,카페,음식점 > 카페 > 전통찻집,http://place.map.kakao.com/1154343797
34,971978748,로코랩,서울 종로구 수송동 46-13,서울 종로구 율곡로4길 51,02-3210-3258,카페,음식점 > 카페,http://place.map.kakao.com/971978748
35,517442171,결,서울 종로구 공평동 17,서울 종로구 우정국로 26,02-6370-5840,카페,음식점 > 카페,http://place.map.kakao.com/517442171
36,15815825,mk2,서울 종로구 창성동 122-2,서울 종로구 자하문로10길 17,,카페,음식점 > 카페,http://place.map.kakao.com/15815825
37,630916358,동백양과점 익선점,서울 종로구 익선동 166-73,서울 종로구 수표로28길 17-24,02-3144-0429,카페,음식점 > 카페 > 커피전문점,http://place.map.kakao.com/630916358
38,9544927,클럽에스프레소,서울 종로구 부암동 257-1,서울 종로구 창의문로 132,02-764-8719,카페,음식점 > 카페 > 커피전문점,http://place.map.kakao.com/9544927
39,1041123432,애즈라이크,서울 종로구 통의동 7-33,서울 종로구 효자로7길 23,02-722-9994,카페,음식점 > 카페,http://place.map.kakao.com/1041123432
40,1711700322,밀크홀1937 종로점,서울 종로구 종로2가 71-5,서울 종로구 종로 86-1,070-8801-1937,카페,음식점 > 카페,http://place.map.kakao.com/1711700322
41,1742096339,카페온화 익선점,서울 종로구 익선동 166-39,서울 종로구 수표로28길 21-10,,카페,음식점 > 카페,http://place.map.kakao.com/1742096339
42,855621421,호텔세느장,서울 종로구 낙원동 122,서울 종로구 돈화문로11길 28-5,02-766-8211,카페,음식점 > 카페 > 테마카페 > 디저트카페,http://place.map.kakao.com/855621421
43,26964717,코피티암커피 경복궁점,서울 종로구 통의동 35-29,서울 종로구 자하문로4길 7,070-7670-8837,카페,음식점 > 카페,http://place.map.kakao.com/26964717
44,8105618,커피스트,서울 종로구 신문로2가 1-335,서울 종로구 경희궁길 39,02-725-5557,카페,음식점 > 카페 > 커피전문점,http://place.map.kakao.com/8105618
0,1709558766,호랑이,서울 중구 산림동 207-2,서울 중구 을지로 157,02-2269-5880,카페,음식점 > 카페,http://place.map.kakao.com/1709558766
1,87323834,더스팟 패뷸러스,서울 중구 명동2가 105,서울 중구 명동2길 22,02-779-1981,카페,음식점 > 카페 > 커피전문점,http://place.map.kakao.com/87323834
2,243733683,덕수궁 리에제와플,서울 중구 태평로2가 365,서울 중구 덕수궁길 5,02-318-5202,카페,음식점 > 카페,http://place.map.kakao.com/243733683
3,1198183678,커피앤시가렛,서울 중구 서소문동 75-95,서울 중구 서소문로 116,02-777-7557,카페,음식점 > 카페,http://place.map.kakao.com/1198183678
4,253560122,커피루소 정동점,서울 중구 정동 17-4,서울 중구 정동길 17,02-772-9935,카페,음식점 > 카페,http://place.map.kakao.com/253560122
5,1769574951,더하우스1932,서울 중구 만리동1가 62-16,서울 중구 만리재로35길 7,02-365-1932,카페,음식점 > 카페,http://place.map.kakao.com/1769574951
6,1440347564,커피한약방,서울 중구 을지로2가 101-34,서울 중구 삼일대로12길 16-6,070-4148-4242,카페,음식점 > 카페 > 커피전문점,http://place.map.kakao.com/1440347564
7,1345866783,적당,서울 중구 을지로1가 87,서울 중구 을지로 29,070-7543-8928,카페,음식점 > 카페,http://place.map.kakao.com/1345866783
8,1982412866,챔프커피 제3작업실,서울 중구 을지로4가 9-6,서울 중구 을지로 157,010-8943-4516,카페,음식점 > 카페 > 커피전문점,http://place.map.kakao.com/1982412866
9,1873478634,리사르커피로스터스 약수점,서울 중구 신당동 366-32,서울 중구 다산로8길 16-7,070-7677-5538,카페,음식점 > 카페 > 커피전문점,http://place.map.kakao.com/1873478634
10,1039797847,섬광,서울 중구 충무로4가 32-16,서울 중구 창경궁로1길 38,070-8866-8485,카페,음식점 > 카페,http://place.map.kakao.com/1039797847
11,17187804,르풀,서울 중구 정동 1-28,서울 중구 정동길 33,02-3789-0400,카페,음식점 > 카페 > 테마카페,http://place.map.kakao.com/17187804
12,1965342185,커피스니퍼,서울 중구 북창동 11-3,서울 중구 세종대로16길 27,02-3789-1781,카페,음식점 > 카페,http://place.map.kakao.com/1965342185
13,375097954,카페피크닉,서울 중구 남창동 194,서울 중구 퇴계로6가길 30,070-8821-6374,카페,음식점 > 카페,http://place.map.kakao.com/375097954
14,875047420,홍만당 명동본점,서울 중구 명동2가 32-8,서울 중구 명동8길 11-6,02-777-4422,카페,음식점 > 카페 > 테마카페 > 디저트카페,http://place.map.kakao.com/875047420
15,1651034737,라운드앤드,서울 중구 정동 11-3,서울 중구 정동길 35,,카페,음식점 > 카페 > 테마카페 > 디저트카페,http://place.map.kakao.com/1651034737
16,346424300,혜민당,서울 중구 을지로2가 101-37,서울 중구 삼일대로12길 16-9,070-8833-4242,카페,음식점 > 카페 > 테마카페 > 디저트카페,http://place.map.kakao.com/346424300
17,38432219,러시아 케이크,서울 중구 광희동1가 134,서울 중구 을지로42길 7,02-6053-4079,카페,음식점 > 카페 > 테마카페 > 디저트카페,http://place.map.kakao.com/38432219
18,1773363624,마뫼,서울 중구 회현동1가 산 1-20,서울 중구 소파로 41,,카페,음식점 > 카페,http://place.map.kakao.com/1773363624
19,1168606226,더피터커피,서울 중구 흥인동 63,서울 중구 퇴계로 411,,카페,음식점 > 카페,http://place.map.kakao.com/1168606226
20,831681203,죠지서울,서울 중구 을지로3가 334-7,서울 중구 을지로12길 6,070-8810-2693,카페,음식점 > 카페,http://place.map.kakao.com/831681203
21,1254228746,수잔나의앞치마,서울 중구 충무로5가 36-12,서울 중구 퇴계로49길 24,,카페,음식점 > 카페,http://place.map.kakao.com/1254228746
22,8101536,코인 명동점,서울 중구 명동2가 54-20,서울 중구 명동6길 10,02-753-1667,카페,음식점 > 카페,http://place.map.kakao.com/8101536
23,1879590476,심세정,서울 중구 흥인동 88,서울 중구 퇴계로 409-11,070-8823-7577,카페,음식점 > 카페 > 테마카페 > 디저트카페,http://place.map.kakao.com/1879590476
24,252792288,카페 아포테케리,서울 중구 흥인동 89,서울 중구 퇴계로 409-9,02-2236-8987,카페,음식점 > 카페,http://place.map.kakao.com/252792288
25,1798095400,몰또 이탈리안 에스프레소바 앤 테라스,서울 중구 명동1가 1-3,서울 중구 명동길 73,02-778-7779,카페,음식점 > 카페,http://place.map.kakao.com/1798095400
26,557230756,바캉스커피,서울 중구 다동 117,서울 중구 남대문로9길 12,070-8803-2326,카페,음식점 > 카페,http://place.map.kakao.com/557230756
27,893424676,한옥카페,서울 중구 남대문로4가 71-1,서울 중구 남대문로 11,070-4509-9100,카페,음식점 > 카페,http://place.map.kakao.com/893424676
28,1250821144,카페라그린,서울 중구 정동 32-1,서울 중구 정동길 26,02-3789-8005,카페,음식점 > 카페,http://place.map.kakao.com/1250821144
29,170158577,커피사,서울 중구 을지로3가 277-3,서울 중구 을지로 142-1,02-2274-2780,카페,음식점 > 카페,http://place.map.kakao.com/170158577
30,8123091,포엠,서울 중구 명동2가 54-7,서울 중구 명동4길 13,02-776-5003,카페,음식점 > 카페,http://place.map.kakao.com/8123091
31,1824024125,오프셋커피,서울 중구 신당동 340-83,서울 중구 다산로20길 7,070-8790-2650,카페,음식점 > 카페,http://place.map.kakao.com/1824024125
32,22894118,스타벅스 환구단점,서울 중구 소공동 87-1,서울 중구 소공로 112,1522-3232,카페,음식점 > 카페 > 커피전문점 > 스타벅스,http://place.map.kakao.com/22894118
33,47806106,분카샤 을지로점,서울 중구 을지로3가 302-22,서울 중구 을지로14길 20,02-2269-6947,카페,음식점 > 카페,http://place.map.kakao.com/47806106
34,1277741639,카페노티드 종각하이커,서울 중구 다동 10,서울 중구 청계천로 40,0507-1405-0085,카페,음식점 > 카페 > 테마카페 > 디저트카페,http://place.map.kakao.com/1277741639
35,17522361,고양이놀이터 명동점,서울 중구 충무로2가 66-4,서울 중구 명동8길 37-14,,카페,음식점 > 카페 > 테마카페 > 고양이카페,http://place.map.kakao.com/17522361
36,1524619494,커피그래,서울 중구 신당동 422-1,서울 중구 동호로 204,0507-1348-1256,카페,음식점 > 카페 > 커피전문점,http://place.map.kakao.com/1524619494
37,1062422741,루프트 명동점,서울 중구 충무로2가 50-10,서울 중구 삼일대로 308,02-2267-2233,카페,음식점 > 카페,http://place.map.kakao.com/1062422741
38,385848168,mwm,서울 중구 저동2가 69-1,서울 중구 수표로 35-1,,카페,음식점 > 카페,http://place.map.kakao.com/385848168
39,2128655244,로이터 커피셸터,서울 중구 필동3가 62-11,서울 중구 필동로 53,,카페,음식점 > 카페,http://place.map.kakao.com/2128655244
40,380897959,계단집,서울 중구 회현동1가 150-1,서울 중구 퇴계로6길 35,070-4419-7776,카페,음식점 > 카페,http://place.map.kakao.com/380897959
41,27391558,호텔수선화,서울 중구 을지로3가 302-18,서울 중구 충무로7길 17,070-8950-2649,카페,음식점 > 카페,http://place.map.kakao.com/27391558
42,1435193216,는커피,서울 중구 신당동 288-24,서울 중구 청구로4길 19,02-2246-1212,카페,음식점 > 카페 > 커피전문점,http://place.map.kakao.com/1435193216
43,610993395,피어커피 광희문점,서울 중구 신당동 393-11,서울 중구 청구로 123,070-4154-1464,카페,음식점 > 카페,http://place.map.kakao.com/610993395
44,321907882,스타벅스 동대문공원점,서울 중구 광희동1가 185-1,서울 중구 장충단로 229,1522-3232,카페,음식점 > 카페 > 커피전문점 > 스타벅스,http://place.map.kakao.com/321907882
0,711864705,맥심플랜트,서울 용산구 한남동 683-140,서울 용산구 이태원로 250,070-4287-8557,카페,음식점 > 카페,http://place.map.kakao.com/711864705
1,1958239830,오츠커피,서울 용산구 원효로1가 48-8,서울 용산구 원효로89길 13-12,,카페,음식점 > 카페,http://place.map.kakao.com/1958239830
2,27436567,오리올,서울 용산구 후암동 406-99,서울 용산구 신흥로20길 43,02-6406-5252,카페,음식점 > 카페,http://place.map.kakao.com/27436567
3,256884650,사유,서울 용산구 한남동 682-5,서울 용산구 이태원로54길 5,02-2289-9050,카페,음식점 > 카페 > 테마카페 > 갤러리카페,http://place.map.kakao.com/256884650
4,27344582,앤트러사이트 한남점,서울 용산구 한남동 683-142,서울 용산구 이태원로 240,02-797-7508,카페,음식점 > 카페,http://place.map.kakao.com/27344582
5,27462552,오리지널 팬케익하우스 이태원점,서울 용산구 이태원동 172-2,서울 용산구 이태원로 153,02-795-7481,카페,음식점 > 카페 > 테마카페 > 디저트카페,http://place.map.kakao.com/27462552
6,27514796,더로열푸드앤드링크,서울 용산구 후암동 406-58,서울 용산구 신흥로20길 37,070-7774-4168,카페,음식점 > 카페,http://place.map.kakao.com/27514796
7,1456774315,오아시스 한남점,서울 용산구 한남동 745-10,서울 용산구 이태원로45길 30,02-790-8906,카페,음식점 > 카페 > 테마카페 > 디저트카페,http://place.map.kakao.com/1456774315
8,12684084,동빙고,서울 용산구 이촌동 301-162,서울 용산구 이촌로 319,02-794-7171,카페,음식점 > 카페,http://place.map.kakao.com/12684084
9,1143868163,챔프커피 2작업실,서울 용산구 이태원동 79-44,서울 용산구 녹사평대로26가길 24,02-790-4516,카페,음식점 > 카페 > 커피전문점,http://place.map.kakao.com/1143868163
10,163434813,테라로사 한남점,서울 용산구 한남동 736-4,서울 용산구 이태원로36길 15,033-648-2760,카페,음식점 > 카페 > 커피전문점,http://place.map.kakao.com/163434813
11,285654982,인바이티드,서울 용산구 한강로1가 221-8,서울 용산구 한강대로52길 41,02-794-3332,카페,음식점 > 카페,http://place.map.kakao.com/285654982
12,239691324,트래버틴,서울 용산구 한강로3가 40-317,서울 용산구 한강대로7길 18-7,070-8862-6003,카페,음식점 > 카페 > 커피전문점,http://place.map.kakao.com/239691324
13,1886309015,콩카페 이태원점,서울 용산구 이태원동 34-54,서울 용산구 녹사평대로 168-8,,카페,음식점 > 카페,http://place.map.kakao.com/1886309015
14,800587300,키에리 이태원점,서울 용산구 이태원동 73-7,서울 용산구 이태원로26길 16-8,,카페,음식점 > 카페 > 테마카페 > 디저트카페,http://place.map.kakao.com/800587300
15,1562438866,써머레인,서울 용산구 한남동 738-13,서울 용산구 이태원로55가길 49,02-792-8114,카페,음식점 > 카페 > 테마카페 > 디저트카페,http://place.map.kakao.com/1562438866
16,859448387,카키바움,서울 용산구 한강로1가 225-1,서울 용산구 한강대로52길 29,02-790-6275,카페,음식점 > 카페,http://place.map.kakao.com/859448387
17,1840672910,한남베르그,서울 용산구 한남동 683-76,서울 용산구 이태원로54길 58-26,02-790-1750,카페,음식점 > 카페,http://place.map.kakao.com/1840672910
18,1187934853,테이프,서울 용산구 이태원동 63-5,서울 용산구 이태원로14길 21,010-7317-4201,카페,음식점 > 카페,http://place.map.kakao.com/1187934853
19,1240018987,때가이르매 숙대점,서울 용산구 남영동 8-2,서울 용산구 두텁바위로 8,070-4320-8495,카페,음식점 > 카페 > 테마카페 > 디저트카페,http://place.map.kakao.com/1240018987
20,1349192932,버터북,서울 용산구 용산동2가 31-2,서울 용산구 신흥로15길 20,,카페,음식점 > 카페 > 테마카페 > 디저트카페,http://place.map.kakao.com/1349192932
21,1559187561,북파크라운지,서울 용산구 한남동 727-56,서울 용산구 이태원로 294,070-7770-0539,카페,음식점 > 카페 > 테마카페 > 북카페,http://place.map.kakao.com/1559187561
22,2010021183,원인어밀리언,서울 용산구 한남동 684-62,서울 용산구 이태원로54길 31,02-794-2414,카페,음식점 > 카페,http://place.map.kakao.com/2010021183
23,614667104,몬스터플레이스,서울 용산구 청파동3가 114-3,서울 용산구 청파로43길 70,02-6402-5404,카페,음식점 > 카페,http://place.map.kakao.com/614667104
24,1285150992,바마셀,서울 용산구 원효로1가 38-5,서울 용산구 원효로89길 12,,카페,음식점 > 카페,http://place.map.kakao.com/1285150992
25,1698143190,오잇,서울 용산구 용산동2가 1-471,서울 용산구 신흥로 95,010-8844-1993,카페,음식점 > 카페,http://place.map.kakao.com/1698143190
26,251037961,헬카페스피리터스,서울 용산구 이촌동 300-23,서울 용산구 이촌로 248,070-7612-4687,카페,음식점 > 카페,http://place.map.kakao.com/251037961
27,11831542,팬케익오리지널스토리 한남점,서울 용산구 한남동 261-6,서울 용산구 독서당로 67,02-794-0508,카페,음식점 > 카페 > 테마카페 > 디저트카페,http://place.map.kakao.com/11831542
28,926051759,도렐 육지2호점,서울 용산구 한강로2가 424,서울 용산구 한강대로 100,02-6365-3675,카페,음식점 > 카페,http://place.map.kakao.com/926051759
29,13582387,엘카페커피로스터스,서울 용산구 후암동 1-43,서울 용산구 후암로 68,02-2638-0715,카페,음식점 > 카페,http://place.map.kakao.com/13582387
30,460216775,도토리,서울 용산구 한강로1가 227,서울 용산구 한강대로52길 25-6,02-797-0225,카페,음식점 > 카페 > 테마카페 > 디저트카페,http://place.map.kakao.com/460216775
31,1151652295,한남작업실,서울 용산구 한남동 745-2,서울 용산구 이태원로55나길 7,02-792-5620,카페,음식점 > 카페,http://place.map.kakao.com/1151652295
32,101568646,33아파트먼트,서울 용산구 한남동 729-68,서울 용산구 한남대로27길 33,02-794-0033,카페,음식점 > 카페,http://place.map.kakao.com/101568646
33,335734051,카페노티드 한남점,서울 용산구 한남동 684-77,서울 용산구 대사관로5길 12,0507-1301-2387,카페,음식점 > 카페 > 테마카페 > 디저트카페,http://place.map.kakao.com/335734051
34,954423286,무진장,서울 용산구 이태원동 34-58,서울 용산구 녹사평대로 168-18,,카페,음식점 > 카페,http://place.map.kakao.com/954423286
35,19615417,서울루덴스,서울 용산구 이태원동 5-12,서울 용산구 회나무로 69,02-795-4151,카페,음식점 > 카페,http://place.map.kakao.com/19615417
36,869574538,뉴오리진 동부이촌점,서울 용산구 이촌동 302-43,서울 용산구 이촌로 208,02-6272-6527,카페,음식점 > 카페,http://place.map.kakao.com/869574538
37,1579324098,널담은공간,서울 용산구 용산동2가 19-12,서울 용산구 신흥로15길 18-12,031-436-8037,카페,음식점 > 카페,http://place.map.kakao.com/1579324098
38,1784875766,삼층로비,서울 용산구 한강로3가 40-642,서울 용산구 한강대로15길 19-19,070-8865-1919,카페,음식점 > 카페,http://place.map.kakao.com/1784875766
39,1709532725,코지빌라커피,서울 용산구 이태원동 74-45,서울 용산구 이태원로20길 32,02-794-5657,카페,음식점 > 카페,http://place.map.kakao.com/1709532725
40,1640456450,챔프커피 1작업실,서울 용산구 한남동 768-25,서울 용산구 우사단로10길 121,010-5269-4931,카페,음식점 > 카페 > 커피전문점,http://place.map.kakao.com/1640456450
41,25548485,헬카페,서울 용산구 보광동 238-43,서울 용산구 보광로 76,,카페,음식점 > 카페,http://place.map.kakao.com/25548485
42,1343541111,골드문커피,서울 용산구 한강로3가 65-157,서울 용산구 한강대로14길 12,010-3112-6118,카페,음식점 > 카페,http://place.map.kakao.com/1343541111
43,1884738430,어프로치커피,서울 용산구 한강로2가 154,서울 용산구 한강대로40길 18-3,,카페,음식점 > 카페,http://place.map.kakao.com/1884738430
44,1744219383,팬케이크샵,서울 용산구 이태원동 455-1,서울 용산구 녹사평대로40다길 2,,카페,음식점 > 카페,http://place.map.kakao.com/1744219383
0,1492599844,블루보틀 성수 카페,서울 성동구 성수동1가 656-302,서울 성동구 아차산로 7,1533-6906,카페,음식점 > 카페,http://place.map.kakao.com/1492599844
1,1301973155,할아버지공장,서울 성동구 성수동2가 309-133,서울 성동구 성수이로7가길 9,010-3934-2301,카페,음식점 > 카페 > 테마카페 > 디저트카페,http://place.map.kakao.com/1301973155
2,1783691580,쎈느,서울 성동구 성수동2가 314-2,서울 성동구 연무장5길 20,02-469-2122,카페,음식점 > 카페,http://place.map.kakao.com/1783691580
3,145791269,어니언컴퍼니,서울 성동구 성수동2가 277-135,서울 성동구 아차산로9길 8,02-1644-1941,카페,음식점 > 카페 > 테마카페 > 디저트카페,http://place.map.kakao.com/145791269
4,1128989913,대림창고,서울 성동구 성수동2가 322-32,서울 성동구 성수이로 78,02-499-9669,카페,음식점 > 카페 > 테마카페 > 갤러리카페,http://place.map.kakao.com/1128989913
5,286483883,센터커피 서울숲점,서울 성동구 성수동1가 685-478,서울 성동구 서울숲2길 28-11,070-8868-2008,카페,음식점 > 카페 > 커피전문점,http://place.map.kakao.com/286483883
6,1460620031,인더매스 마장,서울 성동구 마장동 776-1,서울 성동구 마장로 270,,카페,음식점 > 카페,http://place.map.kakao.com/1460620031
7,547570065,옹근달,서울 성동구 성수동2가 333-52,서울 성동구 성수이로7길 41-1,02-499-5012,카페,음식점 > 카페,http://place.map.kakao.com/547570065
8,1842536906,멜로워 성수플래그쉽,서울 성동구 성수동2가 333-94,서울 성동구 성수이로7길 39,02-499-1112,카페,음식점 > 카페,http://place.map.kakao.com/1842536906
9,1302549042,로우키,서울 성동구 성수동2가 302-16,서울 성동구 연무장3길 6,,카페,음식점 > 카페,http://place.map.kakao.com/1302549042
10,1942841428,카페포제,서울 성동구 성수동2가 315-41,서울 성동구 연무장9길 7,070-8830-5994,카페,음식점 > 카페,http://place.map.kakao.com/1942841428
11,1038283810,마를리,서울 성동구 성수동2가 315-55,서울 성동구 연무장길 47,02-467-0303,카페,음식점 > 카페,http://place.map.kakao.com/1038283810
12,940053669,로우커피스탠드,서울 성동구 성수동1가 8-16,서울 성동구 왕십리로4길 28-2,,카페,음식점 > 카페 > 커피전문점,http://place.map.kakao.com/940053669
13,144753549,카페 연무장,서울 성동구 성수동2가 310-63,서울 성동구 연무장길 36,,카페,음식점 > 카페,http://place.map.kakao.com/144753549
14,939851854,카멜 성수점,서울 성동구 성수동2가 570-1,서울 성동구 성덕정19길 6,,카페,음식점 > 카페,http://place.map.kakao.com/939851854
15,1530215201,체다앤올리,서울 성동구 성수동1가 685-696,서울 성동구 서울숲2길 32-14,02-468-1003,카페,음식점 > 카페,http://place.map.kakao.com/1530215201
16,301697712,도렐 육지3호점,서울 성동구 성수동2가 314-12,서울 성동구 연무장7길 11,02-516-3675,카페,음식점 > 카페,http://place.map.kakao.com/301697712
17,2111826352,우디집,서울 성동구 성수동1가 311,서울 성동구 둘레9길 17,,카페,음식점 > 카페,http://place.map.kakao.com/2111826352
18,231920851,갈십리,서울 성동구 행당동 19-108,서울 성동구 마조로 15-11,010-9034-3939,카페,음식점 > 카페 > 테마카페 > 디저트카페,http://place.map.kakao.com/231920851
19,2030999010,아우프글렛 금호점,서울 성동구 금호동1가 1801-4,서울 성동구 독서당로51길 7,,카페,음식점 > 카페,http://place.map.kakao.com/2030999010
20,857915820,글로우,서울 성동구 성수동2가 277-24,서울 성동구 아차산로9길 20,,카페,음식점 > 카페,http://place.map.kakao.com/857915820
21,2077832392,슈퍼말차 성수,서울 성동구 성수동1가 668-9,서울 성동구 서울숲6길 19,070-4632-3882,카페,음식점 > 카페,http://place.map.kakao.com/2077832392
22,27347404,치카치카,서울 성동구 성수동2가 512,서울 성동구 성수이로3길 16,02-498-3478,카페,음식점 > 카페 > 테마카페 > 디저트카페,http://place.map.kakao.com/27347404
23,328817208,5TO7,서울 성동구 성수동1가 668-136,서울 성동구 서울숲2길 44-13,,카페,음식점 > 카페,http://place.map.kakao.com/328817208
24,935863440,서울앵무새,서울 성동구 성수동1가 685-213,서울 성동구 서울숲9길 3,070-8846-2025,카페,음식점 > 카페 > 테마카페 > 디저트카페,http://place.map.kakao.com/935863440
25,912676778,하루&원데이,서울 성동구 성수동2가 314-5,서울 성동구 아차산로 92,02-499-9303,카페,음식점 > 카페 > 테마카페 > 디저트카페,http://place.map.kakao.com/912676778
26,13498947,봉순이네다락방,서울 성동구 행당동 292-33,서울 성동구 왕십리로21길 13-1,02-2299-8057,카페,음식점 > 카페 > 커피전문점,http://place.map.kakao.com/13498947
27,1941275560,메쉬커피,서울 성동구 성수동1가 685-307,서울 성동구 서울숲길 43,02-464-7078,카페,음식점 > 카페 > 커피전문점,http://place.map.kakao.com/1941275560
28,732470230,카페오롯,서울 성동구 성수동1가 13-428,서울 성동구 상원6나길 7,02-2292-2223,카페,음식점 > 카페,http://place.map.kakao.com/732470230
29,1599571399,어라운드데이,서울 성동구 성수동1가 685-483,서울 성동구 서울숲2길 24-1,0507-1431-8310,카페,음식점 > 카페,http://place.map.kakao.com/1599571399
30,1431819126,훔볼트,서울 성동구 성수동2가 325-19,서울 성동구 성수이로 58,,카페,음식점 > 카페 > 테마카페 > 디저트카페,http://place.map.kakao.com/1431819126
31,1904529538,업사이드커피 뚝섬점,서울 성동구 성수동1가 7-8,서울 성동구 왕십리로14길 19-1,070-8691-4107,카페,음식점 > 카페,http://place.map.kakao.com/1904529538
32,1742492568,키커피컴퍼니 왕십리점,서울 성동구 행당동 130-115,서울 성동구 왕십리로 269,070-4230-8893,카페,음식점 > 카페 > 커피전문점,http://place.map.kakao.com/1742492568
33,1653556066,카페온화 성수점,서울 성동구 성수동2가 302-4,서울 성동구 아차산로 78,,카페,음식점 > 카페,http://place.map.kakao.com/1653556066
34,1623291829,오우드,서울 성동구 성수동2가 272-3,서울 성동구 연무장길 101-1,070-8844-0196,카페,음식점 > 카페 > 테마카페 > 디저트카페,http://place.map.kakao.com/1623291829
35,1325105515,카페노티드 성수,서울 성동구 성수동2가 316-5,서울 성동구 연무장길 29-17,,카페,음식점 > 카페,http://place.map.kakao.com/1325105515
36,17657824,하루노유키,서울 성동구 성수동1가 685-428,서울 성동구 서울숲2길 17,02-548-8662,카페,음식점 > 카페 > 테마카페 > 디저트카페,http://place.map.kakao.com/17657824
37,483722570,마크69,서울 성동구 성수동1가 685-350,서울 성동구 서울숲길 24,,카페,음식점 > 카페,http://place.map.kakao.com/483722570
38,505665583,맛차차,서울 성동구 성수동1가 685-450,서울 성동구 서울숲2길 18-11,010-9719-8707,카페,음식점 > 카페,http://place.map.kakao.com/505665583
39,431464251,아이오쓰리 성수사거리점,서울 성동구 성수동2가 275-54,서울 성동구 성수이로20길 60,02-497-1961,카페,음식점 > 카페,http://place.map.kakao.com/431464251
40,753723493,브라운팟,서울 성동구 행당동 286-19,서울 성동구 무학봉28길 16,02-2299-7796,카페,음식점 > 카페,http://place.map.kakao.com/753723493
41,1431120740,플디 성수점,서울 성동구 성수동1가 13-156,서울 성동구 상원길 44,,카페,음식점 > 카페,http://place.map.kakao.com/1431120740
42,1300323227,카페노티드 피치스,서울 성동구 성수동2가 301-16,서울 성동구 연무장3길 9,0507-1405-9377,카페,음식점 > 카페 > 테마카페 > 디저트카페,http://place.map.kakao.com/1300323227
43,1501931765,천상가옥,서울 성동구 성수동2가 322-4,서울 성동구 성수이로14길 14,,카페,음식점 > 카페,http://place.map.kakao.com/1501931765
44,157479724,비엔나커피하우스 서울숲역점,서울 성동구 성수동1가 656-447,서울 성동구 왕십리로 66,070-4628-5049,카페,음식점 > 카페,http://place.map.kakao.com/157479724
0,13327693,토즈모임센터 건대점,서울 광진구 화양동 48-5,서울 광진구 아차산로 207,02-467-0116,카페,"서비스,산업 > 전문대행 > 공간대여 > 모임공간 > 토즈모임센터",http://place.map.kakao.com/13327693
1,1926044933,도우터,서울 광진구 화양동 11-17,서울 광진구 아차산로31길 40,02-464-0559,카페,음식점 > 카페,http://place.map.kakao.com/1926044933
2,519082124,뚝방길홍차가게,서울 광진구 자양동 589-20,서울 광진구 자양강변길 277,02-512-0189,카페,음식점 > 카페,http://place.map.kakao.com/519082124
3,61909173,아르무아,서울 광진구 화양동 5-32,서울 광진구 동일로22길 117-27,02-463-9981,카페,음식점 > 카페,http://place.map.kakao.com/61909173
4,501741750,인덱스숍,서울 광진구 자양동 17-3,서울 광진구 아차산로 200,02-2122-1259,카페,음식점 > 카페 > 테마카페 > 북카페,http://place.map.kakao.com/501741750
5,1096654389,안다즈커피,서울 광진구 구의동 75-26,서울 광진구 천호대로132길 10,0507-1324-4277,카페,음식점 > 카페 > 커피전문점,http://place.map.kakao.com/1096654389
6,1755713937,체리커피,서울 광진구 능동 282-1,서울 광진구 능동로 284,02-444-7222,카페,음식점 > 카페 > 커피전문점,http://place.map.kakao.com/1755713937
7,420350631,더이퀼리브리엄커피,서울 광진구 자양동 7-30,서울 광진구 아차산로30길 7,070-7537-3744,카페,음식점 > 카페 > 커피전문점,http://place.map.kakao.com/420350631
8,1159203702,비에이치테이블,서울 광진구 자양동 775-10,서울 광진구 아차산로45길 16,,카페,음식점 > 카페,http://place.map.kakao.com/1159203702
9,22674971,카페히릿,서울 광진구 화양동 111-72,서울 광진구 광나루로 404,070-8870-4442,카페,음식점 > 카페 > 테마카페 > 애견카페,http://place.map.kakao.com/22674971
10,18263855,마우스레빗,서울 광진구 화양동 5-14,서울 광진구 능동로11길 10,02-462-4015,카페,음식점 > 카페,http://place.map.kakao.com/18263855
11,287949141,넥스트에디션 건대2호점,서울 광진구 자양동 17-5,서울 광진구 아차산로 192,0507-417-8580,카페,음식점 > 카페 > 테마카페,http://place.map.kakao.com/287949141
12,88469138,랑데자뷰 건대점,서울 광진구 화양동 9-23,서울 광진구 아차산로31길 3,070-7718-3088,카페,음식점 > 카페,http://place.map.kakao.com/88469138
13,2239,커피나무 건대입구역점,서울 광진구 화양동 5-40,서울 광진구 동일로22길 117-26,02-466-1415,카페,음식점 > 카페 > 커피전문점,http://place.map.kakao.com/2239
14,27607185,시드누아 중곡센터점,서울 광진구 중곡동 111-2,서울 광진구 천호대로127길 44,02-446-8115,카페,음식점 > 카페 > 커피전문점,http://place.map.kakao.com/27607185
15,1508416506,헤르츠커피로스팅,서울 광진구 중곡동 161-27,서울 광진구 능동로 334,010-3312-9952,카페,음식점 > 카페 > 커피전문점,http://place.map.kakao.com/1508416506
16,2106246357,그리네,서울 광진구 군자동 64-21,서울 광진구 군자로 139,,카페,음식점 > 카페 > 테마카페 > 디저트카페,http://place.map.kakao.com/2106246357
17,1017964919,도쿄빙수 건대점,서울 광진구 화양동 10-2,서울 광진구 아차산로31길 45,02-466-2012,카페,음식점 > 카페 > 테마카페 > 디저트카페,http://place.map.kakao.com/1017964919
18,143898787,카페 드노보,서울 광진구 광장동 187-2,서울 광진구 아차산로78길 157,,카페,음식점 > 카페,http://place.map.kakao.com/143898787
19,1024200053,펠어커피 구의점,서울 광진구 구의동 223-23,서울 광진구 아차산로59길 63,0507-1447-0140,카페,음식점 > 카페 > 커피전문점,http://place.map.kakao.com/1024200053
20,25060136,설빙 건대직영점,서울 광진구 화양동 7-44,서울 광진구 아차산로 225,02-499-5385,카페,음식점 > 카페 > 테마카페 > 디저트카페 > 설빙,http://place.map.kakao.com/25060136
21,1430310181,키랩보드게임 룸카페 건대본점,서울 광진구 화양동 11-7,서울 광진구 아차산로33길 49,070-8098-7300,카페,음식점 > 카페 > 테마카페 > 보드카페,http://place.map.kakao.com/1430310181
22,715860315,아오스요거트,서울 광진구 화양동 2-23,서울 광진구 능동로 153,070-8111-9451,카페,음식점 > 카페 > 테마카페 > 디저트카페,http://place.map.kakao.com/715860315
23,1766978425,안다미로팬케이크,서울 광진구 화양동 48-23,서울 광진구 아차산로25길 8,02-6405-7773,카페,음식점 > 카페 > 테마카페 > 디저트카페,http://place.map.kakao.com/1766978425
24,27354377,엑스케이프,서울 광진구 화양동 50-2,서울 광진구 동일로 112,02-463-9366,카페,음식점 > 카페 > 테마카페,http://place.map.kakao.com/27354377
25,26826876,히어로보드게임카페 건대1호점,서울 광진구 화양동 7-4,서울 광진구 아차산로 221,02-466-1203,카페,음식점 > 카페 > 테마카페 > 보드카페,http://place.map.kakao.com/26826876
26,757366145,카페레디언트,서울 광진구 중곡동 142-36,서울 광진구 능동로38길 41,02-2201-0204,카페,음식점 > 카페,http://place.map.kakao.com/757366145
27,1040379670,열매제과점,서울 광진구 화양동 36-60,서울 광진구 동일로24길 31,010-5814-3738,카페,음식점 > 카페,http://place.map.kakao.com/1040379670
28,27417701,카페호이 자양점,서울 광진구 자양동 6-38,서울 광진구 동일로20길 80,02-466-8158,카페,음식점 > 카페 > 커피전문점,http://place.map.kakao.com/27417701
29,26869515,오페뜨 건대점,서울 광진구 화양동 5-106,서울 광진구 능동로 111,02-2135-9982,카페,음식점 > 카페,http://place.map.kakao.com/26869515
30,296921469,카페온더플랜 건대점,서울 광진구 화양동 90-4,서울 광진구 능동로 161,02-462-1020,카페,음식점 > 카페,http://place.map.kakao.com/296921469
31,831662985,북카페세모,서울 광진구 화양동 8-43,서울 광진구 아차산로31길 20,02-463-0305,카페,음식점 > 카페 > 테마카페 > 북카페,http://place.map.kakao.com/831662985
32,1928816021,보난자커피 군자점,서울 광진구 군자동 270,서울 광진구 능동로 239,070-4110-3113,카페,음식점 > 카페,http://place.map.kakao.com/1928816021
33,2053737523,카페러슬,서울 광진구 구의동 612-10,서울 광진구 자양로37길 63,070-4202-1555,카페,음식점 > 카페,http://place.map.kakao.com/2053737523
34,24350794,스타벅스 군자역,서울 광진구 군자동 478-5,서울 광진구 천호대로 548,1522-3232,카페,음식점 > 카페 > 커피전문점 > 스타벅스,http://place.map.kakao.com/24350794
35,693959559,해피니스디저트 건대점,서울 광진구 자양동 6-58,서울 광진구 아차산로30길 31,010-4295-2600,카페,음식점 > 카페 > 테마카페 > 디저트카페,http://place.map.kakao.com/693959559
36,1592555351,밀피,서울 광진구 화양동 5-99,서울 광진구 동일로22길 117-15,,카페,음식점 > 카페,http://place.map.kakao.com/1592555351
37,26639935,스타벅스 구의DT,서울 광진구 구의동 67-36,서울 광진구 광나루로 519,1522-3232,카페,음식점 > 카페 > 커피전문점 > 스타벅스,http://place.map.kakao.com/26639935
38,15954181,꼬메노,서울 광진구 화양동 16-24,서울 광진구 군자로7길 29,02-468-5177,카페,음식점 > 카페,http://place.map.kakao.com/15954181
39,606933069,플라이팬커피,서울 광진구 자양동 64-11,서울 광진구 능동로3길 14,,카페,음식점 > 카페 > 커피전문점,http://place.map.kakao.com/606933069
40,13337306,커피마켓,서울 광진구 화양동 3-71,서울 광진구 아차산로33길 60,02-463-8009,카페,음식점 > 카페 > 커피전문점,http://place.map.kakao.com/13337306
41,630372352,스타벅스 어린이대공원역,서울 광진구 군자동 236,서울 광진구 능동로 243,1522-3232,카페,음식점 > 카페 > 커피전문점 > 스타벅스,http://place.map.kakao.com/630372352
42,382585102,미어캣족장,서울 광진구 자양동 9-31,서울 광진구 동일로20길 72,,카페,음식점 > 카페 > 테마카페,http://place.map.kakao.com/382585102
43,514403916,라운드브릭,서울 광진구 광장동 287-1,서울 광진구 광장로 67,,카페,음식점 > 카페 > 커피전문점,http://place.map.kakao.com/514403916
44,531681208,카페K375,서울 광진구 화양동 3-75,서울 광진구 아차산로33길 68,02-467-4468,카페,음식점 > 카페,http://place.map.kakao.com/531681208
0,1779970753,베러댄,서울 동대문구 휘경동 317-53,서울 동대문구 망우로 34,,카페,음식점 > 카페,http://place.map.kakao.com/1779970753
1,26354962,커피나인 본점,서울 동대문구 답십리동 268-8,서울 동대문구 전농로3길 12,02-6396-9992,카페,음식점 > 카페 > 커피전문점,http://place.map.kakao.com/26354962
2,1317422264,카페몰로,서울 동대문구 회기동 57-11,서울 동대문구 회기로 163,02-966-1301,카페,음식점 > 카페 > 테마카페 > 디저트카페,http://place.map.kakao.com/1317422264
3,1113162121,망우로30,서울 동대문구 휘경동 317-60,서울 동대문구 망우로 30-1,,카페,음식점 > 카페,http://place.map.kakao.com/1113162121
4,1989079728,너디블루,서울 동대문구 전농동 103-312,서울 동대문구 전농로36길 9,,카페,음식점 > 카페,http://place.map.kakao.com/1989079728
5,2093688428,카페양귀비,서울 동대문구 이문동 345-7,서울 동대문구 이문로9길 8,,카페,음식점 > 카페,http://place.map.kakao.com/2093688428
6,105370530,오앤디,서울 동대문구 휘경동 293-171,서울 동대문구 망우로12가길 17,,카페,음식점 > 카페,http://place.map.kakao.com/105370530
7,7883277,민들레영토 경희대점,서울 동대문구 회기동 60-84,서울 동대문구 경희대로1길 34,02-959-3733,카페,음식점 > 카페 > 커피전문점,http://place.map.kakao.com/7883277
8,13333488,컴플리트커피,서울 동대문구 이문동 264-293,서울 동대문구 천장산로7길 19,070-8873-0419,카페,음식점 > 카페,http://place.map.kakao.com/13333488
9,2047903591,대즐링,서울 동대문구 제기동 137-130,서울 동대문구 안암로 132,070-763-9394,카페,음식점 > 카페,http://place.map.kakao.com/2047903591
10,1872113102,더크림,서울 동대문구 장안동 330-9,서울 동대문구 장한로28길 18,070-4065-7313,카페,음식점 > 카페 > 테마카페 > 디저트카페,http://place.map.kakao.com/1872113102
11,19034696,카페온,서울 동대문구 전농동 602-6,서울 동대문구 왕산로 276-1,070-8682-4958,카페,음식점 > 카페,http://place.map.kakao.com/19034696
12,1175140530,카페림,서울 동대문구 용두동 38-3,서울 동대문구 천호대로27길 8-2,02-968-1497,카페,음식점 > 카페 > 테마카페 > 디저트카페,http://place.map.kakao.com/1175140530
13,789579036,키라쿠,서울 동대문구 제기동 1152-13,서울 동대문구 약령시로 5-1,,카페,음식점 > 카페,http://place.map.kakao.com/789579036
14,17884754,스타벅스 장한평역점,서울 동대문구 장안동 433-7,서울 동대문구 장한로 10,1522-3232,카페,음식점 > 카페 > 커피전문점 > 스타벅스,http://place.map.kakao.com/17884754
15,1387251423,스타벅스 답십리역점,서울 동대문구 답십리동 497-67,서울 동대문구 천호대로 263,1522-3232,카페,음식점 > 카페 > 커피전문점 > 스타벅스,http://place.map.kakao.com/1387251423
16,26900379,스타벅스 신설동역점,서울 동대문구 신설동 76-10,서울 동대문구 왕산로 19,1522-3232,카페,음식점 > 카페 > 커피전문점 > 스타벅스,http://place.map.kakao.com/26900379
17,24868732,스타벅스 회기역사거리점,서울 동대문구 회기동 346-18,서울 동대문구 이문로 37,1522-3232,카페,음식점 > 카페 > 커피전문점 > 스타벅스,http://place.map.kakao.com/24868732
18,453254465,쁘띠몽드 키즈카페,서울 동대문구 장안동 111-1,서울 동대문구 한천로 193,02-2215-7005,카페,음식점 > 카페 > 테마카페 > 키즈카페,http://place.map.kakao.com/453254465
19,811623792,한시십일분,서울 동대문구 휘경동 267-84,서울 동대문구 망우로 66,,카페,음식점 > 카페,http://place.map.kakao.com/811623792
20,2103694654,비하인드미,서울 동대문구 회기동 60-93,서울 동대문구 회기로 125,,카페,음식점 > 카페,http://place.map.kakao.com/2103694654
21,27542920,이문동커피집 플랫피플,서울 동대문구 이문동 331-56,서울 동대문구 이문로25길 39,,카페,음식점 > 카페 > 커피전문점,http://place.map.kakao.com/27542920
22,27020768,디어테이블,서울 동대문구 장안동 338-9,서울 동대문구 답십리로72길 68,,카페,음식점 > 카페,http://place.map.kakao.com/27020768
23,14723310,8번가,서울 동대문구 회기동 42-139,서울 동대문구 경희대로3길 8,,카페,음식점 > 카페,http://place.map.kakao.com/14723310
24,26407016,아임파이 외대점,서울 동대문구 이문동 317-11,서울 동대문구 휘경로2길 39,070-4274-1182,카페,음식점 > 카페 > 테마카페 > 디저트카페,http://place.map.kakao.com/26407016
25,1264344578,카페 트위그,서울 동대문구 장안동 412-4,서울 동대문구 한천로 10,02-6953-8892,카페,음식점 > 카페,http://place.map.kakao.com/1264344578
26,737325783,너나들이 만화카페,서울 동대문구 회기동 60-71,서울 동대문구 회기로13길 19,0507-1443-0331,카페,음식점 > 카페 > 테마카페 > 만화카페,http://place.map.kakao.com/737325783
27,831347994,커피블랑,서울 동대문구 회기동 16-18,서울 동대문구 회기로19길 16,010-2717-7316,카페,음식점 > 카페 > 테마카페 > 디저트카페,http://place.map.kakao.com/831347994
28,1945277759,37.5 답십리점,서울 동대문구 답십리동 1003,서울 동대문구 답십리로 130,02-2212-3705,카페,음식점 > 카페 > 테마카페 > 디저트카페,http://place.map.kakao.com/1945277759
29,1609221649,스타벅스 청량리역사점,서울 동대문구 전농동 588-1,서울 동대문구 왕산로 214,1522-3232,카페,음식점 > 카페 > 커피전문점 > 스타벅스,http://place.map.kakao.com/1609221649
30,1853475772,스타벅스 경희대삼거리점,서울 동대문구 회기동 60-40,서울 동대문구 회기로 141,,카페,음식점 > 카페 > 커피전문점 > 스타벅스,http://place.map.kakao.com/1853475772
31,1507094194,그대쉴꽃,서울 동대문구 회기동 16-96,서울 동대문구 회기로19길 6,02-966-0813,카페,음식점 > 카페,http://place.map.kakao.com/1507094194
32,1772092398,세라젬웰카페 서울답십리직영점,서울 동대문구 답십리동 1012,서울 동대문구 사가정로 80,02-6952-1825,카페,음식점 > 카페 > 테마카페,http://place.map.kakao.com/1772092398
33,1131068123,고소운,서울 동대문구 이문동 288-40,서울 동대문구 휘경로2길 4,,카페,음식점 > 카페,http://place.map.kakao.com/1131068123
34,16620949,투썸플레이스 장안점,서울 동대문구 장안동 375-1,서울 동대문구 장한로 73,02-2212-1780,카페,음식점 > 카페 > 커피전문점 > 투썸플레이스,http://place.map.kakao.com/16620949
35,347913254,온니당,서울 동대문구 장안동 105-11,서울 동대문구 답십리로63길 125,010-4450-9715,카페,음식점 > 카페 > 테마카페 > 디저트카페,http://place.map.kakao.com/347913254
36,25684300,설빙 서울회기역점,서울 동대문구 휘경동 191-4,서울 동대문구 회기로 193,02-960-4342,카페,음식점 > 카페 > 테마카페 > 디저트카페 > 설빙,http://place.map.kakao.com/25684300
37,1565634100,카페파인,서울 동대문구 제기동 137-7,서울 동대문구 안암로22길 15,,카페,음식점 > 카페,http://place.map.kakao.com/1565634100
38,1065892215,프롬하츠커피 용두점,서울 동대문구 용두동 130-4,서울 동대문구 왕산로 71,02-924-2230,카페,음식점 > 카페 > 커피전문점,http://place.map.kakao.com/1065892215
39,1138197258,카페시사,서울 동대문구 전농동 123-1,서울 동대문구 전농로 217,,카페,음식점 > 카페,http://place.map.kakao.com/1138197258
40,1076774313,빈칸,서울 동대문구 휘경동 192-5,서울 동대문구 망우로21길 52,02-1577-5886,카페,음식점 > 카페,http://place.map.kakao.com/1076774313
41,1096938565,멜팅폼,서울 동대문구 이문동 264-410,서울 동대문구 천장산로7길 10-3,02-960-2544,카페,음식점 > 카페 > 테마카페,http://place.map.kakao.com/1096938565
42,20103597,투썸플레이스 답십리점,서울 동대문구 답십리동 530-16,서울 동대문구 고미술로 81,070-7554-5045,카페,음식점 > 카페 > 커피전문점 > 투썸플레이스,http://place.map.kakao.com/20103597
43,8439657,스타벅스 외대점,서울 동대문구 이문동 305-60,서울 동대문구 휘경로 12-1,,카페,음식점 > 카페 > 커피전문점 > 스타벅스,http://place.map.kakao.com/8439657
44,491664026,투썸플레이스 휘경점,서울 동대문구 휘경동 275-5,서울 동대문구 망우로 86,02-2039-6288,카페,음식점 > 카페 > 커피전문점 > 투썸플레이스,http://place.map.kakao.com/491664026
0,24576625,파크더블유,서울 중랑구 망우동 43-8,서울 중랑구 양원역로16길 103-111,02-432-5659,카페,음식점 > 카페,http://place.map.kakao.com/24576625
1,2145979742,커피스터프,서울 중랑구 상봉동 118-1,서울 중랑구 망우로42길 10,,카페,음식점 > 카페,http://place.map.kakao.com/2145979742
2,2062868872,미니특공대테마파크 면목역점,서울 중랑구 면목동 118-13,서울 중랑구 겸재로 164,070-7788-5656,카페,음식점 > 카페 > 테마카페 > 키즈카페,http://place.map.kakao.com/2062868872
3,26932883,카페브릭,서울 중랑구 신내동 243-20,서울 중랑구 신내역로1길 127-11,,카페,음식점 > 카페,http://place.map.kakao.com/26932883
4,19756111,라떼플로라,서울 중랑구 묵동 180-51,서울 중랑구 동일로156길 7,02-432-9503,카페,음식점 > 카페 > 테마카페,http://place.map.kakao.com/19756111
5,1905828600,상봉커피,서울 중랑구 면목동 133-1,서울 중랑구 봉우재로 96,,카페,음식점 > 카페,http://place.map.kakao.com/1905828600
6,358842854,카페소고 망우점,서울 중랑구 망우동 489-29,서울 중랑구 신내로1길 15,02-6014-6912,카페,음식점 > 카페,http://place.map.kakao.com/358842854
7,131735695,카페252,서울 중랑구 상봉동 118-19,서울 중랑구 망우로 252,02-493-8286,카페,음식점 > 카페 > 테마카페 > 디저트카페,http://place.map.kakao.com/131735695
8,17884784,스타벅스 상봉역점,서울 중랑구 상봉동 100-2,서울 중랑구 망우로 307,1522-3232,카페,음식점 > 카페 > 커피전문점 > 스타벅스,http://place.map.kakao.com/17884784
9,1848099630,개인공간,서울 중랑구 신내동 495-35,서울 중랑구 송림길 12,070-7718-0087,카페,음식점 > 카페,http://place.map.kakao.com/1848099630
10,26303961,스타벅스 사가정역점,서울 중랑구 면목동 617-2,서울 중랑구 면목로 310,1522-3232,카페,음식점 > 카페 > 커피전문점 > 스타벅스,http://place.map.kakao.com/26303961
11,27598483,스타벅스 상봉점,서울 중랑구 상봉동 501,서울 중랑구 상봉로 131,1522-3232,카페,음식점 > 카페 > 커피전문점 > 스타벅스,http://place.map.kakao.com/27598483
12,26785139,스타벅스 중랑구청점,서울 중랑구 신내동 563-3,서울 중랑구 신내로 72,,카페,음식점 > 카페 > 커피전문점 > 스타벅스,http://place.map.kakao.com/26785139
13,1536161428,다시사랑받개,서울 중랑구 신내동 273-20,서울 중랑구 용마산로139나길 83,02-6958-6224,카페,음식점 > 카페,http://place.map.kakao.com/1536161428
14,181624929,디저트아카데미,서울 중랑구 상봉동 127-15,서울 중랑구 망우로36길 38,02-433-6096,카페,음식점 > 카페 > 테마카페 > 디저트카페,http://place.map.kakao.com/181624929
15,366702623,이층커피,서울 중랑구 중화동 305-20,서울 중랑구 동일로 805-1,02-437-0627,카페,음식점 > 카페,http://place.map.kakao.com/366702623
16,1097099031,로기스커피,서울 중랑구 면목동 117-35,서울 중랑구 겸재로 172-1,070-8621-8791,카페,음식점 > 카페,http://place.map.kakao.com/1097099031
17,26644161,설빙 상봉점,서울 중랑구 상봉동 130-1,서울 중랑구 망우로 204,02-6380-0707,카페,음식점 > 카페 > 테마카페 > 디저트카페 > 설빙,http://place.map.kakao.com/26644161
18,1424988476,모이카페,서울 중랑구 신내동 430-26,서울 중랑구 용마산로125길 108-17,070-4230-0404,카페,음식점 > 카페,http://place.map.kakao.com/1424988476
19,511991724,스토어드커피,서울 중랑구 묵동 239-118,서울 중랑구 동일로157길 22,070-8823-7669,카페,음식점 > 카페,http://place.map.kakao.com/511991724
20,744705019,문릿,서울 중랑구 상봉동 87-2,서울 중랑구 봉우재로43길 35,,카페,음식점 > 카페 > 테마카페 > 디저트카페,http://place.map.kakao.com/744705019
21,119112939,티하우스나니,서울 중랑구 신내동 493-46,서울 중랑구 용마산로117길 26,02-433-2726,카페,음식점 > 카페 > 전통찻집,http://place.map.kakao.com/119112939
22,1565667844,빈스로드 본사,서울 중랑구 상봉동 490-4,서울 중랑구 봉화산로 111,070-7593-7005,카페,음식점 > 카페,http://place.map.kakao.com/1565667844
23,26925099,스타벅스 중랑역점,서울 중랑구 상봉동 130-3,서울 중랑구 망우로30길 3,,카페,음식점 > 카페 > 커피전문점 > 스타벅스,http://place.map.kakao.com/26925099
24,1531026852,커피빈 상봉역점,서울 중랑구 상봉동 100-17,서울 중랑구 망우로 291,02-493-8902,카페,음식점 > 카페 > 커피전문점 > 커피빈,http://place.map.kakao.com/1531026852
25,1831290209,투썸플레이스 망우점,서울 중랑구 망우동 489-2,서울 중랑구 망우로 403,02-6954-2588,카페,음식점 > 카페 > 커피전문점 > 투썸플레이스,http://place.map.kakao.com/1831290209
26,1879929501,투썸플레이스 신내점,서울 중랑구 신내동 386-2,서울 중랑구 용마산로 637,02-2088-0858,카페,음식점 > 카페 > 커피전문점 > 투썸플레이스,http://place.map.kakao.com/1879929501
27,1937762094,스타벅스 묵동점,서울 중랑구 묵동 169-12,서울 중랑구 동일로 952,1522-3232,카페,음식점 > 카페 > 커피전문점 > 스타벅스,http://place.map.kakao.com/1937762094
28,27282278,더바른차담소,서울 중랑구 면목동 718-2,서울 중랑구 동일로 467,070-7760-0298,카페,음식점 > 카페 > 테마카페 > 디저트카페,http://place.map.kakao.com/27282278
29,27079711,데일리파크,서울 중랑구 묵동 20,서울 중랑구 신내로15길 196,02-3422-0146,카페,음식점 > 카페 > 테마카페 > 디저트카페,http://place.map.kakao.com/27079711
30,218720613,스타벅스 중화역점,서울 중랑구 중화동 306-71,서울 중랑구 봉화산로 35,1522-3232,카페,음식점 > 카페 > 커피전문점 > 스타벅스,http://place.map.kakao.com/218720613
31,1721326456,어느날오늘,서울 중랑구 상봉동 314-69,서울 중랑구 봉화산로30길 98,,카페,음식점 > 카페 > 테마카페 > 디저트카페,http://place.map.kakao.com/1721326456
32,1734478763,시즌,서울 중랑구 면목동 499-29,서울 중랑구 사가정로49길 62,,카페,음식점 > 카페,http://place.map.kakao.com/1734478763
33,1433298247,투썸플레이스 사가정역점,서울 중랑구 면목동 633-9,서울 중랑구 면목로 301,02-433-4024,카페,음식점 > 카페 > 커피전문점 > 투썸플레이스,http://place.map.kakao.com/1433298247
34,26947865,이노이드커피랩,서울 중랑구 면목동 52-11,서울 중랑구 용마산로86길 9-38,070-7808-0085,카페,음식점 > 카페,http://place.map.kakao.com/26947865
35,340390324,헬로방방 상봉점,서울 중랑구 상봉동 501,서울 중랑구 상봉로 131,02-433-0514,카페,음식점 > 카페 > 테마카페 > 키즈카페,http://place.map.kakao.com/340390324
36,1279265877,투썸플레이스 중랑역점,서울 중랑구 상봉동 130-166,서울 중랑구 망우로 202,,카페,음식점 > 카페 > 커피전문점 > 투썸플레이스,http://place.map.kakao.com/1279265877
37,27403044,디저트39 상봉점,서울 중랑구 상봉동 500,서울 중랑구 망우로 353,02-6053-3939,카페,음식점 > 카페 > 테마카페 > 디저트카페 > 디저트39,http://place.map.kakao.com/27403044
38,1070026450,투썸플레이스 묵동자이점,서울 중랑구 묵동 170-1,서울 중랑구 동일로 932,02-949-1222,카페,음식점 > 카페 > 커피전문점 > 투썸플레이스,http://place.map.kakao.com/1070026450
39,24960322,내친구고양이카페,서울 중랑구 면목동 617-3,서울 중랑구 면목로 306,02-2209-7446,카페,음식점 > 카페 > 테마카페 > 고양이카페,http://place.map.kakao.com/24960322
40,884093176,제주역,서울 중랑구 상봉동 190-119,서울 중랑구 상봉중앙로5다길 49,0507-1349-9926,카페,음식점 > 카페 > 테마카페 > 디저트카페,http://place.map.kakao.com/884093176
41,1140431464,투썸플레이스 서일대점,서울 중랑구 면목동 56-2,서울 중랑구 용마산로 384,,카페,음식점 > 카페 > 커피전문점 > 투썸플레이스,http://place.map.kakao.com/1140431464
42,1402799921,똥강아지카페,서울 중랑구 면목동 1502-2,서울 중랑구 용마산로 248,02-435-0722,카페,음식점 > 카페 > 테마카페 > 애견카페,http://place.map.kakao.com/1402799921
43,1261194641,설빙 묵동점,서울 중랑구 묵동 234-14,서울 중랑구 중랑역로 242,02-949-7767,카페,음식점 > 카페 > 테마카페 > 디저트카페 > 설빙,http://place.map.kakao.com/1261194641
44,19812044,탐앤탐스 상봉메가박스점,서울 중랑구 상봉동 130-135,서울 중랑구 망우로 210,02-434-4565,카페,음식점 > 카페 > 커피전문점 > 탐앤탐스,http://place.map.kakao.com/19812044
0,1540882128,성북동빵공장,서울 성북구 성북동 330-105,서울 성북구 대사관로 40,02-762-3450,카페,음식점 > 카페 > 테마카페 > 디저트카페,http://place.map.kakao.com/1540882128
1,7940056,수연산방,서울 성북구 성북동 248,서울 성북구 성북로26길 8,02-764-1736,카페,음식점 > 카페 > 전통찻집,http://place.map.kakao.com/7940056
2,824146965,블랑제메종북악,서울 성북구 성북동 270-1,서울 성북구 성북로 156,02-747-0305,카페,음식점 > 카페 > 테마카페 > 디저트카페,http://place.map.kakao.com/824146965
3,2072595213,해로커피,서울 성북구 성북동1가 66,서울 성북구 성북로 19-3,02-6012-9871,카페,음식점 > 카페 > 커피전문점,http://place.map.kakao.com/2072595213
4,13324245,죠셉의커피나무,서울 성북구 성북동 350-3,서울 성북구 성북로31길 65,02-741-1060,카페,음식점 > 카페 > 커피전문점,http://place.map.kakao.com/13324245
5,1742406210,폴드커피,서울 성북구 하월곡동 133,서울 성북구 종암로 214-3,02-912-9946,카페,음식점 > 카페,http://place.map.kakao.com/1742406210
6,26488245,커피명가 안암점,서울 성북구 안암동4가 8,서울 성북구 안암로5길 40,02-928-0892,카페,음식점 > 카페,http://place.map.kakao.com/26488245
7,293334422,카페루틴,서울 성북구 동선동3가 230,서울 성북구 보문로34가길 6,,카페,음식점 > 카페,http://place.map.kakao.com/293334422
8,27464878,알렉스더커피 성북점,서울 성북구 성북동 260-38,서울 성북구 성북로28길 9,070-7520-7714,카페,음식점 > 카페,http://place.map.kakao.com/27464878
9,327691864,모블러,서울 성북구 동선동3가 28,서울 성북구 동소문로26다길 26,,카페,음식점 > 카페,http://place.map.kakao.com/327691864
10,595329992,더홈서울,서울 성북구 삼선동5가 357,서울 성북구 고려대로1길 87,,카페,음식점 > 카페 > 커피전문점,http://place.map.kakao.com/595329992
11,828624861,카페그리다,서울 성북구 정릉동 691-5,서울 성북구 솔샘로 19,02-909-4987,카페,음식점 > 카페 > 테마카페 > 디저트카페,http://place.map.kakao.com/828624861
12,17884760,스타벅스 성신여대점,서울 성북구 동선동1가 92-1,서울 성북구 동소문로24길 12,1522-3232,카페,음식점 > 카페 > 커피전문점 > 스타벅스,http://place.map.kakao.com/17884760
13,964447498,정이정,서울 성북구 종암동 10-101,서울 성북구 종암로 82-15,,카페,음식점 > 카페,http://place.map.kakao.com/964447498
14,1893082733,카페비,서울 성북구 동선동2가 121-2,서울 성북구 보문로30길 71,02-921-7797,카페,음식점 > 카페,http://place.map.kakao.com/1893082733
15,864091669,커피매터스,서울 성북구 삼선동4가 85,서울 성북구 동소문로10길 19-1,070-8860-8147,카페,음식점 > 카페,http://place.map.kakao.com/864091669
16,746492402,헬로방방 돌곶이역점,서울 성북구 석관동 349-1,서울 성북구 화랑로 248,02-959-0077,카페,음식점 > 카페 > 테마카페 > 키즈카페,http://place.map.kakao.com/746492402
17,174376625,밀월,서울 성북구 동소문동4가 16,,,카페,음식점 > 카페,http://place.map.kakao.com/174376625
18,1774383267,로스디아스,서울 성북구 동선동2가 82,서울 성북구 동소문로22길 67,,카페,음식점 > 카페,http://place.map.kakao.com/1774383267
19,23779742,째즈스토리,서울 성북구 성북동 122-7,서울 성북구 혜화로 88,02-725-6537,카페,음식점 > 카페 > 테마카페 > 라이브카페,http://place.map.kakao.com/23779742
20,1879177739,스타벅스 성신여대정문,서울 성북구 동선동2가 134,서울 성북구 보문로34길 62,,카페,음식점 > 카페 > 커피전문점 > 스타벅스,http://place.map.kakao.com/1879177739
21,1432212706,네이버후드,서울 성북구 성북동 15-23,서울 성북구 대사관로 133,,카페,음식점 > 카페,http://place.map.kakao.com/1432212706
22,18522088,카페1976,서울 성북구 길음동 22-1,서울 성북구 도봉로 1,02-989-8613,카페,음식점 > 카페 > 테마카페 > 디저트카페,http://place.map.kakao.com/18522088
23,1925239650,스타벅스 종암DT점,서울 성북구 종암동 29-10,서울 성북구 종암로 17,1522-3232,카페,음식점 > 카페 > 커피전문점 > 스타벅스,http://place.map.kakao.com/1925239650
24,364220603,오후홍콩 성신여대점,서울 성북구 동선동1가 85-115,서울 성북구 동소문로24가길 16,02-6497-6787,카페,음식점 > 카페,http://place.map.kakao.com/364220603
25,1326586308,일일커피,서울 성북구 길음동 1249,서울 성북구 삼양로 27,070-8845-3583,카페,음식점 > 카페,http://place.map.kakao.com/1326586308
26,198229338,까쉬,서울 성북구 동선동2가 135-10,서울 성북구 보문로34길 72-5,,카페,음식점 > 카페 > 테마카페 > 디저트카페,http://place.map.kakao.com/198229338
27,11831570,일상,서울 성북구 성북동 100-1,서울 성북구 성북로 106,,카페,음식점 > 카페 > 커피전문점,http://place.map.kakao.com/11831570
28,1125682061,제뉴어리피크닉,서울 성북구 성북동1가 48,서울 성북구 창경궁로43길 26,,카페,음식점 > 카페,http://place.map.kakao.com/1125682061
29,1119289963,카페동선동,서울 성북구 동선동4가 122-3,서울 성북구 동소문로 129-2,,카페,음식점 > 카페 > 테마카페 > 디저트카페,http://place.map.kakao.com/1119289963
30,18691197,스타벅스 안암역점,서울 성북구 안암동5가 92,서울 성북구 고려대로 102-2,1522-3232,카페,음식점 > 카페 > 커피전문점 > 스타벅스,http://place.map.kakao.com/18691197
31,18996363,우드&브릭 성북점,서울 성북구 성북동 97-21,서울 성북구 성북로 120,02-741-1171,카페,음식점 > 카페 > 테마카페 > 디저트카페,http://place.map.kakao.com/18996363
32,879915397,오버스토리,서울 성북구 성북동 8-28,서울 성북구 선잠로2다길 13-13,,카페,음식점 > 카페,http://place.map.kakao.com/879915397
33,2066961828,원오프카페,서울 성북구 동선동2가 128,서울 성북구 동소문로22길 57-4,,카페,음식점 > 카페,http://place.map.kakao.com/2066961828
34,889014888,이씨네빵집,서울 성북구 삼선동5가 298-4,서울 성북구 보문로 173-2,02-6081-4152,카페,음식점 > 카페 > 테마카페 > 디저트카페,http://place.map.kakao.com/889014888
35,1468332961,프로젝트얼스,서울 성북구 성북동 126-31,서울 성북구 성북로15길 21,,카페,음식점 > 카페,http://place.map.kakao.com/1468332961
36,405171902,그릭데이 성신여대점,서울 성북구 동선동2가 135-29,서울 성북구 보문로34길 66,02-6053-9222,카페,음식점 > 카페 > 테마카페 > 디저트카페,http://place.map.kakao.com/405171902
37,956088782,바스크,서울 성북구 길음동 1171-14,서울 성북구 삼양로9길 10-2,02-941-5168,카페,음식점 > 카페,http://place.map.kakao.com/956088782
38,22895384,비나케이크,서울 성북구 보문동1가 1-12,서울 성북구 보문로30길 12,02-953-7070,카페,음식점 > 카페 > 테마카페 > 디저트카페,http://place.map.kakao.com/22895384
39,27198954,스타벅스 종암점,서울 성북구 종암동 3-686,서울 성북구 종암로 122,,카페,음식점 > 카페 > 커피전문점 > 스타벅스,http://place.map.kakao.com/27198954
40,7961278,스타벅스 고대점,서울 성북구 안암동5가 104-30,서울 성북구 고려대로24길 51,1522-3232,카페,음식점 > 카페 > 커피전문점 > 스타벅스,http://place.map.kakao.com/7961278
41,711914897,모던양갱집,서울 성북구 정릉동 266-98,서울 성북구 보국문로16길 72,,카페,음식점 > 카페 > 테마카페 > 디저트카페,http://place.map.kakao.com/711914897
42,27602223,커피하우스반달,서울 성북구 장위동 238-425,서울 성북구 장월로23길 5-10,,카페,음식점 > 카페 > 테마카페 > 디저트카페,http://place.map.kakao.com/27602223
43,332933530,네임드에스프레소,서울 성북구 동소문동1가 8,서울 성북구 성북로6길 2-2,02-765-5556,카페,음식점 > 카페 > 커피전문점,http://place.map.kakao.com/332933530
44,17757850,투썸플레이스 성신여대점,서울 성북구 동선동1가 3-2,서울 성북구 동소문로20다길 17,02-923-7707,카페,음식점 > 카페 > 커피전문점 > 투썸플레이스,http://place.map.kakao.com/17757850
0,2021943104,카페어니언 미아점,서울 강북구 미아동 127-9,서울 강북구 솔매로50길 55,070-7816-2714,카페,음식점 > 카페,http://place.map.kakao.com/2021943104
1,7888616,미즐카페엠,서울 강북구 수유동 535-11,서울 강북구 4.19로 107,02-999-5055,카페,음식점 > 카페,http://place.map.kakao.com/7888616
2,234080048,무너미,서울 강북구 수유동 222-78,서울 강북구 노해로8가길 40,02-0903-5058,카페,음식점 > 카페 > 커피전문점,http://place.map.kakao.com/234080048
3,2001336225,경계선,서울 강북구 수유동 516-62,서울 강북구 삼각산로 22-7,010-3957-7341,카페,음식점 > 카페 > 커피전문점,http://place.map.kakao.com/2001336225
4,394644903,카페멘디,서울 강북구 수유동 582-12,서울 강북구 4.19로8길 7-2,02-990-7832,카페,음식점 > 카페,http://place.map.kakao.com/394644903
5,2034455524,카페 산아래,서울 강북구 우이동 217-1,서울 강북구 삼양로181길 56,,카페,음식점 > 카페,http://place.map.kakao.com/2034455524
6,943203996,제이제곱,서울 강북구 미아동 54-46,서울 강북구 도봉로10나길 17,010-4883-4249,카페,음식점 > 카페,http://place.map.kakao.com/943203996
7,657378473,릴렉스,서울 강북구 우이동 238-1,서울 강북구 삼양로181길 142,,카페,음식점 > 카페,http://place.map.kakao.com/657378473
8,939649470,에이머그,서울 강북구 수유동 2-2,서울 강북구 노해로 21,02-6953-2629,카페,음식점 > 카페,http://place.map.kakao.com/939649470
9,1044086314,백란,서울 강북구 우이동 244-3,서울 강북구 삼양로181길 201-20,02-993-7745,카페,음식점 > 카페,http://place.map.kakao.com/1044086314
10,27020659,스타벅스 강북구청사거리점,서울 강북구 수유동 174-13,서울 강북구 도봉로 365,1522-3232,카페,음식점 > 카페 > 커피전문점 > 스타벅스,http://place.map.kakao.com/27020659
11,4331171,큐브이스케이프 수유점,서울 강북구 수유동 229-46,서울 강북구 도봉로87길 11,02-903-0706,카페,음식점 > 카페 > 테마카페,http://place.map.kakao.com/4331171
12,26572250,스타벅스 미아사거리역점,서울 강북구 미아동 35-30,서울 강북구 도봉로 32,1522-3232,카페,음식점 > 카페 > 커피전문점 > 스타벅스,http://place.map.kakao.com/26572250
13,325005868,투썸플레이스 미아사거리역점,서울 강북구 미아동 860-187,서울 강북구 도봉로10길 6,02-982-2500,카페,음식점 > 카페 > 커피전문점 > 투썸플레이스,http://place.map.kakao.com/325005868
14,10534106,스타벅스 수유역점,서울 강북구 번동 418-20,서울 강북구 도봉로 342,,카페,음식점 > 카페 > 커피전문점 > 스타벅스,http://place.map.kakao.com/10534106
15,1356390089,번418,서울 강북구 번동 418-13,서울 강북구 오패산로 414,02-907-5757,카페,음식점 > 카페 > 테마카페 > 디저트카페,http://place.map.kakao.com/1356390089
16,1305533873,노르웨이안우드,서울 강북구 수유동 192-33,서울 강북구 도봉로87길 32-6,02-999-3738,카페,음식점 > 카페,http://place.map.kakao.com/1305533873
17,1307504751,커피타는고양이,서울 강북구 미아동 35-27,서울 강북구 도봉로 34-8,02-980-9080,카페,음식점 > 카페 > 테마카페 > 고양이카페,http://place.map.kakao.com/1307504751
18,1583585647,스타벅스 미아뉴타운점,서울 강북구 미아동 812-2,서울 강북구 삼양로 161,,카페,음식점 > 카페 > 커피전문점 > 스타벅스,http://place.map.kakao.com/1583585647
19,104030976,숲속앵두나무카페,서울 강북구 번동 526-83,서울 강북구 덕릉로40다길 33-38,02-773-2517,카페,음식점 > 카페 > 테마카페 > 애견카페,http://place.map.kakao.com/104030976
20,856213664,다정도병인양,서울 강북구 수유동 567-6,서울 강북구 4.19로 41-1,02-990-4190,카페,음식점 > 카페 > 전통찻집,http://place.map.kakao.com/856213664
21,12108082,전광수커피하우스 북한산점,서울 강북구 수유동 535-76,서울 강북구 4.19로 97,02-991-0233,카페,음식점 > 카페 > 커피전문점,http://place.map.kakao.com/12108082
22,647290928,스타벅스 파라스파라서울점,서울 강북구 우이동 산 13-2,서울 강북구 삼양로 689,1522-3232,카페,음식점 > 카페 > 커피전문점 > 스타벅스,http://place.map.kakao.com/647290928
23,198411926,수유리조트,서울 강북구 수유동 221-18,서울 강북구 노해로8가길 45,02-990-9882,카페,음식점 > 카페,http://place.map.kakao.com/198411926
24,428271652,카페비르케,서울 강북구 수유동 567-7,서울 강북구 4.19로 43,02-997-5841,카페,음식점 > 카페 > 커피전문점,http://place.map.kakao.com/428271652
25,714285841,투썸플레이스 수유사거리점,서울 강북구 수유동 47-2,서울 강북구 도봉로 295,02-900-2388,카페,음식점 > 카페 > 커피전문점 > 투썸플레이스,http://place.map.kakao.com/714285841
26,23885367,삼양여관,서울 강북구 수유동 461-35,서울 강북구 덕릉로8길 6,010-7907-1296,카페,음식점 > 카페 > 커피전문점,http://place.map.kakao.com/23885367
27,1386475413,키쉬미뇽,서울 강북구 미아동 55-25,서울 강북구 도봉로10길 12,02-987-5553,카페,음식점 > 카페,http://place.map.kakao.com/1386475413
28,1171264693,월드보드카페,서울 강북구 수유동 229-33,서울 강북구 도봉로87길 9,02-6959-3213,카페,음식점 > 카페 > 테마카페 > 보드카페,http://place.map.kakao.com/1171264693
29,17884745,스타벅스 미아역점,서울 강북구 미아동 121-19,서울 강북구 도봉로 196,1522-3232,카페,음식점 > 카페 > 커피전문점 > 스타벅스,http://place.map.kakao.com/17884745
30,27478613,맨덜리,서울 강북구 수유동 56-92,서울 강북구 수유로 18,02-980-3721,카페,음식점 > 카페,http://place.map.kakao.com/27478613
31,20007815,엔제리너스 수유역점,서울 강북구 수유동 229-5,서울 강북구 도봉로 333,02-994-8556,카페,음식점 > 카페 > 커피전문점 > 엔제리너스,http://place.map.kakao.com/20007815
32,987554111,할리스 수유사거리점,서울 강북구 번동 446-7,서울 강북구 도봉로82길 11,070-5226-1999,카페,음식점 > 카페 > 커피전문점 > 할리스,http://place.map.kakao.com/987554111
33,1363689657,아띠랑스,서울 강북구 수유동 568-19,서울 강북구 4.19로 42-1,,카페,음식점 > 카페 > 테마카페 > 디저트카페,http://place.map.kakao.com/1363689657
34,26909639,투썸플레이스 미아테라스파크점,서울 강북구 미아동 811-9,서울 강북구 삼양로27길 43,02-985-2355,카페,음식점 > 카페 > 커피전문점 > 투썸플레이스,http://place.map.kakao.com/26909639
35,1575543638,카페문나잇,서울 강북구 미아동 121-47,서울 강북구 솔매로50길 7,070-4046-0915,카페,음식점 > 카페,http://place.map.kakao.com/1575543638
36,1477182775,리틀비틀 수유점,서울 강북구 수유동 188-26,서울 강북구 노해로 70,02-991-0664,카페,음식점 > 카페 > 테마카페 > 키즈카페,http://place.map.kakao.com/1477182775
37,1447421184,키치,서울 강북구 수유동 173-15,서울 강북구 도봉로 387,070-8244-0030,카페,음식점 > 카페,http://place.map.kakao.com/1447421184
38,1542847364,투썸플레이스 북한산우이역점,서울 강북구 우이동 4-1,서울 강북구 삼양로 685,02-993-9173,카페,음식점 > 카페 > 커피전문점 > 투썸플레이스,http://place.map.kakao.com/1542847364
39,1199751265,카페다담,서울 강북구 수유동 48-73,서울 강북구 덕릉로 64,010-9476-2098,카페,음식점 > 카페 > 테마카페 > 디저트카페,http://place.map.kakao.com/1199751265
40,1154248983,카페백야,서울 강북구 수유동 251-10,서울 강북구 노해로21길 7,,카페,음식점 > 카페,http://place.map.kakao.com/1154248983
41,1653778865,스파웃커피,서울 강북구 수유동 659-32,서울 강북구 노해로33길 49,,카페,음식점 > 카페,http://place.map.kakao.com/1653778865
42,27586571,키즈필 미아본점,서울 강북구 미아동 374-13,서울 강북구 솔샘로 327,1566-9210,카페,음식점 > 카페 > 테마카페 > 키즈카페,http://place.map.kakao.com/27586571
43,1931876722,투썸플레이스 북서울꿈의숲점,서울 강북구 번동 105-1,서울 강북구 월계로 183,02-542-7711,카페,음식점 > 카페 > 커피전문점 > 투썸플레이스,http://place.map.kakao.com/1931876722
44,1577225420,수유342,서울 강북구 수유동 342-2,서울 강북구 삼양로113길 17,02-908-3422,카페,음식점 > 카페,http://place.map.kakao.com/1577225420
0,1553976296,도봉관,서울 도봉구 창동 700-27,서울 도봉구 노해로 261,,카페,음식점 > 카페 > 테마카페 > 디저트카페,http://place.map.kakao.com/1553976296
1,24695495,카페오븐,서울 도봉구 창동 813,서울 도봉구 해등로16길 12,02-3141-0089,카페,음식점 > 카페 > 커피전문점,http://place.map.kakao.com/24695495
2,2113410227,카페작약,서울 도봉구 창동 659-1,서울 도봉구 도봉로118길 10,070-7740-0259,카페,음식점 > 카페 > 테마카페 > 디저트카페,http://place.map.kakao.com/2113410227
3,27393895,와겐커피 방학점,서울 도봉구 방학동 716-14,서울 도봉구 도봉로150마길 15,02-2277-3001,카페,음식점 > 카페 > 커피전문점,http://place.map.kakao.com/27393895
4,1789979058,몽상가 크레이프전문점,서울 도봉구 방학동 675-33,서울 도봉구 도봉로143길 30,02-0202-0202,카페,음식점 > 카페 > 테마카페 > 디저트카페,http://place.map.kakao.com/1789979058
5,635306818,꿀소담,서울 도봉구 창동 269-4,서울 도봉구 해등로16길 67,,카페,음식점 > 카페,http://place.map.kakao.com/635306818
6,27440655,쌍문동커피,서울 도봉구 창동 658-49,서울 도봉구 도봉로116길 5,,카페,음식점 > 카페 > 커피전문점,http://place.map.kakao.com/27440655
7,462897050,카페그리너리티,서울 도봉구 창동 667-5,서울 도봉구 노해로62길 80,010-2514-6469,카페,음식점 > 카페,http://place.map.kakao.com/462897050
8,1985501177,카페152길,서울 도봉구 도봉동 622-64,서울 도봉구 도봉로152길 29-3,02-954-1520,카페,음식점 > 카페 > 테마카페 > 디저트카페,http://place.map.kakao.com/1985501177
9,19530655,산과산사이커피로드,서울 도봉구 도봉동 44-5,서울 도봉구 도봉로180가길 96,070-4177-8197,카페,음식점 > 카페,http://place.map.kakao.com/19530655
10,119532698,카페방학,서울 도봉구 방학동 264-46,서울 도봉구 도당로6길 30-6,070-4117-9055,카페,음식점 > 카페 > 커피전문점,http://place.map.kakao.com/119532698
11,447862448,카페더로비,서울 도봉구 방학동 670-1,서울 도봉구 방학로 171-5,02-954-1715,카페,음식점 > 카페,http://place.map.kakao.com/447862448
12,22547060,스타벅스 쌍문역점,서울 도봉구 창동 659-5,서울 도봉구 도봉로 480,1522-3232,카페,음식점 > 카페 > 커피전문점 > 스타벅스,http://place.map.kakao.com/22547060
13,1336295111,매일이기념일,서울 도봉구 쌍문동 103-30,서울 도봉구 우이천로24길 69,010-9013-7962,카페,음식점 > 카페,http://place.map.kakao.com/1336295111
14,2002605651,도봉산커피,서울 도봉구 도봉동 282-316,서울 도봉구 도봉산4가길 4,010-9945-7145,카페,음식점 > 카페 > 커피전문점,http://place.map.kakao.com/2002605651
15,1757795758,세라젬웰카페 서울쌍문직영점,서울 도봉구 쌍문동 656,서울 도봉구 도봉로 571,02-6949-5325,카페,음식점 > 카페 > 테마카페,http://place.map.kakao.com/1757795758
16,1246426011,로로옴,서울 도봉구 도봉동 92-71,서울 도봉구 도봉로152가길 152,02-6091-8800,카페,음식점 > 카페,http://place.map.kakao.com/1246426011
17,2084988667,키웨스트 연산군묘점,서울 도봉구 방학동 584,서울 도봉구 방학로17길 85,,카페,음식점 > 카페,http://place.map.kakao.com/2084988667
18,697641350,스타벅스 창동이마트점,서울 도봉구 창동 75-3,서울 도봉구 노해로65길 4,1522-3232,카페,음식점 > 카페 > 커피전문점 > 스타벅스,http://place.map.kakao.com/697641350
19,519080844,스타벅스 쌍문도봉로점,서울 도봉구 창동 650-45,서울 도봉구 도봉로 444,,카페,음식점 > 카페 > 커피전문점 > 스타벅스,http://place.map.kakao.com/519080844
20,38242363,디아망 강북본점,서울 도봉구 쌍문동 653,서울 도봉구 도봉로 575,02-997-0210,카페,음식점 > 카페 > 테마카페 > 키즈카페,http://place.map.kakao.com/38242363
21,1340630386,스타벅스 방학역점,서울 도봉구 방학동 707-6,서울 도봉구 도봉로 684,1522-3232,카페,음식점 > 카페 > 커피전문점 > 스타벅스,http://place.map.kakao.com/1340630386
22,1087965647,온도감,서울 도봉구 방학동 695,서울 도봉구 도당로 66-1,,카페,음식점 > 카페,http://place.map.kakao.com/1087965647
23,20937361,모래스푼,서울 도봉구 쌍문동 311,서울 도봉구 시루봉로 2,02-996-5252,카페,음식점 > 카페 > 테마카페 > 키즈카페,http://place.map.kakao.com/20937361
24,1668192705,카페7179,서울 도봉구 창동 676-77,서울 도봉구 도봉로110길 97,010-9870-9717,카페,음식점 > 카페 > 테마카페 > 디저트카페,http://place.map.kakao.com/1668192705
25,21544366,투썸플레이스 창동역점,서울 도봉구 창동 9-2,서울 도봉구 노해로 381,02-994-2388,카페,음식점 > 카페 > 커피전문점 > 투썸플레이스,http://place.map.kakao.com/21544366
26,491600096,오픈더도어,서울 도봉구 쌍문동 88-21,서울 도봉구 도봉로 489,,카페,음식점 > 카페,http://place.map.kakao.com/491600096
27,27417038,이탈리안G,서울 도봉구 방학동 703-65,서울 도봉구 도봉로 675,02-955-7214,카페,음식점 > 카페,http://place.map.kakao.com/27417038
28,779650889,카페에덴,서울 도봉구 방학동 596-1,서울 도봉구 방학로 306,02-3491-3331,카페,음식점 > 카페 > 커피전문점,http://place.map.kakao.com/779650889
29,21927608,만남의광장,서울 도봉구 도봉동 288-20,,02-956-4545,카페,음식점 > 카페,http://place.map.kakao.com/21927608
30,17736089,투썸플레이스 쌍문역점,서울 도봉구 쌍문동 96-4,서울 도봉구 도봉로 461,02-998-2377,카페,음식점 > 카페 > 커피전문점 > 투썸플레이스,http://place.map.kakao.com/17736089
31,25531123,설빙 쌍문점,서울 도봉구 창동 655-11,서울 도봉구 도봉로 460,02-991-0077,카페,음식점 > 카페 > 테마카페 > 디저트카페 > 설빙,http://place.map.kakao.com/25531123
32,861389811,투썸플레이스 방학역점,서울 도봉구 방학동 706-9,서울 도봉구 도봉로 696,02-954-7799,카페,음식점 > 카페 > 커피전문점 > 투썸플레이스,http://place.map.kakao.com/861389811
33,21605277,투썸플레이스 도봉보건소점,서울 도봉구 창동 715-1,서울 도봉구 도봉로 578,,카페,음식점 > 카페 > 커피전문점 > 투썸플레이스,http://place.map.kakao.com/21605277
34,1915489402,디저트도본,서울 도봉구 쌍문동 103-159,서울 도봉구 우이천로 288-3,070-7543-3557,카페,음식점 > 카페 > 테마카페 > 디저트카페,http://place.map.kakao.com/1915489402
35,346649554,투썸플레이스 쌍문중앙점,서울 도봉구 창동 659-4,서울 도봉구 도봉로 482,02-991-2377,카페,음식점 > 카페 > 커피전문점 > 투썸플레이스,http://place.map.kakao.com/346649554
36,27347024,카미노커피로스터스,서울 도봉구 방학동 671-18,서울 도봉구 도당로 46,,카페,음식점 > 카페,http://place.map.kakao.com/27347024
37,945235417,키블리 창동점,서울 도봉구 창동 826,서울 도봉구 도봉로136가길 73,02-905-2484,카페,음식점 > 카페 > 테마카페 > 키즈카페,http://place.map.kakao.com/945235417
38,609301855,카페푸쿠푸쿠,서울 도봉구 쌍문동 309-21,서울 도봉구 노해로45길 17,0507-1303-5711,카페,음식점 > 카페 > 커피전문점,http://place.map.kakao.com/609301855
39,2025938087,키즈팡팡 쌍문점,서울 도봉구 쌍문동 358,서울 도봉구 우이천로32길 38,02-904-3210,카페,음식점 > 카페 > 테마카페 > 키즈카페,http://place.map.kakao.com/2025938087
40,933788438,무수울카페,서울 도봉구 도봉동 435-18,서울 도봉구 도봉로173길 124,,카페,음식점 > 카페,http://place.map.kakao.com/933788438
41,4013599,커피스미스 도봉역점,서울 도봉구 도봉동 92-55,서울 도봉구 도봉로152가길 176,02-948-6900,카페,음식점 > 카페 > 커피전문점,http://place.map.kakao.com/4013599
42,27575377,창포원북카페 비상,서울 도봉구 도봉동 4-1,서울 도봉구 마들로 916,02-954-5254,카페,음식점 > 카페 > 테마카페 > 북카페,http://place.map.kakao.com/27575377
43,122599399,카페고르,서울 도봉구 창동 651-31,서울 도봉구 도봉로112길 38,,카페,음식점 > 카페,http://place.map.kakao.com/122599399
44,1762898207,마이림,서울 도봉구 쌍문동 449-7,서울 도봉구 우이천로34길 13,,카페,음식점 > 카페 > 테마카페 > 디저트카페,http://place.map.kakao.com/1762898207
0,872257394,라라브레드 공릉점,서울 노원구 공릉동 350-24,서울 노원구 공릉로41길 32,1800-2790,카페,음식점 > 카페 > 테마카페 > 디저트카페,http://place.map.kakao.com/872257394
1,586007148,감각,서울 노원구 상계동 337,서울 노원구 상계로 77,070-7576-4177,카페,음식점 > 카페,http://place.map.kakao.com/586007148
2,19696160,시드누아 노원본점,서울 노원구 상계동 341-5,서울 노원구 상계로 84,02-938-9559,카페,음식점 > 카페,http://place.map.kakao.com/19696160
3,1571140539,상상과자점,서울 노원구 공릉동 504-15,서울 노원구 동일로186길 77-7,02-977-8838,카페,음식점 > 카페 > 테마카페 > 디저트카페,http://place.map.kakao.com/1571140539
4,153487369,표준커피,서울 노원구 공릉동 589-21,서울 노원구 공릉로 119-5,0507-1314-7603,카페,음식점 > 카페,http://place.map.kakao.com/153487369
5,990866386,카페드미셸,서울 노원구 공릉동 670-25,서울 노원구 화랑로 441,02-971-1100,카페,음식점 > 카페,http://place.map.kakao.com/990866386
6,985778800,시즌,서울 노원구 상계동 358-6,서울 노원구 상계로3길 38-2,,카페,음식점 > 카페 > 테마카페 > 디저트카페,http://place.map.kakao.com/985778800
7,1488538685,샛별제과,서울 노원구 상계동 397-4,서울 노원구 상계로9길 23,,카페,음식점 > 카페 > 테마카페 > 디저트카페,http://place.map.kakao.com/1488538685
8,1826125340,스타벅스 공릉DT점,서울 노원구 공릉동 597-34,서울 노원구 동일로 1015,1522-3232,카페,음식점 > 카페 > 커피전문점 > 스타벅스,http://place.map.kakao.com/1826125340
9,1520080778,던모스,서울 노원구 공릉동 320-107,서울 노원구 공릉로27길 8,010-3244-5044,카페,음식점 > 카페 > 테마카페 > 디저트카페,http://place.map.kakao.com/1520080778
10,17688746,커피베스코,서울 노원구 상계동 693-3,서울 노원구 상계로 55,,카페,음식점 > 카페 > 커피전문점,http://place.map.kakao.com/17688746
11,818423534,따미커피,서울 노원구 공릉동 644-24,서울 노원구 공릉로 120,070-7793-1201,카페,음식점 > 카페 > 커피전문점,http://place.map.kakao.com/818423534
12,231176219,스윗레시피,서울 노원구 상계동 591-25,서울 노원구 상계로1길 38,02-6494-1004,카페,음식점 > 카페 > 테마카페 > 디저트카페,http://place.map.kakao.com/231176219
13,104777847,아너카페,서울 노원구 공릉동 389-12,서울 노원구 동일로192다길 9,,카페,음식점 > 카페,http://place.map.kakao.com/104777847
14,19469879,스타벅스 노원역점,서울 노원구 상계동 712,서울 노원구 동일로 1413,1522-3232,카페,음식점 > 카페 > 커피전문점 > 스타벅스,http://place.map.kakao.com/19469879
15,206091656,위플랜트위커피,서울 노원구 공릉동 587-1,서울 노원구 동일로178길 59-39,,카페,음식점 > 카페 > 커피전문점,http://place.map.kakao.com/206091656
16,1800821127,스타벅스 상계초교사거리점,서울 노원구 상계동 372-16,서울 노원구 노원로 449,1522-3232,카페,음식점 > 카페 > 커피전문점 > 스타벅스,http://place.map.kakao.com/1800821127
17,1338966452,무드쉐어,서울 노원구 공릉동 589-16,서울 노원구 공릉로 119-23,070-8286-6626,카페,음식점 > 카페,http://place.map.kakao.com/1338966452
18,2080972721,스타벅스 노원마들역점,서울 노원구 상계동 694,서울 노원구 노원로 569,1522-3232,카페,음식점 > 카페 > 커피전문점 > 스타벅스,http://place.map.kakao.com/2080972721
19,799469641,스타벅스 공릉역,서울 노원구 공릉동 379-27,서울 노원구 동일로 1081,1522-3232,카페,음식점 > 카페 > 커피전문점 > 스타벅스,http://place.map.kakao.com/799469641
20,1161456883,더메이즈 노원점,서울 노원구 상계동 357-8,서울 노원구 상계로5길 26,02-6012-2620,카페,음식점 > 카페 > 테마카페,http://place.map.kakao.com/1161456883
21,1513264138,몽실디저트,서울 노원구 상계동 693-1,서울 노원구 상계로 51,010-3072-9855,카페,음식점 > 카페 > 테마카페 > 디저트카페,http://place.map.kakao.com/1513264138
22,82447262,오피셜커피,서울 노원구 공릉동 506-34,서울 노원구 동일로184길 69-7,,카페,음식점 > 카페,http://place.map.kakao.com/82447262
23,20046343,스타벅스 중계역점,서울 노원구 상계동 763-3,서울 노원구 동일로 1339,1522-3232,카페,음식점 > 카페 > 커피전문점 > 스타벅스,http://place.map.kakao.com/20046343
24,17757837,투썸플레이스 노원문화의거리점,서울 노원구 상계동 593-14,서울 노원구 상계로 69,02-935-2388,카페,음식점 > 카페 > 커피전문점 > 투썸플레이스,http://place.map.kakao.com/17757837
25,27583400,502세컨즈카페 노원점,서울 노원구 하계동 270,서울 노원구 섬밭로 232,070-4465-7996,카페,음식점 > 카페,http://place.map.kakao.com/27583400
26,394316415,파브커피,서울 노원구 공릉동 506-29,서울 노원구 동일로186길 76,,카페,음식점 > 카페,http://place.map.kakao.com/394316415
27,216150274,오누이,서울 노원구 공릉동 400-17,서울 노원구 동일로187길 12-47,,카페,음식점 > 카페,http://place.map.kakao.com/216150274
28,18691127,스타벅스 노원KT점,서울 노원구 상계동 723,서울 노원구 노해로 502,1522-3232,카페,음식점 > 카페 > 커피전문점 > 스타벅스,http://place.map.kakao.com/18691127
29,1454424295,블루마일스커피로스터즈,서울 노원구 공릉동 392-21,서울 노원구 동일로190길 65,02-979-1003,카페,음식점 > 카페 > 커피전문점,http://place.map.kakao.com/1454424295
30,1840820291,미라쥬양과점,서울 노원구 공릉동 362-12,서울 노원구 동일로196길 15,010-2006-9433,카페,음식점 > 카페 > 테마카페 > 디저트카페,http://place.map.kakao.com/1840820291
31,944088477,스타벅스 태릉입구역DT,서울 노원구 공릉동 653-8,서울 노원구 화랑로 469,,카페,음식점 > 카페 > 커피전문점 > 스타벅스,http://place.map.kakao.com/944088477
32,18039621,커피콩,서울 노원구 공릉동 380-51,서울 노원구 동일로191가길 19,02-977-6164,카페,음식점 > 카페 > 커피전문점,http://place.map.kakao.com/18039621
33,101891212,플로레스테이블,서울 노원구 상계동 1305,서울 노원구 상계로5길 12,02-931-9312,카페,음식점 > 카페 > 테마카페 > 디저트카페,http://place.map.kakao.com/101891212
34,27229512,에슬로우커피 공릉점,서울 노원구 공릉동 90-4,서울 노원구 노원로 3,02-949-4542,카페,음식점 > 카페 > 커피전문점,http://place.map.kakao.com/27229512
35,1321281310,커피빈 노원역점,서울 노원구 상계동 724-1,서울 노원구 노해로 490,02-952-9577,카페,음식점 > 카페 > 커피전문점 > 커피빈,http://place.map.kakao.com/1321281310
36,1927286862,디저트식탁,서울 노원구 상계동 602-8,서울 노원구 상계로1길 14-29,02-930-3313,카페,음식점 > 카페 > 테마카페 > 디저트카페,http://place.map.kakao.com/1927286862
37,1910112179,이너모스트,서울 노원구 공릉동 494-4,서울 노원구 동일로183길 12-14,,카페,음식점 > 카페,http://place.map.kakao.com/1910112179
38,975733166,플랫커피,서울 노원구 공릉동 349-8,서울 노원구 공릉로39길 20,070-8614-8747,카페,음식점 > 카페 > 커피전문점,http://place.map.kakao.com/975733166
39,1366601562,비엔나커피하우스 노원역점,서울 노원구 상계동 711-13,서울 노원구 동일로 1417,02-932-1683,카페,음식점 > 카페 > 커피전문점,http://place.map.kakao.com/1366601562
40,485967615,1일1잔,서울 노원구 월계동 472-45,서울 노원구 광운로2길 6,02-941-8911,카페,음식점 > 카페 > 테마카페 > 디저트카페,http://place.map.kakao.com/485967615
41,10538293,스타벅스 은행사거리점,서울 노원구 중계동 360-6,서울 노원구 중계로 217,,카페,음식점 > 카페 > 커피전문점 > 스타벅스,http://place.map.kakao.com/10538293
42,1764989514,르다,서울 노원구 상계동 396-6,서울 노원구 상계로9길 28,02-938-5599,카페,음식점 > 카페,http://place.map.kakao.com/1764989514
43,26927344,에이치큐브,서울 노원구 공릉동 240-243,서울 노원구 노원로1길 73-12,,카페,음식점 > 카페,http://place.map.kakao.com/26927344
44,1619812580,카페기차가있는풍경,서울 노원구 공릉동 29-4,서울 노원구 화랑로 608,02-2116-4398,카페,음식점 > 카페,http://place.map.kakao.com/1619812580
0,670102239,1인1잔,서울 은평구 진관동 219,서울 은평구 연서로 534,02-355-1111,카페,음식점 > 카페,http://place.map.kakao.com/670102239
1,566932126,카페뤽상부르,서울 은평구 갈현동 481-13,서울 은평구 연서로25길 6-11,02-385-2846,카페,음식점 > 카페 > 커피전문점,http://place.map.kakao.com/566932126
2,841369143,근린커피,서울 은평구 응암동 579-33,서울 은평구 응암로21길 23,070-7715-5300,카페,음식점 > 카페,http://place.map.kakao.com/841369143
3,514604405,롱브레드 은평한옥마을점,서울 은평구 진관동 219-2,서울 은평구 연서로 530,02-352-7290,카페,음식점 > 카페 > 테마카페,http://place.map.kakao.com/514604405
4,1994915181,YM커피프로젝트,서울 은평구 갈현동 452-26,서울 은평구 연서로29길 21-8,070-7767-0829,카페,음식점 > 카페 > 커피전문점,http://place.map.kakao.com/1994915181
5,428776706,플로,서울 은평구 녹번동 82-41,서울 은평구 서오릉로 20-1,02-355-4862,카페,음식점 > 카페,http://place.map.kakao.com/428776706
6,1059714707,휴가,서울 은평구 진관동 74,서울 은평구 진관2로 19,02-352-7400,카페,음식점 > 카페 > 커피전문점,http://place.map.kakao.com/1059714707
7,1333160596,카페볼가심,서울 은평구 진관동 198-7,서울 은평구 진관길 10,,카페,음식점 > 카페,http://place.map.kakao.com/1333160596
8,862753029,213점,서울 은평구 응암동 120-39,서울 은평구 응암로21가길 27,02-356-7312,카페,음식점 > 카페,http://place.map.kakao.com/862753029
9,1460285187,북한산큰숲제빵소,서울 은평구 진관동 296-12,서울 은평구 북한산로 271-3,02-2267-9001,카페,음식점 > 카페,http://place.map.kakao.com/1460285187
10,1532325160,플럽커피,서울 은평구 갈현동 456-12,서울 은평구 연서로29길 7-11,,카페,음식점 > 카페,http://place.map.kakao.com/1532325160
11,24765609,스타벅스 은평구청입구점,서울 은평구 응암동 96-1,서울 은평구 은평로 170,1522-3232,카페,음식점 > 카페 > 커피전문점 > 스타벅스,http://place.map.kakao.com/24765609
12,1722687087,823m,서울 은평구 갈현동 453-22,서울 은평구 연서로29길 21-9,02-2088-1823,카페,음식점 > 카페 > 테마카페 > 디저트카페,http://place.map.kakao.com/1722687087
13,293547899,선과점,서울 은평구 역촌동 191-2,서울 은평구 갈현로7가길 11,,카페,음식점 > 카페,http://place.map.kakao.com/293547899
14,356891147,카페미제,서울 은평구 역촌동 83-39,서울 은평구 연서로 19,,카페,음식점 > 카페 > 테마카페,http://place.map.kakao.com/356891147
15,1484410257,스타벅스 불광역점,서울 은평구 대조동 15-9,서울 은평구 통일로 715,1522-3232,카페,음식점 > 카페 > 커피전문점 > 스타벅스,http://place.map.kakao.com/1484410257
16,27294965,도토리카페,서울 은평구 진관동 279-36,서울 은평구 대서문길 15-5,02-385-4949,카페,음식점 > 카페,http://place.map.kakao.com/27294965
17,38547227,온도차,서울 은평구 녹번동 117-64,서울 은평구 녹번로 74,070-8861-6622,카페,음식점 > 카페,http://place.map.kakao.com/38547227
18,690365890,알키미스타,서울 은평구 응암동 592-61,서울 은평구 응암로9길 24,02-6104-5803,카페,음식점 > 카페 > 테마카페 > 북카페,http://place.map.kakao.com/690365890
19,2143276770,해례커피,서울 은평구 갈현동 430-1,서울 은평구 통일로83길 19,,카페,음식점 > 카페 > 커피전문점,http://place.map.kakao.com/2143276770
20,158505473,카페아사,서울 은평구 응암동 591-19,서울 은평구 불광천길 338,070-4950-2577,카페,음식점 > 카페,http://place.map.kakao.com/158505473
21,1034381485,볼베어파크 은평점,서울 은평구 진관동 67-31,서울 은평구 통일로 1050,02-6975-5363,카페,음식점 > 카페 > 테마카페 > 키즈카페,http://place.map.kakao.com/1034381485
22,1200602899,명금탕,서울 은평구 진관동 205-6,서울 은평구 진관길 5,02-739-0394,카페,음식점 > 카페 > 전통찻집,http://place.map.kakao.com/1200602899
23,26900385,스타벅스 구파발역점,서울 은평구 진관동 90-1,서울 은평구 진관2로 12,1522-3232,카페,음식점 > 카페 > 커피전문점 > 스타벅스,http://place.map.kakao.com/26900385
24,27543867,탐나도다,서울 은평구 갈현동 403-3,서울 은평구 통일로83길 5-14,02-384-9292,카페,음식점 > 카페,http://place.map.kakao.com/27543867
25,420721827,카페달력,서울 은평구 대조동 50-2,서울 은평구 연서로18길 28-2,070-7376-0910,카페,음식점 > 카페,http://place.map.kakao.com/420721827
26,1892822049,투썸플레이스 은평구청점,서울 은평구 응암동 81-173,서울 은평구 은평로 194,02-352-1433,카페,음식점 > 카페 > 커피전문점 > 투썸플레이스,http://place.map.kakao.com/1892822049
27,2047684329,힐링앤툰,서울 은평구 녹번동 141-8,서울 은평구 진흥로 144,0507-1415-9852,카페,음식점 > 카페 > 테마카페 > 만화카페,http://place.map.kakao.com/2047684329
28,17884764,스타벅스 구산역점,서울 은평구 대조동 224-14,서울 은평구 연서로 146,1522-3232,카페,음식점 > 카페 > 커피전문점 > 스타벅스,http://place.map.kakao.com/17884764
29,2045961313,스타벅스 연신내역사거리점,서울 은평구 불광동 308-1,서울 은평구 통일로 842,1522-3232,카페,음식점 > 카페 > 커피전문점 > 스타벅스,http://place.map.kakao.com/2045961313
30,811506917,스타벅스 진관DT점,서울 은평구 진관동 2-8,서울 은평구 연서로 645,,카페,음식점 > 카페 > 커피전문점 > 스타벅스,http://place.map.kakao.com/811506917
31,588867706,코피티암,서울 은평구 갈현동 481-4,서울 은평구 연서로27길 7-1,070-7651-8837,카페,음식점 > 카페,http://place.map.kakao.com/588867706
32,840743372,스타벅스 연신내점,서울 은평구 갈현동 395-6,서울 은평구 통일로 867,1522-3232,카페,음식점 > 카페 > 커피전문점 > 스타벅스,http://place.map.kakao.com/840743372
33,1697604977,로즈드마이,서울 은평구 응암동 592-62,서울 은평구 불광천길 312,02-6401-4679,카페,음식점 > 카페,http://place.map.kakao.com/1697604977
34,1078109037,카페메이트,서울 은평구 역촌동 27-10,서울 은평구 진흥로 85,,카페,음식점 > 카페,http://place.map.kakao.com/1078109037
35,969659468,어뮤즈멜로우,서울 은평구 갈현동 453-12,서울 은평구 연서로27길 20,02-2088-2612,카페,음식점 > 카페 > 테마카페 > 디저트카페,http://place.map.kakao.com/969659468
36,16470972,커피생각,서울 은평구 응암동 583-34,서울 은평구 불광천길 420,02-302-1400,카페,음식점 > 카페,http://place.map.kakao.com/16470972
37,1538810539,카페와인드,서울 은평구 응암동 103-9,서울 은평구 응암로34가길 17,,카페,음식점 > 카페,http://place.map.kakao.com/1538810539
38,445319809,제이츠커피브루어스,서울 은평구 갈현동 484-2,서울 은평구 연서로25길 20-3,070-8822-3375,카페,음식점 > 카페,http://place.map.kakao.com/445319809
39,1065228229,오핀로스터리,서울 은평구 진관동 327-2,서울 은평구 북한산로 234,031-856-5555,카페,음식점 > 카페 > 커피전문점,http://place.map.kakao.com/1065228229
40,27588085,할리스 연신내점,서울 은평구 대조동 199-28,서울 은평구 연서로 212,02-388-3977,카페,음식점 > 카페 > 커피전문점 > 할리스,http://place.map.kakao.com/27588085
41,1140878978,와이엠에스프레소룸,서울 은평구 진관동 64-42,서울 은평구 진관3로 67,070-7767-0829,카페,음식점 > 카페,http://place.map.kakao.com/1140878978
42,1366817206,폴스타베이커스,서울 은평구 갈현동 326-40,서울 은평구 서오릉로 256,02-6941-0256,카페,음식점 > 카페,http://place.map.kakao.com/1366817206
43,1971745290,큐리키즈카페,서울 은평구 진관동 74,서울 은평구 진관2로 19,02-388-6561,카페,음식점 > 카페 > 테마카페 > 키즈카페,http://place.map.kakao.com/1971745290
44,96176172,커피디지 응암본점,서울 은평구 신사동 15-59,서울 은평구 갈현로1길 16-1,02-6084-0095,카페,음식점 > 카페,http://place.map.kakao.com/96176172
0,445165609,앤트러사이트 연희점,서울 서대문구 연희동 89-19,서울 서대문구 연희로 135,02-332-7650,카페,음식점 > 카페 > 커피전문점,http://place.map.kakao.com/445165609
1,273114016,콘하스 연희점,서울 서대문구 연희동 90-1,서울 서대문구 연희로27길 99,02-325-0792,카페,음식점 > 카페,http://place.map.kakao.com/273114016
2,1011256721,더파이홀,서울 서대문구 창천동 57-61,서울 서대문구 연세로5나길 20,02-334-1181,카페,음식점 > 카페 > 커피전문점,http://place.map.kakao.com/1011256721
3,8109317,토즈모임센터 신촌본점,서울 서대문구 창천동 18-55,서울 서대문구 연세로 10-1,02-392-0117,카페,"서비스,산업 > 전문대행 > 공간대여 > 모임공간 > 토즈모임센터",http://place.map.kakao.com/8109317
4,18826661,독수리다방,서울 서대문구 창천동 31-4,서울 서대문구 연세로 36,02-363-1222,카페,음식점 > 카페 > 다방,http://place.map.kakao.com/18826661
5,21542432,매뉴팩트커피 연희본점,서울 서대문구 연희동 130-2,서울 서대문구 연희로11길 29,02-6406-8777,카페,음식점 > 카페,http://place.map.kakao.com/21542432
6,577825774,그릭데이 이대점,서울 서대문구 대현동 27-33,서울 서대문구 신촌역로 22-8,02-363-9222,카페,음식점 > 카페 > 테마카페 > 디저트카페,http://place.map.kakao.com/577825774
7,1467009878,스웨이커피스테이션,서울 서대문구 연희동 126-1,서울 서대문구 연희로11길 61,02-6348-0061,카페,음식점 > 카페,http://place.map.kakao.com/1467009878
8,8122805,클로리스 신촌점,서울 서대문구 창천동 13-35,서울 서대문구 연세로4길 38,02-392-7523,카페,음식점 > 카페,http://place.map.kakao.com/8122805
9,27201991,하이드미플리즈,서울 서대문구 홍제동 330-226,서울 서대문구 통일로39나길 5,02-394-2015,카페,음식점 > 카페 > 테마카페 > 디저트카페,http://place.map.kakao.com/27201991
10,569185007,롯지190,서울 서대문구 연희동 170-3,서울 서대문구 홍제천로 190,,카페,음식점 > 카페,http://place.map.kakao.com/569185007
11,17434509,벙커1,서울 서대문구 충정로3가 270,서울 서대문구 충정로 20,02-771-7707,카페,음식점 > 카페,http://place.map.kakao.com/17434509
12,205823441,로덴드론,서울 서대문구 연희동 90-8,서울 서대문구 연희로25길 82,02-332-2288,카페,음식점 > 카페 > 커피전문점,http://place.map.kakao.com/205823441
13,19852273,호밀밭,서울 서대문구 창천동 4-77,서울 서대문구 신촌역로 43,02-392-5345,카페,음식점 > 카페,http://place.map.kakao.com/19852273
14,1980694762,푸어링아웃,서울 서대문구 연희동 128-27,서울 서대문구 연희로11나길 7-7,,카페,음식점 > 카페,http://place.map.kakao.com/1980694762
15,961299046,올레무스,서울 서대문구 연희동 220-40,서울 서대문구 연희로5길 58,,카페,음식점 > 카페,http://place.map.kakao.com/961299046
16,1290437759,헬로방방 남가좌충암점,서울 서대문구 남가좌동 1-2,서울 서대문구 명지대길 103,02-372-4857,카페,음식점 > 카페 > 테마카페 > 키즈카페,http://place.map.kakao.com/1290437759
17,17153633,와플잇업 이대2호점,서울 서대문구 대현동 27-17,서울 서대문구 이화여대3길 42-19,070-4410-2829,카페,음식점 > 카페 > 테마카페 > 디저트카페,http://place.map.kakao.com/17153633
18,560241790,원앤온리커피,서울 서대문구 대현동 37-7,서울 서대문구 이화여대7길 31-4,,카페,음식점 > 카페,http://place.map.kakao.com/560241790
19,16418510,미네르바,서울 서대문구 창천동 13-26,서울 서대문구 명물길 18,02-3147-1327,카페,음식점 > 카페 > 커피전문점,http://place.map.kakao.com/16418510
20,33873746,프로토콜,서울 서대문구 연희동 137-1,서울 서대문구 연희로 109,010-3927-6159,카페,음식점 > 카페 > 커피전문점,http://place.map.kakao.com/33873746
21,26571462,스타벅스 연희DT점,서울 서대문구 연희동 87-8,서울 서대문구 연희로 144,1522-3232,카페,음식점 > 카페 > 커피전문점 > 스타벅스,http://place.map.kakao.com/26571462
22,13594462,에이투지카페,서울 서대문구 창천동 13-14,서울 서대문구 연세로4길 29,02-313-7523,카페,음식점 > 카페 > 커피전문점,http://place.map.kakao.com/13594462
23,550496093,디폴트밸류,서울 서대문구 연희동 192-17,서울 서대문구 성산로 333,02-2293-3889,카페,음식점 > 카페,http://place.map.kakao.com/550496093
24,838351158,베어스덴,서울 서대문구 창천동 441,서울 서대문구 연희로4길 10,02-6449-0204,카페,음식점 > 카페 > 테마카페 > 디저트카페,http://place.map.kakao.com/838351158
25,1542251042,룸익스케이프 화이트점,서울 서대문구 창천동 5-21,서울 서대문구 명물길 66,02-393-5689,카페,음식점 > 카페 > 테마카페,http://place.map.kakao.com/1542251042
26,1520672825,레드버튼 신촌점,서울 서대문구 창천동 18-31,서울 서대문구 연세로 8,02-363-3799,카페,음식점 > 카페 > 테마카페 > 보드카페,http://place.map.kakao.com/1520672825
27,11221603,투썸플레이스 신촌점,서울 서대문구 창천동 30-8,서울 서대문구 신촌로 93,02-3142-5995,카페,음식점 > 카페 > 커피전문점 > 투썸플레이스,http://place.map.kakao.com/11221603
28,10538396,스타벅스 신촌점,서울 서대문구 창천동 18-55,서울 서대문구 연세로 10-1,1522-3232,카페,음식점 > 카페 > 커피전문점 > 스타벅스,http://place.map.kakao.com/10538396
29,24879347,설빙 신촌점,서울 서대문구 창천동 33-43,서울 서대문구 연세로 23,070-7716-8970,카페,음식점 > 카페 > 테마카페 > 디저트카페 > 설빙,http://place.map.kakao.com/24879347
30,1480755504,보틀라운지,서울 서대문구 연희동 708,서울 서대문구 홍연길 26,02-3144-0703,카페,음식점 > 카페,http://place.map.kakao.com/1480755504
31,23446983,시간이머무는홍차가게,서울 서대문구 연희동 69-3,서울 서대문구 연희로16길 7-15,070-4843-3541,카페,음식점 > 카페,http://place.map.kakao.com/23446983
32,895804381,연희커피,서울 서대문구 연희동 189-4,서울 서대문구 연희맛로 17-21,,카페,음식점 > 카페 > 커피전문점,http://place.map.kakao.com/895804381
33,2060053572,스타벅스 가재울뉴타운점,서울 서대문구 남가좌동 385,서울 서대문구 가재울미래로 2,1522-3232,카페,음식점 > 카페 > 커피전문점 > 스타벅스,http://place.map.kakao.com/2060053572
34,8117216,티앙팡 오후에 홍차 1호점,서울 서대문구 대현동 54-4,서울 서대문구 이화여대길 34,02-364-4196,카페,음식점 > 카페,http://place.map.kakao.com/8117216
35,143734770,스타벅스 홍제역점,서울 서대문구 홍제동 301-19,서울 서대문구 통일로 451,1522-3232,카페,음식점 > 카페 > 커피전문점 > 스타벅스,http://place.map.kakao.com/143734770
36,685757963,롤리홀리,서울 서대문구 홍제동 307-12,서울 서대문구 통일로39길 43,070-7773-2194,카페,음식점 > 카페,http://place.map.kakao.com/685757963
37,725420477,스타벅스 이대R점,서울 서대문구 대현동 54-4,서울 서대문구 이화여대길 34,1522-3232,카페,음식점 > 카페 > 커피전문점 > 스타벅스,http://place.map.kakao.com/725420477
38,1199276033,벤치커피스튜디오,서울 서대문구 대현동 104-18,서울 서대문구 연세로2마길 14,02-365-5999,카페,음식점 > 카페,http://place.map.kakao.com/1199276033
39,27494928,꽃피다이화다방,서울 서대문구 대현동 37-1,서울 서대문구 이화여대길 75,02-313-1905,카페,음식점 > 카페,http://place.map.kakao.com/27494928
40,473697180,연희대공원,서울 서대문구 연희동 273-9,서울 서대문구 연희로11가길 42,,카페,음식점 > 카페 > 테마카페,http://place.map.kakao.com/473697180
41,458225000,스타벅스 북가좌DT점,서울 서대문구 북가좌동 309-16,서울 서대문구 응암로 85,1522-3232,카페,음식점 > 카페 > 커피전문점 > 스타벅스,http://place.map.kakao.com/458225000
42,1662439887,로네펠트 서대문점,서울 서대문구 충정로2가 78,서울 서대문구 충정로 71-5,02-313-1823,카페,음식점 > 카페,http://place.map.kakao.com/1662439887
43,1432966034,스타벅스 연희동점,서울 서대문구 연희동 188-2,서울 서대문구 연희로 97,1522-3232,카페,음식점 > 카페 > 커피전문점 > 스타벅스,http://place.map.kakao.com/1432966034
44,2020240735,포티드,서울 서대문구 창천동 5-58,서울 서대문구 명물길 36-3,070-7543-6627,카페,음식점 > 카페,http://place.map.kakao.com/2020240735
0,1585571653,토즈모임센터 홍대점,서울 마포구 연남동 567-42,서울 마포구 연남로 13,02-336-0112,카페,"서비스,산업 > 전문대행 > 공간대여 > 모임공간 > 토즈모임센터",http://place.map.kakao.com/1585571653
1,447132083,어반플랜트 합정,서울 마포구 합정동 363-28,서울 마포구 독막로4길 3,070-4192-0378,카페,음식점 > 카페,http://place.map.kakao.com/447132083
2,24529429,프릳츠 도화점,서울 마포구 도화동 179-9,서울 마포구 새창로2길 17,02-3275-2045,카페,음식점 > 카페 > 테마카페 > 디저트카페,http://place.map.kakao.com/24529429
3,26235884,피오니 홍대점,서울 마포구 서교동 395-78,서울 마포구 독막로7길 51,02-333-5325,카페,음식점 > 카페,http://place.map.kakao.com/26235884
4,53292857,943킹스크로스,서울 마포구 서교동 369-1,서울 마포구 양화로16길 24,02-3144-2112,카페,음식점 > 카페,http://place.map.kakao.com/53292857
5,1797970569,카페공명,서울 마포구 동교동 146-8,서울 마포구 연희로 11,070-8869-6304,카페,음식점 > 카페,http://place.map.kakao.com/1797970569
6,922091993,비파티세리 공덕점,서울 마포구 공덕동 105-67,서울 마포구 마포대로14길 4,02-702-1220,카페,음식점 > 카페,http://place.map.kakao.com/922091993
7,502958473,카페 레이어드 연남점,서울 마포구 연남동 223-20,서울 마포구 성미산로 161-4,,카페,음식점 > 카페 > 테마카페 > 디저트카페,http://place.map.kakao.com/502958473
8,12518512,앤트러사이트 합정점,서울 마포구 합정동 357-6,서울 마포구 토정로5길 10,02-336-7850,카페,음식점 > 카페 > 커피전문점,http://place.map.kakao.com/12518512
9,1513265709,포비 합정점,서울 마포구 합정동 426-18,서울 마포구 양화로3길 66,02-566-3861,카페,음식점 > 카페,http://place.map.kakao.com/1513265709
10,657926243,앤트러사이트 서교점,서울 마포구 서교동 475-22,서울 마포구 월드컵로12길 11,02-336-7650,카페,음식점 > 카페,http://place.map.kakao.com/657926243
11,26485620,오츠커피 마포점,서울 마포구 상수동 328-2,서울 마포구 독막로14길 32,070-7806-5542,카페,음식점 > 카페 > 커피전문점,http://place.map.kakao.com/26485620
12,966554753,땡스오트 연남점,서울 마포구 연남동 375-113,서울 마포구 성미산로23길 68,02-3144-0890,카페,음식점 > 카페 > 테마카페 > 디저트카페,http://place.map.kakao.com/966554753
13,27248379,테일러커피 서교점,서울 마포구 서교동 338-1,서울 마포구 와우산로27길 7,02-334-0355,카페,음식점 > 카페 > 커피전문점,http://place.map.kakao.com/27248379
14,23634722,1984,서울 마포구 동교동 158-24,서울 마포구 동교로 194,02-325-1984,카페,음식점 > 카페 > 테마카페 > 북카페,http://place.map.kakao.com/23634722
15,1960387368,톤앤매너,서울 마포구 서교동 337-10,서울 마포구 와우산로29가길 13,02-332-8252,카페,음식점 > 카페,http://place.map.kakao.com/1960387368
16,11553130,커피리브레 연남점,서울 마포구 연남동 227-38,서울 마포구 성미산로 200,02-334-0615,카페,음식점 > 카페 > 커피전문점,http://place.map.kakao.com/11553130
17,123575123,당인리책발전소,서울 마포구 서교동 475-26,서울 마포구 월드컵로14길 10-8,,카페,음식점 > 카페 > 테마카페 > 북카페,http://place.map.kakao.com/123575123
18,24855092,빈브라더스 합정점,서울 마포구 합정동 368-3,서울 마포구 토정로 35-1,02-6012-2001,카페,음식점 > 카페 > 커피전문점,http://place.map.kakao.com/24855092
19,1007372949,오랑지,서울 마포구 연남동 390-71,서울 마포구 동교로38길 13,,카페,음식점 > 카페,http://place.map.kakao.com/1007372949
20,26966842,콜린,서울 마포구 서교동 403-13,서울 마포구 어울마당로 45,02-3141-1119,카페,음식점 > 카페 > 테마카페,http://place.map.kakao.com/26966842
21,1922103551,샌드커피 논탄토,서울 마포구 동교동 153-14,서울 마포구 동교로 212-16,02-336-8020,카페,음식점 > 카페,http://place.map.kakao.com/1922103551
22,20808938,커피가게동경,서울 마포구 망원동 410-1,서울 마포구 망원로6길 21,070-4845-0619,카페,음식점 > 카페 > 커피전문점,http://place.map.kakao.com/20808938
23,71785169,키쉬미뇽,서울 마포구 서교동 394-16,서울 마포구 양화로6길 35,02-333-3466,카페,음식점 > 카페,http://place.map.kakao.com/71785169
24,8126494,토즈모임센터 신촌비즈센터,서울 마포구 노고산동 106-5,서울 마포구 서강로 136,02-718-0113,카페,"서비스,산업 > 전문대행 > 공간대여 > 모임공간 > 토즈모임센터",http://place.map.kakao.com/8126494
25,27481601,딥블루레이크,서울 마포구 망원동 411-12,서울 마포구 포은로6길 11,02-333-8532,카페,음식점 > 카페,http://place.map.kakao.com/27481601
26,1040119941,디벙크,서울 마포구 합정동 366-1,서울 마포구 성지1길 30,02-6930-5598,카페,음식점 > 카페,http://place.map.kakao.com/1040119941
27,27508963,테일러커피 연남1호점,서울 마포구 연남동 224-41,서울 마포구 성미산로 189,02-326-0355,카페,음식점 > 카페,http://place.map.kakao.com/27508963
28,320756645,딩가케이크,서울 마포구 연남동 252-18,서울 마포구 동교로29길 68,,카페,음식점 > 카페 > 테마카페 > 디저트카페,http://place.map.kakao.com/320756645
29,111850276,얼스어스,서울 마포구 연남동 239-49,서울 마포구 성미산로 150,,카페,음식점 > 카페,http://place.map.kakao.com/111850276
30,1710643353,브런치가,서울 마포구 동교동 204-29,서울 마포구 월드컵북로4길 39,02-735-0263,카페,음식점 > 카페,http://place.map.kakao.com/1710643353
31,10368349,땡스네이쳐,서울 마포구 서교동 486,서울 마포구 홍익로 10,02-332-7470,카페,음식점 > 카페,http://place.map.kakao.com/10368349
32,500916307,작당모의,서울 마포구 연남동 381-15,서울 마포구 동교로32길 19,070-8838-3815,카페,음식점 > 카페,http://place.map.kakao.com/500916307
33,26966117,버터밀크,서울 마포구 창전동 6-131,서울 마포구 와우산로 130,,카페,음식점 > 카페,http://place.map.kakao.com/26966117
34,27494588,아이엠베이글 공덕점,서울 마포구 공덕동 476,서울 마포구 백범로 152,070-7718-2881,카페,음식점 > 카페 > 테마카페 > 디저트카페,http://place.map.kakao.com/27494588
35,15985522,이미커피,서울 마포구 동교동 201-10,서울 마포구 동교로25길 7,02-6368-5228,카페,음식점 > 카페,http://place.map.kakao.com/15985522
36,1178288045,콩카페 연남점,서울 마포구 연남동 223-114,서울 마포구 성미산로 161-14,070-4131-0333,카페,음식점 > 카페,http://place.map.kakao.com/1178288045
37,436951953,시루케이크,서울 마포구 합정동 355-8,서울 마포구 어울마당로1길 18,070-4177-7700,카페,음식점 > 카페 > 테마카페 > 떡카페,http://place.map.kakao.com/436951953
38,996972400,연남방앗간,서울 마포구 연남동 257-22,서울 마포구 동교로29길 34,,카페,음식점 > 카페,http://place.map.kakao.com/996972400
39,2082554607,밤부베이커리&브루잉,서울 마포구 합정동 386-11,서울 마포구 월드컵로5길 33-23,02-3144-0446,카페,음식점 > 카페 > 테마카페 > 디저트카페,http://place.map.kakao.com/2082554607
40,11933564,W카페,서울 마포구 동교동 200-18,서울 마포구 동교로25길 16,070-7818-7953,카페,음식점 > 카페,http://place.map.kakao.com/11933564
41,24532689,허밍벨라,서울 마포구 서교동 395-199,서울 마포구 독막로7길 57,02-324-7050,카페,음식점 > 카페,http://place.map.kakao.com/24532689
42,1419330175,모아새,서울 마포구 망원동 395-17,서울 마포구 포은로 71,0507-1304-5881,카페,음식점 > 카페 > 테마카페 > 디저트카페,http://place.map.kakao.com/1419330175
43,1246652450,비트포비아 홍대던전점,서울 마포구 서교동 396-46,서울 마포구 독막로3길 30,02-322-4997,카페,음식점 > 카페 > 테마카페,http://place.map.kakao.com/1246652450
44,975758911,카페스콘,서울 마포구 연남동 239-4,서울 마포구 성미산로 172,02-323-7076,카페,음식점 > 카페,http://place.map.kakao.com/975758911
0,300323196,커피별녹색잔,서울 양천구 신정동 988-14,서울 양천구 목동로21길 26,02-2696-3337,카페,음식점 > 카페 > 커피전문점,http://place.map.kakao.com/300323196
1,203376580,카페제하,서울 양천구 신정동 318-12,서울 양천구 목동동로 177,,카페,음식점 > 카페,http://place.map.kakao.com/203376580
2,333169963,더브라운 목동점,서울 양천구 목동 404-13,서울 양천구 오목로 354,,카페,음식점 > 카페 > 테마카페 > 디저트카페,http://place.map.kakao.com/333169963
3,26900383,스타벅스 신월ICDT점,서울 양천구 신월동 205-48,서울 양천구 남부순환로 430,1522-3232,카페,음식점 > 카페 > 커피전문점 > 스타벅스,http://place.map.kakao.com/26900383
4,1737262840,스타벅스 신정DT점,서울 양천구 신정동 981-15,서울 양천구 신월로 341,1522-3232,카페,음식점 > 카페 > 커피전문점 > 스타벅스,http://place.map.kakao.com/1737262840
5,480014306,하니앤손스,서울 양천구 목동 404-5,서울 양천구 신목로2길 68,02-2651-8989,카페,음식점 > 카페,http://place.map.kakao.com/480014306
6,853330963,헬로방방 목동점,서울 양천구 신정동 1009-4,서울 양천구 신월로 387,02-2696-8034,카페,음식점 > 카페 > 테마카페 > 키즈카페,http://place.map.kakao.com/853330963
7,26909836,스타벅스 오목교역점,서울 양천구 목동 404-13,서울 양천구 오목로 354,1522-3232,카페,음식점 > 카페 > 커피전문점 > 스타벅스,http://place.map.kakao.com/26909836
8,27178625,패닉이스케이프 목동지점,서울 양천구 신정동 902-5,서울 양천구 신정중앙로 96,02-6408-5044,카페,음식점 > 카페 > 테마카페,http://place.map.kakao.com/27178625
9,1457114935,아모르버터,서울 양천구 신정동 998-15,서울 양천구 오목로48길 20-1,02-2601-9739,카페,음식점 > 카페 > 테마카페 > 디저트카페,http://place.map.kakao.com/1457114935
10,1387417961,파티세리소나 2호점,서울 양천구 신정동 89-16,서울 양천구 신목로12길 8,02-6404-4454,카페,음식점 > 카페 > 테마카페 > 디저트카페,http://place.map.kakao.com/1387417961
11,27264276,퍼블릭맨션,서울 양천구 목동 324-55,서울 양천구 등촌로 154,02-2654-6695,카페,음식점 > 카페,http://place.map.kakao.com/27264276
12,758470503,스타벅스 목동역점,서울 양천구 신정동 900-10,서울 양천구 목동로 203,,카페,음식점 > 카페 > 커피전문점 > 스타벅스,http://place.map.kakao.com/758470503
13,2105594814,카페꼬숩,서울 양천구 신정동 128-112,서울 양천구 신목로4길 1,02-2653-2249,카페,음식점 > 카페 > 테마카페 > 디저트카페,http://place.map.kakao.com/2105594814
14,505681949,달다랗다,서울 양천구 신정동 1016-7,서울 양천구 은행정로6길 22,010-2062-3201,카페,음식점 > 카페 > 테마카페 > 디저트카페,http://place.map.kakao.com/505681949
15,939764391,도쿄빙수 오목교역점,서울 양천구 목동 405-284,서울 양천구 오목로 328,02-2644-6568,카페,음식점 > 카페 > 테마카페 > 디저트카페,http://place.map.kakao.com/939764391
16,1989650151,스타벅스 목동8단지점,서울 양천구 신정동 319-23,서울 양천구 목동서로 299,1522-3232,카페,음식점 > 카페 > 커피전문점 > 스타벅스,http://place.map.kakao.com/1989650151
17,964935317,스타벅스 신월동DT,서울 양천구 신월동 52-14,서울 양천구 남부순환로 319,1522-3232,카페,음식점 > 카페 > 커피전문점 > 스타벅스,http://place.map.kakao.com/964935317
18,1468196303,카페히든,서울 양천구 목동 406-122,서울 양천구 목동동로 222-6,070-8774-1774,카페,음식점 > 카페 > 테마카페 > 디저트카페,http://place.map.kakao.com/1468196303
19,1905255381,설빙 목동점,서울 양천구 목동 934,서울 양천구 목동동로 258,070-8883-0334,카페,음식점 > 카페 > 테마카페 > 디저트카페 > 설빙,http://place.map.kakao.com/1905255381
20,256577644,카페화목토,서울 양천구 신정동 1008-12,서울 양천구 목동로11길 5,02-6403-1105,카페,음식점 > 카페,http://place.map.kakao.com/256577644
21,926070592,스타벅스 목동10단지점,서울 양천구 신정동 324-7,서울 양천구 목동서로 401,,카페,음식점 > 카페 > 커피전문점 > 스타벅스,http://place.map.kakao.com/926070592
22,617333242,스타벅스 등촌역점,서울 양천구 목동 602-2,서울 양천구 공항대로 566,1522-3232,카페,음식점 > 카페 > 커피전문점 > 스타벅스,http://place.map.kakao.com/617333242
23,1910467865,테디랩,서울 양천구 신정동 1024-1,서울 양천구 신월로36길 11,070-8722-4441,카페,음식점 > 카페,http://place.map.kakao.com/1910467865
24,16095622,에프스토리,서울 양천구 목동 406-290,서울 양천구 오목로 321-5,,카페,음식점 > 카페,http://place.map.kakao.com/16095622
25,334882918,카페스페이스530,서울 양천구 목동 530-5,서울 양천구 목동중앙본로 122,,카페,음식점 > 카페,http://place.map.kakao.com/334882918
26,961605125,카페올리,서울 양천구 신월동 519-17,서울 양천구 오목로4길 15,,카페,음식점 > 카페 > 테마카페 > 디저트카페,http://place.map.kakao.com/961605125
27,389160790,스타벅스 목동오목로점,서울 양천구 목동 406-4,서울 양천구 오목로 279,,카페,음식점 > 카페 > 커피전문점 > 스타벅스,http://place.map.kakao.com/389160790
28,7961580,스타벅스 목동점,서울 양천구 목동 907-4,서울 양천구 목동서로 67,,카페,음식점 > 카페 > 커피전문점 > 스타벅스,http://place.map.kakao.com/7961580
29,277928483,라헬의부엌 목동점,서울 양천구 목동 406-28,서울 양천구 오목로 345,070-4121-1020,카페,음식점 > 카페 > 테마카페 > 디저트카페,http://place.map.kakao.com/277928483
30,1554012701,커피집 이공,서울 양천구 신정동 987-7,서울 양천구 오목로 204,,카페,음식점 > 카페 > 커피전문점,http://place.map.kakao.com/1554012701
31,1973568744,투썸플레이스 목동하이페리온점,서울 양천구 목동 961,서울 양천구 오목로 300,02-2652-2388,카페,음식점 > 카페 > 커피전문점 > 투썸플레이스,http://place.map.kakao.com/1973568744
32,1459148300,퀸즈브라운 목동역점,서울 양천구 신정동 989-10,서울 양천구 오목로46길 6,02-2604-8222,카페,음식점 > 카페,http://place.map.kakao.com/1459148300
33,1898322959,비엔나커피하우스 목동7단지점,서울 양천구 목동 923-11,서울 양천구 목동서로 211,02-2655-1683,카페,음식점 > 카페 > 커피전문점,http://place.map.kakao.com/1898322959
34,255158813,카페아리네,서울 양천구 목동 406-114,서울 양천구 목동동로 222-11,02-2648-5735,카페,음식점 > 카페,http://place.map.kakao.com/255158813
35,265491129,젠틀카롱,서울 양천구 신정동 1007-11,서울 양천구 목동로 163,,카페,음식점 > 카페,http://place.map.kakao.com/265491129
36,13049554,스타벅스 목동파라곤점,서울 양천구 목동 917,서울 양천구 목동서로 155,1522-3232,카페,음식점 > 카페 > 커피전문점 > 스타벅스,http://place.map.kakao.com/13049554
37,478112901,리모트,서울 양천구 목동 717-14,서울 양천구 목동중앙본로7길 34,070-8879-0401,카페,음식점 > 카페 > 커피전문점,http://place.map.kakao.com/478112901
38,1664553439,투썸플레이스 남부지방법원점,서울 양천구 신정동 1009-15,서울 양천구 신월로 385,02-2607-2377,카페,음식점 > 카페 > 커피전문점 > 투썸플레이스,http://place.map.kakao.com/1664553439
39,360893773,프레쉬모먼트카페,서울 양천구 신정동 969-18,서울 양천구 중앙로46길 7,,카페,음식점 > 카페,http://place.map.kakao.com/360893773
40,236144404,커피그레이드,서울 양천구 신월동 445-2,서울 양천구 중앙로51길 71,,카페,음식점 > 카페,http://place.map.kakao.com/236144404
41,20596704,이디야커피 오목교대학학원점,서울 양천구 목동 406-35,서울 양천구 오목로 319,02-2651-0511,카페,음식점 > 카페 > 커피전문점 > 이디야커피,http://place.map.kakao.com/20596704
42,1744622139,투썸플레이스 신정네거리점,서울 양천구 신정동 1183-8,서울 양천구 중앙로 261,02-6952-9797,카페,음식점 > 카페 > 커피전문점 > 투썸플레이스,http://place.map.kakao.com/1744622139
43,18694487,코나빈스,서울 양천구 신월동 961-4,서울 양천구 지양로 72,,카페,음식점 > 카페 > 커피전문점,http://place.map.kakao.com/18694487
44,26410047,스타벅스 목동7단지점,서울 양천구 목동 923,서울 양천구 목동서로 213,1522-3232,카페,음식점 > 카페 > 커피전문점 > 스타벅스,http://place.map.kakao.com/26410047
0,1943025765,고양이정원,서울 강서구 개화동 559-49,서울 강서구 개화동로19길 18,02-2665-4507,카페,음식점 > 카페 > 테마카페 > 고양이카페,http://place.map.kakao.com/1943025765
1,1688973510,카페우드진,서울 강서구 마곡동 772-5,서울 강서구 마곡중앙6로 45,02-6052-0116,카페,음식점 > 카페 > 커피전문점,http://place.map.kakao.com/1688973510
2,16682720,고양이똥,서울 강서구 등촌1동 647-62,서울 강서구 공항대로59가길 13,02-6013-1281,카페,음식점 > 카페 > 테마카페,http://place.map.kakao.com/16682720
3,851969193,브루클린커피,서울 강서구 내발산동 652-1,서울 강서구 강서로52길 16,02-3664-5595,카페,음식점 > 카페 > 커피전문점,http://place.map.kakao.com/851969193
4,2117253986,헤리스헤이스,서울 강서구 마곡동 774-5,서울 강서구 마곡동로3길 26,010-8863-9532,카페,음식점 > 카페 > 커피전문점,http://place.map.kakao.com/2117253986
5,27417322,브런치팩토리,서울 강서구 마곡동 721-9,서울 강서구 마곡중앙로 36,070-4136-2631,카페,음식점 > 카페 > 테마카페 > 디저트카페,http://place.map.kakao.com/27417322
6,1771238411,소장식물전,서울 강서구 공항동 66-60,서울 강서구 공항대로2길 36,,카페,음식점 > 카페,http://place.map.kakao.com/1771238411
7,1445156015,광화문살롱,서울 강서구 등촌동 639-23,서울 강서구 공항대로45길 63,02-2668-3966,카페,음식점 > 카페,http://place.map.kakao.com/1445156015
8,650424536,어나더사이드,서울 강서구 내발산동 677,서울 강서구 강서로 318,02-3665-9877,카페,음식점 > 카페,http://place.map.kakao.com/650424536
9,1593193993,인라이크,서울 강서구 마곡동 348-3,서울 강서구 양천로30길 103,070-7789-3344,카페,음식점 > 카페 > 테마카페 > 디저트카페,http://place.map.kakao.com/1593193993
10,1294099295,광화문살롱 마곡나루점,서울 강서구 마곡동 757,서울 강서구 마곡중앙로 161-8,02-6989-8989,카페,음식점 > 카페 > 테마카페 > 디저트카페,http://place.map.kakao.com/1294099295
11,837824252,고양이똥 3호점,서울 강서구 등촌동 655,서울 강서구 공항대로45길 30,02-2694-0285,카페,음식점 > 카페,http://place.map.kakao.com/837824252
12,470408699,스타벅스 화곡DT점,서울 강서구 화곡동 772-67,서울 강서구 등촌로 57,,카페,음식점 > 카페 > 커피전문점 > 스타벅스,http://place.map.kakao.com/470408699
13,1433534125,스타벅스 마곡나루,서울 강서구 마곡동 759-3,서울 강서구 마곡중앙로 161-17,1522-3232,카페,음식점 > 카페 > 커피전문점 > 스타벅스,http://place.map.kakao.com/1433534125
14,440767015,구도커피,서울 강서구 등촌동 565-18,서울 강서구 등촌로35길 121,02-6348-2460,카페,음식점 > 카페 > 커피전문점,http://place.map.kakao.com/440767015
15,1524391732,카페움플레이트,서울 강서구 마곡동 747,서울 강서구 마곡중앙1로 72,02-2662-5881,카페,음식점 > 카페 > 커피전문점,http://place.map.kakao.com/1524391732
16,482613052,스타벅스 방화DT,서울 강서구 방화동 293-4,서울 강서구 방화대로 375,1522-3232,카페,음식점 > 카페 > 커피전문점 > 스타벅스,http://place.map.kakao.com/482613052
17,76277836,스타벅스 마곡사이언스타워R,서울 강서구 마곡동 727-500,서울 강서구 마곡동로 62,1522-3232,카페,음식점 > 카페 > 커피전문점 > 스타벅스,http://place.map.kakao.com/76277836
18,94707509,하롱하롱,서울 강서구 마곡동 759-1,서울 강서구 마곡서로 152,,카페,음식점 > 카페,http://place.map.kakao.com/94707509
19,1384786431,벌툰 까치산역점,서울 강서구 화곡동 343-52,서울 강서구 강서로 43,070-7612-0018,카페,음식점 > 카페 > 테마카페 > 만화카페,http://place.map.kakao.com/1384786431
20,61350952,헤이더그린,서울 강서구 오쇠동 114-7,,,카페,음식점 > 카페,http://place.map.kakao.com/61350952
21,26617152,스타벅스 화곡동점,서울 강서구 화곡동 1073-10,서울 강서구 화곡로 142,,카페,음식점 > 카페 > 커피전문점 > 스타벅스,http://place.map.kakao.com/26617152
22,1606956635,이층창가 (휴업중),서울 강서구 화곡동 61-28,서울 강서구 까치산로 46,02-2603-3342,카페,음식점 > 카페 > 테마카페 > 디저트카페,http://place.map.kakao.com/1606956635
23,23325994,스타벅스 발산역,서울 강서구 등촌동 678-14,서울 강서구 강서로 388,1522-3232,카페,음식점 > 카페 > 커피전문점 > 스타벅스,http://place.map.kakao.com/23325994
24,2021829896,벌툰 마곡발산점,서울 강서구 마곡동 727-1176,서울 강서구 공항대로 247,02-6738-1105,카페,음식점 > 카페 > 테마카페 > 만화카페,http://place.map.kakao.com/2021829896
25,1660750406,쉐드커피,서울 강서구 마곡동 773-2,서울 강서구 마곡중앙6로 16,,카페,음식점 > 카페 > 테마카페 > 디저트카페,http://place.map.kakao.com/1660750406
26,20046342,스타벅스 까치산역점,서울 강서구 화곡동 343-1,서울 강서구 강서로13길 3,1522-3232,카페,음식점 > 카페 > 커피전문점 > 스타벅스,http://place.map.kakao.com/20046342
27,1143075069,스타벅스 마곡역,서울 강서구 마곡동 728-234,서울 강서구 공항대로 168,1522-3232,카페,음식점 > 카페 > 커피전문점 > 스타벅스,http://place.map.kakao.com/1143075069
28,528909972,꿀팟만화보드카페,서울 강서구 마곡동 759-3,서울 강서구 마곡중앙로 161-17,02-6925-1414,카페,음식점 > 카페 > 테마카페 > 만화카페,http://place.map.kakao.com/528909972
29,1371420528,빌리엔젤 마곡점,서울 강서구 마곡동 727-500,서울 강서구 마곡동로 62,02-3663-6864,카페,음식점 > 카페 > 테마카페 > 디저트카페,http://place.map.kakao.com/1371420528
30,1578796891,스타벅스 마곡나루공원,서울 강서구 마곡동 731-62,서울 강서구 마곡중앙5로 47,1522-3232,카페,음식점 > 카페 > 커피전문점 > 스타벅스,http://place.map.kakao.com/1578796891
31,933760076,카페비쥬,서울 강서구 내발산동 699-9,서울 강서구 강서로47다길 17,,카페,음식점 > 카페,http://place.map.kakao.com/933760076
32,423099390,고양이후추,서울 강서구 염창동 261-13,서울 강서구 공항대로59다길 267,010-8081-2389,카페,음식점 > 카페 > 테마카페 > 디저트카페,http://place.map.kakao.com/423099390
33,709297181,비엔나커피하우스 마곡나루역점,서울 강서구 마곡동 365-15,서울 강서구 마곡중앙5로1길 20,02-2093-6575,카페,음식점 > 카페 > 커피전문점,http://place.map.kakao.com/709297181
34,17066752,카카오독애견카페 목동점,서울 강서구 화곡동 782-11,서울 강서구 곰달래로60길 33,02-2652-6727,카페,음식점 > 카페 > 테마카페 > 애견카페,http://place.map.kakao.com/17066752
35,1166806934,플루이드,서울 강서구 마곡동 727-1180,서울 강서구 마곡중앙6로 70,070-7543-5080,카페,음식점 > 카페 > 커피전문점,http://place.map.kakao.com/1166806934
36,183746494,맥켄지커피 까치산역점,서울 강서구 화곡동 343-3,서울 강서구 강서로 47-6,02-2604-6323,카페,음식점 > 카페,http://place.map.kakao.com/183746494
37,2053852189,빌리엔젤 마곡역점,서울 강서구 마곡동 799-5,서울 강서구 마곡중앙로 56,02-2664-3230,카페,음식점 > 카페,http://place.map.kakao.com/2053852189
38,27500873,카페소금다방,서울 강서구 염창동 271,서울 강서구 공항대로61길 42,070-4242-3443,카페,음식점 > 카페,http://place.map.kakao.com/27500873
39,227130319,153도씨,서울 강서구 마곡동 760-2,서울 강서구 마곡중앙로 161-1,010-8853-0153,카페,음식점 > 카페 > 테마카페 > 디저트카페,http://place.map.kakao.com/227130319
40,1037105014,스타벅스 가양역점,서울 강서구 등촌동 73-1,서울 강서구 양천로 476,1522-3232,카페,음식점 > 카페 > 커피전문점 > 스타벅스,http://place.map.kakao.com/1037105014
41,91305203,투썸플레이스 마곡점,서울 강서구 마곡동 727-1064,서울 강서구 마곡중앙6로 40,02-3662-5800,카페,음식점 > 카페 > 커피전문점 > 투썸플레이스,http://place.map.kakao.com/91305203
42,1529498058,스타벅스 양천향교역,서울 강서구 마곡동 727-26,서울 강서구 강서로 463,1522-3232,카페,음식점 > 카페 > 커피전문점 > 스타벅스,http://place.map.kakao.com/1529498058
43,1010426293,스타벅스 마곡GMG,서울 강서구 마곡동 773-2,서울 강서구 마곡중앙6로 16,1522-3232,카페,음식점 > 카페 > 커피전문점 > 스타벅스,http://place.map.kakao.com/1010426293
44,2045647248,카페 우드진 마곡나루점,서울 강서구 마곡동 365-15,서울 강서구 마곡중앙로 161-8,02-6989-8108,카페,음식점 > 카페,http://place.map.kakao.com/2045647248
0,14984169,메이비,서울 구로구 구로동 1124-49,서울 구로구 디지털로32나길 51,02-859-3073,카페,음식점 > 카페,http://place.map.kakao.com/14984169
1,1342180005,에버애프터,서울 구로구 구로동 27-11,서울 구로구 새말로18길 36-10,070-7543-1098,카페,음식점 > 카페 > 커피전문점,http://place.map.kakao.com/1342180005
2,25489976,브라운핸즈 디지털단지구로점,서울 구로구 구로동 1130-61,서울 구로구 디지털로32다길 52,02-852-3137,카페,음식점 > 카페 > 커피전문점,http://place.map.kakao.com/25489976
3,924229434,밀리커피,서울 구로구 구로동 산 1-11,서울 구로구 새말로 62,,카페,음식점 > 카페,http://place.map.kakao.com/924229434
4,649227503,히어로스터 신도림점,서울 구로구 신도림동 382-2,서울 구로구 경인로63길 21-8,,카페,음식점 > 카페,http://place.map.kakao.com/649227503
5,1820106061,데일리스위츠,서울 구로구 고척동 76-28,서울 구로구 중앙로 9,02-877-6126,카페,음식점 > 카페 > 테마카페 > 디저트카페,http://place.map.kakao.com/1820106061
6,18691090,스타벅스 구로호텔점,서울 구로구 구로동 1128-1,서울 구로구 디지털로32길 72,1522-3232,카페,음식점 > 카페 > 커피전문점 > 스타벅스,http://place.map.kakao.com/18691090
7,1979449725,투썸플레이스 구로디지털역깔깔거리점,서울 구로구 구로동 1124-1,서울 구로구 디지털로32길 97-39,02-855-7791,카페,음식점 > 카페 > 커피전문점 > 투썸플레이스,http://place.map.kakao.com/1979449725
8,299076887,카페몽글,서울 구로구 구로동 30-23,서울 구로구 공원로6나길 29-17,02-854-4620,카페,음식점 > 카페,http://place.map.kakao.com/299076887
9,4357040,스타벅스 신도림점,서울 구로구 신도림동 413-9,서울 구로구 경인로 610,1522-3232,카페,음식점 > 카페 > 커피전문점 > 스타벅스,http://place.map.kakao.com/4357040
10,61473709,하이드아웃,서울 구로구 개봉동 403-219,서울 구로구 개봉로20길 30,010-7135-5970,카페,음식점 > 카페 > 커피전문점,http://place.map.kakao.com/61473709
11,26395497,빈브라더스 현대백화점디큐브시티점,서울 구로구 신도림동 692,서울 구로구 경인로 662,02-2210-9351,카페,음식점 > 카페 > 커피전문점,http://place.map.kakao.com/26395497
12,90143444,라크라센타,서울 구로구 구로동 83,서울 구로구 가마산로 242,02-866-6202,카페,음식점 > 카페,http://place.map.kakao.com/90143444
13,26310921,설빙 구로지밸리점,서울 구로구 구로동 188-25,서울 구로구 디지털로 300,02-6344-3959,카페,음식점 > 카페 > 테마카페 > 디저트카페 > 설빙,http://place.map.kakao.com/26310921
14,27224586,카페큐브,서울 구로구 신도림동 692,서울 구로구 경인로 662,02-2211-6603,카페,음식점 > 카페 > 테마카페 > 북카페,http://place.map.kakao.com/27224586
15,26476919,폴바셋 구로지밸리몰점,서울 구로구 구로동 188-25,서울 구로구 디지털로 300,02-6344-3788,카페,음식점 > 카페 > 커피전문점 > 폴바셋,http://place.map.kakao.com/26476919
16,1792739269,디저트샵시소,서울 구로구 천왕동 273,서울 구로구 천왕로 29,010-8372-8487,카페,음식점 > 카페 > 테마카페 > 디저트카페,http://place.map.kakao.com/1792739269
17,25115111,스타벅스 오류동역점,서울 구로구 오류동 55-50,서울 구로구 경인로 216,1522-3232,카페,음식점 > 카페 > 커피전문점 > 스타벅스,http://place.map.kakao.com/25115111
18,364882455,적소,서울 구로구 개봉동 262-4,서울 구로구 개봉로16가길 10-28,02-2612-0701,카페,음식점 > 카페 > 테마카페 > 디저트카페,http://place.map.kakao.com/364882455
19,1536002539,이미커피로스터스,서울 구로구 구로동 798-30,서울 구로구 디지털로27길 116,070-4240-5228,카페,음식점 > 카페 > 커피전문점,http://place.map.kakao.com/1536002539
20,1653669621,스타벅스 구로디지털타워점,서울 구로구 구로동 222-7,서울 구로구 디지털로32길 30,,카페,음식점 > 카페 > 커피전문점 > 스타벅스,http://place.map.kakao.com/1653669621
21,838978979,메이로드,서울 구로구 오류동 172-27,서울 구로구 오류로 37-2,02-2060-7466,카페,음식점 > 카페 > 테마카페 > 디저트카페,http://place.map.kakao.com/838978979
22,26884659,띵크커피 디큐브시티점,서울 구로구 신도림동 692,서울 구로구 경인로 662,02-2210-9074,카페,음식점 > 카페 > 커피전문점,http://place.map.kakao.com/26884659
23,21058537,스타벅스 구로디지털로점,서울 구로구 구로동 191-7,서울 구로구 디지털로33길 11,1522-3232,카페,음식점 > 카페 > 커피전문점 > 스타벅스,http://place.map.kakao.com/21058537
24,18489590,투썸플레이스 신도림디큐브시티점,서울 구로구 신도림동 692,서울 구로구 경인로 662,02-2210-9233,카페,음식점 > 카페 > 커피전문점 > 투썸플레이스,http://place.map.kakao.com/18489590
25,180758122,힙스터커피,서울 구로구 개봉동 139-17,서울 구로구 경인로33길 15,010-9811-9855,카페,음식점 > 카페 > 커피전문점,http://place.map.kakao.com/180758122
26,649401592,스타벅스 구로NC,서울 구로구 구로동 573,서울 구로구 구로중앙로 152,1522-3232,카페,음식점 > 카페 > 커피전문점 > 스타벅스,http://place.map.kakao.com/649401592
27,27075938,스타벅스 현대디큐브2F,서울 구로구 신도림동 692,서울 구로구 경인로 662,1522-3232,카페,음식점 > 카페 > 커피전문점 > 스타벅스,http://place.map.kakao.com/27075938
28,1566212360,그녀의커피 카페드엘르,서울 구로구 오류동 6-140,서울 구로구 고척로3길 7,02-6013-7750,카페,음식점 > 카페 > 커피전문점,http://place.map.kakao.com/1566212360
29,1893731799,투썸플레이스 개봉역점,서울 구로구 개봉동 202-13,서울 구로구 남부순환로97길 20-1,02-2618-8133,카페,음식점 > 카페 > 커피전문점 > 투썸플레이스,http://place.map.kakao.com/1893731799
30,963590299,잉크커피,서울 구로구 구로동 222-12,서울 구로구 디지털로30길 28,,카페,음식점 > 카페 > 커피전문점,http://place.map.kakao.com/963590299
31,21531311,이름없는가게,서울 구로구 개봉동 363-8,서울 구로구 개봉로1나길 52,02-2613-9488,카페,음식점 > 카페,http://place.map.kakao.com/21531311
32,181245255,작업하는 카페에베르,서울 구로구 온수동 52,서울 구로구 경인로3길 77,02-2625-3467,카페,음식점 > 카페,http://place.map.kakao.com/181245255
33,131891868,설빙 구로고척점,서울 구로구 고척동 172-35,서울 구로구 경서로 81,070-4177-0120,카페,음식점 > 카페 > 테마카페 > 디저트카페 > 설빙,http://place.map.kakao.com/131891868
34,20558186,옐로우트리커피 구로디지털단지점,서울 구로구 구로동 1126-15,서울 구로구 시흥대로 543,02-858-5234,카페,음식점 > 카페 > 커피전문점,http://place.map.kakao.com/20558186
35,611177110,투썸플레이스 구로구청사거리점,서울 구로구 구로동 83-4,서울 구로구 가마산로 250,02-852-3431,카페,음식점 > 카페 > 커피전문점 > 투썸플레이스,http://place.map.kakao.com/611177110
36,691349476,알파고보드카페,서울 구로구 구로동 40-3,서울 구로구 공원로6나길 12,02-6369-1239,카페,음식점 > 카페 > 테마카페 > 보드카페,http://place.map.kakao.com/691349476
37,17127067,스타벅스 현대디큐브B2,서울 구로구 신도림동 692,서울 구로구 경인로 662,1522-3232,카페,음식점 > 카페 > 커피전문점 > 스타벅스,http://place.map.kakao.com/17127067
38,7961406,스타벅스 구로에이스점,서울 구로구 구로동 212-1,서울 구로구 디지털로 285,,카페,음식점 > 카페 > 커피전문점 > 스타벅스,http://place.map.kakao.com/7961406
39,1762576488,그린머그,서울 구로구 구로동 27-3,서울 구로구 새말로18길 24,,카페,음식점 > 카페,http://place.map.kakao.com/1762576488
40,10809504,탐앤탐스 신도림점,서울 구로구 신도림동 337,서울 구로구 경인로 661,02-3439-7887,카페,음식점 > 카페 > 커피전문점 > 탐앤탐스,http://place.map.kakao.com/10809504
41,84042619,보은하다,서울 구로구 신도림동 338,서울 구로구 경인로67길 23,,카페,음식점 > 카페,http://place.map.kakao.com/84042619
42,2041426645,투썸플레이스 동양미래대점,서울 구로구 고척동 52-217,서울 구로구 경인로47길 34-1,02-2615-7557,카페,음식점 > 카페 > 커피전문점 > 투썸플레이스,http://place.map.kakao.com/2041426645
43,1405383746,이디야커피 고척사거리점,서울 구로구 고척동 195-13,서울 구로구 고척로 228-6,02-2060-7843,카페,음식점 > 카페 > 커피전문점 > 이디야커피,http://place.map.kakao.com/1405383746
44,373252897,투썸플레이스 신도림아름제일여성병원점,서울 구로구 구로동 25,서울 구로구 새말로 94,02-866-7377,카페,음식점 > 카페 > 커피전문점 > 투썸플레이스,http://place.map.kakao.com/373252897
0,2074600451,스미다,서울 금천구 가산동 50-3,서울 금천구 벚꽃로 298,070-4633-2525,카페,음식점 > 카페,http://place.map.kakao.com/2074600451
1,1652547690,인크커피 가산 플래그십 스토어,서울 금천구 가산동 544-6,서울 금천구 가산디지털2로 127-20,02-854-7200,카페,음식점 > 카페 > 커피전문점,http://place.map.kakao.com/1652547690
2,24765611,스타벅스 금천독산점,서울 금천구 독산동 291-1,서울 금천구 두산로 70,1522-3232,카페,음식점 > 카페 > 커피전문점 > 스타벅스,http://place.map.kakao.com/24765611
3,921177814,냥카페묘연,서울 금천구 시흥동 985-8,서울 금천구 시흥대로 149,070-4048-0948,카페,음식점 > 카페 > 테마카페 > 고양이카페,http://place.map.kakao.com/921177814
4,2090446816,스타벅스 금천시흥점,서울 금천구 시흥동 904-22,서울 금천구 시흥대로 164,,카페,음식점 > 카페 > 커피전문점 > 스타벅스,http://place.map.kakao.com/2090446816
5,1616531669,스타벅스 독산사거리점,서울 금천구 독산동 159-23,서울 금천구 시흥대로 426,1522-3232,카페,음식점 > 카페 > 커피전문점 > 스타벅스,http://place.map.kakao.com/1616531669
6,689537775,온초점,서울 금천구 독산동 959,서울 금천구 남부순환로124길 17,,카페,음식점 > 카페,http://place.map.kakao.com/689537775
7,8403565,스타벅스 가산디지털점,서울 금천구 가산동 371-28,서울 금천구 가산디지털1로 168,1522-3232,카페,음식점 > 카페 > 커피전문점 > 스타벅스,http://place.map.kakao.com/8403565
8,316450932,키주파크 독산점,서울 금천구 독산동 495-5,서울 금천구 벚꽃로6길 21,02-804-2145,카페,음식점 > 카페 > 테마카페 > 키즈카페,http://place.map.kakao.com/316450932
9,1460458769,스타벅스 가산디지털단지역점,서울 금천구 가산동 50-3,서울 금천구 벚꽃로 298,1522-3232,카페,음식점 > 카페 > 커피전문점 > 스타벅스,http://place.map.kakao.com/1460458769
10,27388194,모나드커피로스터스,서울 금천구 시흥동 911-6,서울 금천구 금하로24길 5,010-7516-0892,카페,음식점 > 카페 > 커피전문점,http://place.map.kakao.com/27388194
11,62238907,스타벅스 금천구청역점,서울 금천구 시흥동 1031,서울 금천구 시흥대로73길 67,1522-3232,카페,음식점 > 카페 > 커피전문점 > 스타벅스,http://place.map.kakao.com/62238907
12,18619207,카페로드,서울 금천구 독산동 1003,서울 금천구 범안로 1152,010-4946-8871,카페,음식점 > 카페,http://place.map.kakao.com/18619207
13,286759014,카페구움,서울 금천구 독산동 1156,서울 금천구 시흥대로 315,010-6805-9281,카페,음식점 > 카페 > 테마카페 > 디저트카페,http://place.map.kakao.com/286759014
14,623379440,퐁퐁플라워 가산센터,서울 금천구 가산동 60-19,서울 금천구 벚꽃로 278,02-444-2080,카페,음식점 > 카페 > 테마카페 > 키즈카페,http://place.map.kakao.com/623379440
15,1145240425,뽀로로파크 롯데빅마켓 금천점,서울 금천구 독산동 295-10,서울 금천구 두산로 71,02-855-4173,카페,음식점 > 카페 > 테마카페 > 키즈카페,http://place.map.kakao.com/1145240425
16,1705999023,자작나무카페,서울 금천구 독산동 296-9,서울 금천구 가산로 61,0507-1418-8918,카페,음식점 > 카페,http://place.map.kakao.com/1705999023
17,8567520,투썸플레이스 가산디지털점,서울 금천구 가산동 459-11,서울 금천구 가산디지털1로 186,02-866-9308,카페,음식점 > 카페 > 커피전문점 > 투썸플레이스,http://place.map.kakao.com/8567520
18,27179470,502커피로스터스,서울 금천구 가산동 371-7,서울 금천구 가산디지털1로 159-20,070-4128-4289,카페,음식점 > 카페 > 커피전문점,http://place.map.kakao.com/27179470
19,13049542,스타벅스 가산그레이트점,서울 금천구 가산동 60-5,서울 금천구 디지털로9길 32,,카페,음식점 > 카페 > 커피전문점 > 스타벅스,http://place.map.kakao.com/13049542
20,1146328973,스타벅스 가산에스케이점,서울 금천구 가산동 371-41,서울 금천구 가산디지털1로 171,1522-3232,카페,음식점 > 카페 > 커피전문점 > 스타벅스,http://place.map.kakao.com/1146328973
21,1183978562,투썸플레이스 독산사거리점,서울 금천구 독산동 287-2,서울 금천구 시흥대로 422,,카페,음식점 > 카페 > 커피전문점 > 투썸플레이스,http://place.map.kakao.com/1183978562
22,26887407,할리스 가산디지털단지점,서울 금천구 가산동 459-11,서울 금천구 가산디지털1로 186,02-2028-7111,카페,음식점 > 카페 > 커피전문점 > 할리스,http://place.map.kakao.com/26887407
23,26300091,설빙 시흥사거리점,서울 금천구 시흥동 994-5,서울 금천구 시흥대로 229,02-891-7355,카페,음식점 > 카페 > 테마카페 > 디저트카페 > 설빙,http://place.map.kakao.com/26300091
24,26376546,스타벅스 가산브이타워점,서울 금천구 가산동 371-37,서울 금천구 가산디지털1로 128,1522-3232,카페,음식점 > 카페 > 커피전문점 > 스타벅스,http://place.map.kakao.com/26376546
25,21555012,투썸플레이스 시흥사거리점,서울 금천구 시흥동 883-7,서울 금천구 시흥대로 228,02-893-2388,카페,음식점 > 카페 > 커피전문점 > 투썸플레이스,http://place.map.kakao.com/21555012
26,20375726,커피베이 가산직영점,서울 금천구 가산동 60-24,서울 금천구 벚꽃로 254,02-859-1157,카페,음식점 > 카페 > 커피전문점 > 커피베이,http://place.map.kakao.com/20375726
27,785517467,달리는커피 독산1호점,서울 금천구 독산동 1009-74,서울 금천구 시흥대로 341,02-857-8163,카페,음식점 > 카페,http://place.map.kakao.com/785517467
28,1252555129,투썸플레이스 가산하이엔드클래식점,서울 금천구 가산동 219-6,서울 금천구 벚꽃로24길 26,02-2085-0155,카페,음식점 > 카페 > 커피전문점 > 투썸플레이스,http://place.map.kakao.com/1252555129
29,1788134156,투썸플레이스 금천롯데캐슬골드파크점,서울 금천구 독산동 1147,서울 금천구 벚꽃로 40,02-802-1222,카페,음식점 > 카페 > 커피전문점 > 투썸플레이스,http://place.map.kakao.com/1788134156
30,1049764762,디오델커피,서울 금천구 독산동 1150,서울 금천구 벚꽃로 30,02-6082-2121,카페,음식점 > 카페 > 커피전문점,http://place.map.kakao.com/1049764762
31,1998752929,투썸플레이스 석수역점,서울 금천구 시흥동 979-4,서울 금천구 시흥대로 8,02-804-1003,카페,음식점 > 카페 > 커피전문점 > 투썸플레이스,http://place.map.kakao.com/1998752929
32,26342624,카페자리,서울 금천구 독산동 197-1,서울 금천구 독산로77길 39,02-865-8800,카페,음식점 > 카페,http://place.map.kakao.com/26342624
33,1667235990,디저트39 금천시흥점,서울 금천구 시흥동 852-30,서울 금천구 독산로 131-1,02-892-3839,카페,음식점 > 카페 > 테마카페 > 디저트카페 > 디저트39,http://place.map.kakao.com/1667235990
34,2081698743,우주라이크커피 가산디지털단지점,서울 금천구 가산동 143-6,서울 금천구 가산로9길 12-8,02-6278-0077,카페,음식점 > 카페 > 커피전문점,http://place.map.kakao.com/2081698743
35,1925568709,디저트39 독산사거리점,서울 금천구 독산동 288-2,서울 금천구 시흥대로 421,02-858-9488,카페,음식점 > 카페 > 테마카페 > 디저트카페,http://place.map.kakao.com/1925568709
36,1461073772,트리니티블랙,서울 금천구 가산동 429-1,서울 금천구 가산디지털2로 108,02-2626-8989,카페,음식점 > 카페 > 커피전문점,http://place.map.kakao.com/1461073772
37,900274800,C27 현대시티아울렛 가산점,서울 금천구 가산동 60-8,서울 금천구 디지털로10길 9,02-2136-9780,카페,음식점 > 카페 > 테마카페 > 디저트카페,http://place.map.kakao.com/900274800
38,27355133,빌리엔젤 마리오아울렛점,서울 금천구 가산동 60-20,서울 금천구 벚꽃로 266,02-2067-3628,카페,음식점 > 카페 > 테마카페 > 디저트카페,http://place.map.kakao.com/27355133
39,20537542,티티커피클럽 가산점,서울 금천구 가산동 140-30,서울 금천구 디지털로 204,070-8152-1062,카페,음식점 > 카페,http://place.map.kakao.com/20537542
40,505952327,엔제리너스 LAB1004,서울 금천구 독산동 1005,,02-809-4043,카페,음식점 > 카페 > 커피전문점 > 엔제리너스,http://place.map.kakao.com/505952327
41,18363987,스타벅스 마리오아울렛점,서울 금천구 가산동 60-20,서울 금천구 벚꽃로 266,1522-3232,카페,음식점 > 카페 > 커피전문점 > 스타벅스,http://place.map.kakao.com/18363987
42,1212317026,카페 커들리,서울 금천구 시흥동 263-16,서울 금천구 금하로29길 12,070-4333-4989,카페,음식점 > 카페,http://place.map.kakao.com/1212317026
43,7961273,스타벅스 W-mall점,서울 금천구 가산동 60-27,서울 금천구 디지털로 188,,카페,음식점 > 카페 > 커피전문점 > 스타벅스,http://place.map.kakao.com/7961273
44,13064337,투썸플레이스 가산아울렛점,서울 금천구 가산동 50-3,서울 금천구 벚꽃로 298,02-2083-5678,카페,음식점 > 카페 > 커피전문점 > 투썸플레이스,http://place.map.kakao.com/13064337
0,339122660,카페1953위드오드리,서울 영등포구 문래동2가 34-10,서울 영등포구 경인로77가길 12,02-2672-0504,카페,음식점 > 카페,http://place.map.kakao.com/339122660
1,409589446,마호가니커피 여의도점,서울 영등포구 여의도동 23-3,서울 영등포구 여의대로 66,02-785-8880,카페,음식점 > 카페,http://place.map.kakao.com/409589446
2,2137940343,호텔707,서울 영등포구 문래동2가 60-4,서울 영등포구 도림로139길 2-2,02-2636-8694,카페,음식점 > 카페,http://place.map.kakao.com/2137940343
3,1662097172,뚜스뚜스베이커리카페 선유도점,서울 영등포구 양평동5가 62-3,서울 영등포구 양평로 132,02-2632-9006,카페,음식점 > 카페 > 테마카페 > 디저트카페,http://place.map.kakao.com/1662097172
4,2122184252,더플레이트디저트 더현대서울점,서울 영등포구 여의도동 22,서울 영등포구 여의대로 108,02-3277-0796,카페,음식점 > 카페 > 테마카페 > 디저트카페,http://place.map.kakao.com/2122184252
5,459660544,시즌커피앤베이크,서울 영등포구 양평동3가 41-2,서울 영등포구 양산로9길 12-1,02-2676-7161,카페,음식점 > 카페,http://place.map.kakao.com/459660544
6,27269058,커피리브레 타임스퀘어점,서울 영등포구 영등포동4가 442,서울 영등포구 영중로 15,02-2635-0615,카페,음식점 > 카페 > 커피전문점,http://place.map.kakao.com/27269058
7,1025169588,영등포 카페드람브르,서울 영등포구 영등포동3가 11-3,서울 영등포구 경인로 867,02-882-3377,카페,음식점 > 카페,http://place.map.kakao.com/1025169588
8,469431212,카페솔트,서울 영등포구 문래동2가 43-5,서울 영등포구 도림로133길 12,0507-1338-1540,카페,음식점 > 카페,http://place.map.kakao.com/469431212
9,1149136625,피그인더가든 여의도점,서울 영등포구 여의도동 23-5,서울 영등포구 여의대로 56,02-761-4272,카페,음식점 > 카페,http://place.map.kakao.com/1149136625
10,1620256694,팜스프링스,서울 영등포구 신길동 137-20,서울 영등포구 도신로60길 22-3,02-847-1107,카페,음식점 > 카페,http://place.map.kakao.com/1620256694
11,1040731687,라크라센타 문래본점,서울 영등포구 문래동3가 77-51,서울 영등포구 문래로 92-5,02-2676-6202,카페,음식점 > 카페,http://place.map.kakao.com/1040731687
12,1574887478,카페기글,서울 영등포구 문래동3가 58-2,서울 영등포구 도림로128길 21,,카페,음식점 > 카페 > 테마카페 > 디저트카페,http://place.map.kakao.com/1574887478
13,846043350,보사노바 커피로스터스 문래점,서울 영등포구 문래동3가 82-13,서울 영등포구 영등포로20길 22-4,02-2633-0038,카페,음식점 > 카페,http://place.map.kakao.com/846043350
14,2104860406,피크니크 선유도점,서울 영등포구 양평동4가 131-1,서울 영등포구 양평로22길 2-1,070-4110-6770,카페,음식점 > 카페 > 테마카페 > 디저트카페,http://place.map.kakao.com/2104860406
15,931427717,선유기지,서울 영등포구 양평동4가 153-17,서울 영등포구 선유로51길 3-1,070-4797-0082,카페,음식점 > 카페,http://place.map.kakao.com/931427717
16,399454702,포프트커피,서울 영등포구 영등포동1가 81,서울 영등포구 경인로114길 10-1,010-5162-6688,카페,음식점 > 카페 > 커피전문점,http://place.map.kakao.com/399454702
17,153151026,쓰리버즈 IFC점,서울 영등포구 여의도동 23,서울 영등포구 국제금융로 10,02-6137-3031,카페,음식점 > 카페,http://place.map.kakao.com/153151026
18,143778568,카페설리번,서울 영등포구 당산동6가 311-1,서울 영등포구 당산로 241,02-2068-8825,카페,음식점 > 카페,http://place.map.kakao.com/143778568
19,23753282,홍설,서울 영등포구 여의도동 44-23,서울 영등포구 의사당대로1길 25,02-786-1400,카페,음식점 > 카페,http://place.map.kakao.com/23753282
20,591245646,이스트우드 1호점,서울 영등포구 도림동 253-87,서울 영등포구 도신로17길 6,,카페,음식점 > 카페,http://place.map.kakao.com/591245646
21,716801125,노버든,서울 영등포구 당산동3가 558,서울 영등포구 당산로31길 25,0507-1340-4994,카페,음식점 > 카페 > 테마카페 > 디저트카페,http://place.map.kakao.com/716801125
22,8476191,엘리스커피하우스,서울 영등포구 영등포동3가 9-19,서울 영등포구 영중로4길 1,,카페,음식점 > 카페 > 테마카페 > 디저트카페,http://place.map.kakao.com/8476191
23,454537584,평화,서울 영등포구 문래동2가 14-42,서울 영등포구 도림로131길 13,,카페,음식점 > 카페,http://place.map.kakao.com/454537584
24,356723098,문래방구,서울 영등포구 문래동3가 56-1,서울 영등포구 경인로 763,02-2633-9204,카페,음식점 > 카페,http://place.map.kakao.com/356723098
25,12051896,하늘유리,서울 영등포구 영등포동3가 3-4,서울 영등포구 영등포로 248,,카페,음식점 > 카페,http://place.map.kakao.com/12051896
26,26316695,스타벅스 영등포신길점,서울 영등포구 신길동 252-9,서울 영등포구 신길로 137,1522-3232,카페,음식점 > 카페 > 커피전문점 > 스타벅스,http://place.map.kakao.com/26316695
27,610340247,헤비로테이트,서울 영등포구 도림동 241-16,서울 영등포구 도신로19길 22,,카페,음식점 > 카페,http://place.map.kakao.com/610340247
28,226936259,아파트먼트,서울 영등포구 문래동2가 40-2,서울 영등포구 경인로77길 12,010-4528-3884,카페,음식점 > 카페,http://place.map.kakao.com/226936259
29,19697010,어라운지 선유도점,서울 영등포구 양평동6가 14,서울 영등포구 양평로28마길 9,02-2056-7601,카페,음식점 > 카페 > 커피전문점,http://place.map.kakao.com/19697010
30,1605192072,빌리엔젤 당산역점,서울 영등포구 당산동5가 16-3,서울 영등포구 당산로 223,02-2632-9555,카페,음식점 > 카페 > 테마카페 > 디저트카페,http://place.map.kakao.com/1605192072
31,1299056686,10G,서울 영등포구 여의도동 23-1,서울 영등포구 국제금융로 10,02-6137-7788,카페,음식점 > 카페 > 테마카페 > 디저트카페,http://place.map.kakao.com/1299056686
32,1229801043,빌리엔젤 여의도삼성생명점,서울 영등포구 여의도동 23-10,서울 영등포구 국제금융로2길 24,070-4801-0141,카페,음식점 > 카페 > 테마카페 > 디저트카페,http://place.map.kakao.com/1229801043
33,99849164,맨홀커피,서울 영등포구 당산동5가 43,,02-6398-9427,카페,음식점 > 카페 > 커피전문점,http://place.map.kakao.com/99849164
34,1775335207,카페노티드 여의도IFC점,서울 영등포구 여의도동 23,서울 영등포구 국제금융로 10,070-4700-9377,카페,음식점 > 카페 > 테마카페 > 디저트카페,http://place.map.kakao.com/1775335207
35,1813648578,아이엠베이글 여의도점,서울 영등포구 여의도동 43-4,서울 영등포구 국제금융로 86,070-4233-2881,카페,음식점 > 카페 > 테마카페 > 디저트카페,http://place.map.kakao.com/1813648578
36,1444854771,이스케이프시티,서울 영등포구 영등포동3가 8-1,서울 영등포구 영중로8길 6,070-8286-7355,카페,음식점 > 카페 > 테마카페,http://place.map.kakao.com/1444854771
37,1516788842,쏭카페,서울 영등포구 양평동4가 23-1,서울 영등포구 선유로47길 21-1,070-8866-4385,카페,음식점 > 카페,http://place.map.kakao.com/1516788842
38,12402461,스타벅스 영등포본동점,서울 영등포구 영등포동3가 2-21,서울 영등포구 영등포로 254,,카페,음식점 > 카페 > 커피전문점 > 스타벅스,http://place.map.kakao.com/12402461
39,337672656,스타벅스 영등포역점,서울 영등포구 영등포동1가 143-3,서울 영등포구 경인로 870,1522-3232,카페,음식점 > 카페 > 커피전문점 > 스타벅스,http://place.map.kakao.com/337672656
40,2010492667,폰트커피 문래점,서울 영등포구 문래동2가 33-4,서울 영등포구 경인로77가길 6,02-2632-8549,카페,음식점 > 카페,http://place.map.kakao.com/2010492667
41,520125205,메이커스 유니온스퀘어,서울 영등포구 문래동3가 57-3,서울 영등포구 당산로 10,02-512-0383,카페,음식점 > 카페,http://place.map.kakao.com/520125205
42,455118989,패트릭스와플 2호점,서울 영등포구 여의도동 37,서울 영등포구 의사당대로 108,02-782-8896,카페,음식점 > 카페 > 테마카페 > 디저트카페,http://place.map.kakao.com/455118989
43,1830195259,레어그루브,서울 영등포구 신길동 51-3,서울 영등포구 영등포로62길 2,070-7788-8633,카페,음식점 > 카페,http://place.map.kakao.com/1830195259
44,12772378,카페오가닉 여의도본점,서울 영등포구 여의도동 13-31,서울 영등포구 은행로 37,02-785-4330,카페,음식점 > 카페 > 커피전문점,http://place.map.kakao.com/12772378
0,19392595,페니힐스,서울 동작구 사당동 1042-13,서울 동작구 동작대로1길 10-14,,카페,음식점 > 카페 > 커피전문점,http://place.map.kakao.com/19392595
1,26603579,세녹,서울 동작구 사당동 147-50,서울 동작구 사당로 304,02-597-8001,카페,음식점 > 카페,http://place.map.kakao.com/26603579
2,26646835,카페퍼블리코 본점,서울 동작구 대방동 395-18,서울 동작구 상도로 47,02-815-4000,카페,음식점 > 카페,http://place.map.kakao.com/26646835
3,202438281,뚜스뚜스 흑석역점,서울 동작구 흑석동 1-3,서울 동작구 현충로 75,02-3664-9000,카페,음식점 > 카페,http://place.map.kakao.com/202438281
4,273270660,디피스트,서울 동작구 사당동 139-22,서울 동작구 동작대로27길 31,,카페,음식점 > 카페 > 커피전문점,http://place.map.kakao.com/273270660
5,16593550,터방내,서울 동작구 흑석동 184-19,서울 동작구 흑석로 101-7,02-813-4434,카페,음식점 > 카페 > 커피전문점,http://place.map.kakao.com/16593550
6,825283133,머치커피,서울 동작구 사당동 1026-35,서울 동작구 동작대로9길 43,0507-1320-2726,카페,음식점 > 카페 > 커피전문점,http://place.map.kakao.com/825283133
7,2021405780,더한강,서울 동작구 본동 8-10,서울 동작구 노량진로32길 29-6,070-7795-4144,카페,음식점 > 카페 > 커피전문점,http://place.map.kakao.com/2021405780
8,604924026,파니모들,서울 동작구 사당동 79-3,서울 동작구 동작대로 153,070-7607-8252,카페,음식점 > 카페 > 테마카페 > 디저트카페,http://place.map.kakao.com/604924026
9,66183033,스타벅스 노량진역점,서울 동작구 노량진동 62-8,서울 동작구 노량진로 134,1522-3232,카페,음식점 > 카페 > 커피전문점 > 스타벅스,http://place.map.kakao.com/66183033
10,755423338,스타벅스 보라매공원R점,서울 동작구 신대방동 395-65,서울 동작구 보라매로5길 35,1522-3232,카페,음식점 > 카페 > 커피전문점 > 스타벅스,http://place.map.kakao.com/755423338
11,18771379,프랑세즈,서울 동작구 흑석동 8-37,서울 동작구 현충로 96,02-825-5265,카페,음식점 > 카페 > 테마카페 > 디저트카페,http://place.map.kakao.com/18771379
12,1412043020,프레임676,서울 동작구 신대방동 586-2,서울 동작구 시흥대로 676,070-8807-6046,카페,음식점 > 카페 > 테마카페 > 갤러리카페,http://place.map.kakao.com/1412043020
13,1161295479,도쿄빙수 이수점,서울 동작구 사당동 129-11,서울 동작구 동작대로27길 38,02-3482-0503,카페,음식점 > 카페 > 테마카페 > 디저트카페,http://place.map.kakao.com/1161295479
14,12108448,스타벅스 사당역점,서울 동작구 사당동 1031-27,서울 동작구 동작대로 21,1522-3232,카페,음식점 > 카페 > 커피전문점 > 스타벅스,http://place.map.kakao.com/12108448
15,1608703935,타요키즈카페 보라매점,서울 동작구 신대방동 395-69,서울 동작구 보라매로5가길 16,02-319-8585,카페,음식점 > 카페 > 테마카페 > 키즈카페,http://place.map.kakao.com/1608703935
16,14352981,펠어커피 상도점,서울 동작구 상도1동 468-1,서울 동작구 상도로41가길 12,070-8879-8585,카페,음식점 > 카페,http://place.map.kakao.com/14352981
17,94881294,미학당,서울 동작구 상도동 509-2,서울 동작구 사당로 56,02-816-0301,카페,음식점 > 카페,http://place.map.kakao.com/94881294
18,853040385,프로스퍼,서울 동작구 대방동 407-42,서울 동작구 여의대방로24길 101,02-3280-3276,카페,음식점 > 카페,http://place.map.kakao.com/853040385
19,190103388,도어이스케이프 이수역점,서울 동작구 사당동 139-88,서울 동작구 동작대로27가길 14,02-534-9745,카페,음식점 > 카페 > 테마카페,http://place.map.kakao.com/190103388
20,917712342,오다가다,서울 동작구 사당동 39-10,서울 동작구 동작대로35길 10,070-8876-6424,카페,음식점 > 카페 > 테마카페 > 디저트카페,http://place.map.kakao.com/917712342
21,525622050,스타벅스 신대방삼거리역점,서울 동작구 상도동 324-1,서울 동작구 상도로 102,1522-3232,카페,음식점 > 카페 > 커피전문점 > 스타벅스,http://place.map.kakao.com/525622050
22,1739544406,더빈마켓,서울 동작구 대방동 412-20,서울 동작구 여의대방로24길 65,02-823-0388,카페,음식점 > 카페 > 커피전문점,http://place.map.kakao.com/1739544406
23,542382647,케이크무드,서울 동작구 상도동 356-12,서울 동작구 상도로15길 45,010-3774-3524,카페,음식점 > 카페 > 테마카페 > 디저트카페,http://place.map.kakao.com/542382647
24,1399551475,카페알코브,서울 동작구 대방동 391-357,서울 동작구 대방동1길 12,02-6409-9870,카페,음식점 > 카페,http://place.map.kakao.com/1399551475
25,305615371,카페좋아진다,서울 동작구 사당동 1027-2,서울 동작구 사당로26길 87,02-812-0222,카페,음식점 > 카페,http://place.map.kakao.com/305615371
26,1895114441,37.5 동작이수점,서울 동작구 사당동 137-11,서울 동작구 동작대로27가길 23,02-595-3705,카페,음식점 > 카페,http://place.map.kakao.com/1895114441
27,1034900166,카페브르브르,서울 동작구 사당동 141-48,서울 동작구 사당로29가길 6,,카페,음식점 > 카페,http://place.map.kakao.com/1034900166
28,2120408316,릿잇커피,서울 동작구 상도동 54-26,서울 동작구 상도로47바길 48,070-8866-4344,카페,음식점 > 카페,http://place.map.kakao.com/2120408316
29,27332485,스타벅스 숭실대입구역,서울 동작구 상도동 475-5,서울 동작구 상도로 354,1522-3232,카페,음식점 > 카페 > 커피전문점 > 스타벅스,http://place.map.kakao.com/27332485
30,432578365,스타벅스 상도역점,서울 동작구 상도1동 666-5,서울 동작구 상도로37길 1,1522-3232,카페,음식점 > 카페 > 커피전문점 > 스타벅스,http://place.map.kakao.com/432578365
31,587570196,오후홍콩 중앙대본점,서울 동작구 흑석동 188-15,서울 동작구 흑석로13가길 29,02-6398-6787,카페,음식점 > 카페 > 테마카페 > 디저트카페,http://place.map.kakao.com/587570196
32,27510240,밍구네다방,서울 동작구 노량진동 62-7,서울 동작구 노량진로 132,02-812-3935,카페,음식점 > 카페,http://place.map.kakao.com/27510240
33,1725460486,커피나무 랩,서울 동작구 상도동 427,서울 동작구 상도로53길 65,02-824-1391,카페,음식점 > 카페,http://place.map.kakao.com/1725460486
34,778505700,두젠틀,서울 동작구 상도동 26-27,서울 동작구 상도로 217-4,02-6014-2120,카페,음식점 > 카페 > 테마카페 > 애견카페,http://place.map.kakao.com/778505700
35,453096584,클라소피,서울 동작구 신대방동 358-15,서울 동작구 여의대방로22길 94,070-8648-0987,카페,음식점 > 카페 > 커피전문점,http://place.map.kakao.com/453096584
36,449929306,헤븐리가든,서울 동작구 상도동 29-2,서울 동작구 상도로34길 11,070-7677-9647,카페,음식점 > 카페,http://place.map.kakao.com/449929306
37,1086947915,스타벅스 노량진동점,서울 동작구 노량진동 333,서울 동작구 노량진로 190,1522-3232,카페,음식점 > 카페 > 커피전문점 > 스타벅스,http://place.map.kakao.com/1086947915
38,1746397370,스타벅스 중앙대점,서울 동작구 흑석동 205-5,서울 동작구 흑석로 75-1,,카페,음식점 > 카페 > 커피전문점 > 스타벅스,http://place.map.kakao.com/1746397370
39,27481543,갤러리카페오누이,서울 동작구 신대방동 586-2,서울 동작구 시흥대로 676,02-833-6046,카페,음식점 > 카페,http://place.map.kakao.com/27481543
40,548840517,케이크팝,서울 동작구 상도동 505-1,서울 동작구 사당로 28,02-825-8799,카페,음식점 > 카페 > 테마카페 > 디저트카페,http://place.map.kakao.com/548840517
41,359023741,비단콤마,서울 동작구 상도동 535,서울 동작구 상도로30길 40,02-811-0072,카페,음식점 > 카페,http://place.map.kakao.com/359023741
42,12118390,엔제리너스 이수역점,서울 동작구 사당동 708-435,서울 동작구 동작대로25길 16,02-595-7619,카페,음식점 > 카페 > 커피전문점 > 엔제리너스,http://place.map.kakao.com/12118390
43,17757839,투썸플레이스 노량진점,서울 동작구 노량진동 148-87,서울 동작구 노량진로 174,02-821-2388,카페,음식점 > 카페 > 커피전문점 > 투썸플레이스,http://place.map.kakao.com/17757839
44,998171067,청맥살롱,서울 동작구 흑석동 100-18,서울 동작구 서달로 161-1,02-822-1605,카페,음식점 > 카페 > 테마카페 > 북카페,http://place.map.kakao.com/998171067
0,1099251112,디자이너리카페,서울 관악구 신림동 1465-12,서울 관악구 관천로 71-1,02-868-7112,카페,음식점 > 카페,http://place.map.kakao.com/1099251112
1,346036303,토즈모임센터 서울대입구점,서울 관악구 봉천동 869-10,서울 관악구 남부순환로 1808,02-889-9662,카페,"서비스,산업 > 전문대행 > 공간대여 > 모임공간 > 토즈모임센터",http://place.map.kakao.com/346036303
2,1168065433,폼앤노말,서울 관악구 신림동 1432-119,서울 관악구 신림로67길 25,010-4053-1124,카페,음식점 > 카페,http://place.map.kakao.com/1168065433
3,297508565,사생활,서울 관악구 신림동 496-37,서울 관악구 신사로14길 19,070-5033-7759,카페,음식점 > 카페,http://place.map.kakao.com/297508565
4,71268832,온고지신,서울 관악구 봉천동 1620-32,서울 관악구 관악로14길 101,070-8098-5359,카페,음식점 > 카페,http://place.map.kakao.com/71268832
5,1256440499,발루토,서울 관악구 신림동 1524-5,서울 관악구 신림로23길 28,02-875-1155,카페,음식점 > 카페,http://place.map.kakao.com/1256440499
6,960623897,황홀경,서울 관악구 봉천동 1603-20,서울 관악구 관악로14길 37,02-6449-7362,카페,음식점 > 카페 > 테마카페 > 디저트카페,http://place.map.kakao.com/960623897
7,22000100,티라노커피,서울 관악구 봉천동 1613-7,서울 관악구 남부순환로230길 39,,카페,음식점 > 카페 > 커피전문점,http://place.map.kakao.com/22000100
8,47918669,데일리오아시스 샤로수길점,서울 관악구 봉천동 1619-6,서울 관악구 관악로14길 74-3,070-7739-8282,카페,음식점 > 카페,http://place.map.kakao.com/47918669
9,26504962,데이즈앤데이즈,서울 관악구 조원동 1643,서울 관악구 시흥대로 578,02-869-0077,카페,음식점 > 카페 > 테마카페 > 디저트카페,http://place.map.kakao.com/26504962
10,1474373896,메이지커피,서울 관악구 신림동 518-11,서울 관악구 난곡로 363-1,02-6326-5188,카페,음식점 > 카페 > 커피전문점,http://place.map.kakao.com/1474373896
11,508064654,고로커피로스터스,서울 관악구 봉천동 100-137,서울 관악구 남부순환로231길 33,0507-1411-9023,카페,음식점 > 카페,http://place.map.kakao.com/508064654
12,802510891,카페폴,서울 관악구 봉천동 1621-36,서울 관악구 남부순환로234길 43,070-8100-9091,카페,음식점 > 카페,http://place.map.kakao.com/802510891
13,27279304,아모르미오,서울 관악구 봉천동 1679-8,서울 관악구 행운2길 20,070-4306-5006,카페,음식점 > 카페,http://place.map.kakao.com/27279304
14,565350702,비엔나커피하우스 신림점,서울 관악구 신림동 1431-12,서울 관악구 신림로 363,02-875-1683,카페,음식점 > 카페 > 커피전문점,http://place.map.kakao.com/565350702
15,482399452,소디스커피,서울 관악구 봉천동 1613-14,서울 관악구 남부순환로230길 45,02-6084-0061,카페,음식점 > 카페,http://place.map.kakao.com/482399452
16,924997751,오후의과일,서울 관악구 봉천동 1599-4,서울 관악구 관악로14길 15,,카페,음식점 > 카페 > 테마카페 > 디저트카페,http://place.map.kakao.com/924997751
17,23980857,아띠,서울 관악구 봉천동 1569-3,서울 관악구 쑥고개로 137,02-876-3110,카페,음식점 > 카페 > 테마카페 > 디저트카페,http://place.map.kakao.com/23980857
18,1175054334,테이블1629,서울 관악구 봉천동 947-15,서울 관악구 장군봉2길 32,02-883-1629,카페,음식점 > 카페,http://place.map.kakao.com/1175054334
19,1820763284,인투커피,서울 관악구 신림동 530-1,서울 관악구 난곡로 331,02-6083-1170,카페,음식점 > 카페 > 커피전문점,http://place.map.kakao.com/1820763284
20,427369680,스타벅스 낙성대DT점,서울 관악구 봉천동 1657-3,서울 관악구 남부순환로 1948,,카페,음식점 > 카페 > 커피전문점 > 스타벅스,http://place.map.kakao.com/427369680
21,1850085124,시트론오피스,서울 관악구 봉천동 1612-51,서울 관악구 남부순환로234길 18,02-878-0407,카페,음식점 > 카페,http://place.map.kakao.com/1850085124
22,2074224653,스타벅스 관악서울대입구R점,서울 관악구 봉천동 856-6,서울 관악구 관악로 158,1522-3232,카페,음식점 > 카페 > 커피전문점 > 스타벅스,http://place.map.kakao.com/2074224653
23,15617815,마티스커피 신림점,서울 관악구 서원동 1638-5,서울 관악구 신림로59길 15-6,02-884-6321,카페,음식점 > 카페 > 커피전문점,http://place.map.kakao.com/15617815
24,784815881,스타벅스 신림DT점,서울 관악구 신림동 564-12,서울 관악구 남부순환로 1419,,카페,음식점 > 카페 > 커피전문점 > 스타벅스,http://place.map.kakao.com/784815881
25,18826167,오렌지연필,서울 관악구 봉천동 1680-11,서울 관악구 남부순환로 1895,02-6295-6000,카페,음식점 > 카페,http://place.map.kakao.com/18826167
26,17127069,스타벅스 서울대입구역점,서울 관악구 봉천동 869-1,서울 관악구 남부순환로 1812,1522-3232,카페,음식점 > 카페 > 커피전문점 > 스타벅스,http://place.map.kakao.com/17127069
27,246370372,커피볶는여자,서울 관악구 봉천동 1613-4,서울 관악구 관악로14가길 2,,카페,음식점 > 카페 > 커피전문점,http://place.map.kakao.com/246370372
28,23447734,스타벅스 사당R점,서울 관악구 남현동 1060-10,서울 관악구 남부순환로 2082-25,1522-3232,카페,음식점 > 카페 > 커피전문점 > 스타벅스,http://place.map.kakao.com/23447734
29,2127422166,카페인중독 신림본점,서울 관악구 신림동 1455-1,서울 관악구 봉천로6길 40,02-877-1238,카페,음식점 > 카페 > 커피전문점,http://place.map.kakao.com/2127422166
30,17736099,투썸플레이스 사당점,서울 관악구 남현동 1060-3,서울 관악구 남부순환로 2082-33,02-581-7767,카페,음식점 > 카페 > 커피전문점 > 투썸플레이스,http://place.map.kakao.com/17736099
31,948781290,카페프레임,서울 관악구 봉천동 1626-1,서울 관악구 관악로14길 94,070-4201-1001,카페,음식점 > 카페,http://place.map.kakao.com/948781290
32,179734609,카페녹다,서울 관악구 신림동 1538-7,서울 관악구 신림로15길 31,,카페,음식점 > 카페,http://place.map.kakao.com/179734609
33,522731160,궁전다방,서울 관악구 신림동 1570-5,서울 관악구 남부순환로 1500,,카페,음식점 > 카페 > 다방,http://place.map.kakao.com/522731160
34,20233446,혼자두면 장판뜯어서차린 개카페,서울 관악구 봉천동 959-2,서울 관악구 남부순환로 1665,02-887-3058,카페,음식점 > 카페 > 테마카페 > 애견카페,http://place.map.kakao.com/20233446
35,263900245,카페보니또 사당점,서울 관악구 남현동 1055-6,서울 관악구 남부순환로 2032,02-584-0011,카페,음식점 > 카페,http://place.map.kakao.com/263900245
36,1056160303,보스커피&브런치,서울 관악구 봉천동 925-7,서울 관악구 봉천로33길 7,02-872-8345,카페,음식점 > 카페 > 테마카페 > 디저트카페,http://place.map.kakao.com/1056160303
37,19526058,스타벅스 신림타임스트림점,서울 관악구 신림동 1641-101,서울 관악구 신림로 330,1522-3232,카페,음식점 > 카페 > 커피전문점 > 스타벅스,http://place.map.kakao.com/19526058
38,1289020581,저스트로맨틱,서울 관악구 신림동 116-23,서울 관악구 신림로 134,,카페,음식점 > 카페,http://place.map.kakao.com/1289020581
39,20908729,스타벅스 신림사거리점,서울 관악구 신림동 1422-36,서울 관악구 남부순환로 1619,1522-3232,카페,음식점 > 카페 > 커피전문점 > 스타벅스,http://place.map.kakao.com/20908729
40,1150937270,행운당,서울 관악구 봉천동 1671-35,서울 관악구 행운1길 40,,카페,음식점 > 카페,http://place.map.kakao.com/1150937270
41,699361037,플레이온보드게임카페 신림점,서울 관악구 신림동 1639-8,서울 관악구 남부순환로 1592,02-882-5727,카페,음식점 > 카페 > 테마카페 > 보드카페,http://place.map.kakao.com/699361037
42,13064358,투썸플레이스 신림역점,서울 관악구 신림동 1424-28,서울 관악구 신림로 350,02-882-7873,카페,음식점 > 카페 > 커피전문점 > 투썸플레이스,http://place.map.kakao.com/13064358
43,820394456,뉴욕택시디저트,서울 관악구 봉천동 1664-16,서울 관악구 남부순환로 1870,070-8711-1013,카페,음식점 > 카페 > 테마카페 > 디저트카페,http://place.map.kakao.com/820394456
44,1525065582,달다어요,서울 관악구 신림동 1419-23,서울 관악구 신림로68길 38,,카페,음식점 > 카페,http://place.map.kakao.com/1525065582
0,1877580394,카페노티드 서래,서울 서초구 방배동 838-29,서울 서초구 방배로32길 30-9,02-599-9377,카페,음식점 > 카페 > 테마카페 > 디저트카페,http://place.map.kakao.com/1877580394
1,554364299,프릳츠 양재점,서울 서초구 서초동 1363-10,서울 서초구 강남대로37길 24-11,02-521-4148,카페,음식점 > 카페,http://place.map.kakao.com/554364299
2,759710306,토즈모임센터 강남컨퍼런스점,서울 서초구 서초동 1305-1,서울 서초구 강남대로 441,0507-1314-0118,카페,"서비스,산업 > 전문대행 > 공간대여 > 모임공간 > 토즈모임센터",http://place.map.kakao.com/759710306
3,27607461,토즈모임센터 양재점,서울 서초구 양재동 11-2,서울 서초구 남부순환로 2606,02-2058-0118,카페,"서비스,산업 > 전문대행 > 공간대여 > 모임공간 > 토즈모임센터",http://place.map.kakao.com/27607461
4,96877138,태양커피,서울 서초구 방배동 851-18,서울 서초구 서초대로25길 55,0507-1426-8181,카페,음식점 > 카페 > 커피전문점,http://place.map.kakao.com/96877138
5,1614713440,공미학,서울 서초구 서초동 1564-1,서울 서초구 서초대로48길 101,02-6462-9000,카페,음식점 > 카페 > 커피전문점,http://place.map.kakao.com/1614713440
6,559888657,캐틀앤비 양재천점,서울 서초구 양재동 90-4,서울 서초구 양재천로 131,02-578-2737,카페,음식점 > 카페 > 테마카페 > 디저트카페,http://place.map.kakao.com/559888657
7,1817287702,카페토다,서울 서초구 우면동 176-5,서울 서초구 성촌6길 39,02-529-5401,카페,음식점 > 카페,http://place.map.kakao.com/1817287702
8,24786161,카몽,서울 서초구 서초동 1552-2,서울 서초구 서초대로42길 17,02-522-5949,카페,음식점 > 카페 > 테마카페 > 디저트카페,http://place.map.kakao.com/24786161
9,26965232,마얘,서울 서초구 반포동 106-6,서울 서초구 사평대로22길 14,02-749-1411,카페,음식점 > 카페 > 테마카페 > 디저트카페,http://place.map.kakao.com/26965232
10,19232112,장꼬방,서울 서초구 서초동 1316,서울 서초구 강남대로61길 27,02-597-5511,카페,음식점 > 카페 > 테마카페 > 디저트카페,http://place.map.kakao.com/19232112
11,1199071795,프리퍼커피로스터스,서울 서초구 서초동 1475-5,서울 서초구 반포대로5길 4,,카페,음식점 > 카페 > 커피전문점,http://place.map.kakao.com/1199071795
12,24284857,세컨브레스,서울 서초구 양재동 98-4,서울 서초구 양재천로 95-2,02-575-9840,카페,음식점 > 카페,http://place.map.kakao.com/24284857
13,61362421,쿠오레에스프레소,서울 서초구 서초동 1357-66,서울 서초구 강남대로 275,070-7750-9230,카페,음식점 > 카페 > 커피전문점,http://place.map.kakao.com/61362421
14,1604364458,커피앳웍스 양재역점,서울 서초구 서초동 1366-5,서울 서초구 강남대로 241,02-521-3178,카페,음식점 > 카페 > 커피전문점,http://place.map.kakao.com/1604364458
15,1522325014,타르타르 강남역점,서울 서초구 서초동 1317-2,서울 서초구 강남대로61길 13,010-9497-2922,카페,음식점 > 카페 > 테마카페 > 디저트카페,http://place.map.kakao.com/1522325014
16,178351175,테라로사 예술의전당점,서울 서초구 서초동 700,서울 서초구 남부순환로 2406,,카페,음식점 > 카페 > 커피전문점,http://place.map.kakao.com/178351175
17,1892493356,사푼사푼 강남역점,서울 서초구 서초동 1329,서울 서초구 강남대로 355,02-521-4565,카페,음식점 > 카페,http://place.map.kakao.com/1892493356
18,1832330806,심재,서울 서초구 양재동 347-2,서울 서초구 동산로2길 40,070-8826-9000,카페,음식점 > 카페,http://place.map.kakao.com/1832330806
19,303680808,딥다이브,서울 서초구 방배동 435-2,서울 서초구 방배천로18길 36-5,070-7514-2104,카페,음식점 > 카페 > 테마카페 > 디저트카페,http://place.map.kakao.com/303680808
20,742991232,앙떼띠 팝업스토어,서울 서초구 반포동 92-5,서울 서초구 사평대로26길 24,02-6406-7410,카페,음식점 > 카페,http://place.map.kakao.com/742991232
21,25502514,스타벅스 파미에파크R점,서울 서초구 반포동 118-3,서울 서초구 사평대로 205,,카페,음식점 > 카페 > 커피전문점 > 스타벅스,http://place.map.kakao.com/25502514
22,278752760,태양커피 사당점,서울 서초구 방배동 453-33,서울 서초구 방배천로 32,,카페,음식점 > 카페 > 커피전문점,http://place.map.kakao.com/278752760
23,833631082,카페노티드 강남카카오점,서울 서초구 서초동 1305-8,서울 서초구 강남대로 429,070-8869-9377,카페,음식점 > 카페 > 테마카페 > 디저트카페,http://place.map.kakao.com/833631082
24,27410243,37.5 서래마을점,서울 서초구 반포동 106-8,서울 서초구 서래로7길 16,02-593-3705,카페,음식점 > 카페,http://place.map.kakao.com/27410243
25,523268743,카페더나인스퀘어 강남본점,서울 서초구 서초동 1317-14,서울 서초구 서초대로77길 5,02-516-2657,카페,음식점 > 카페 > 테마카페 > 디저트카페,http://place.map.kakao.com/523268743
26,1634781091,카페로비,서울 서초구 서초동 1564-4,서울 서초구 반포대로20길 53,070-4300-4180,카페,음식점 > 카페 > 테마카페 > 디저트카페,http://place.map.kakao.com/1634781091
27,764290074,헬무트,서울 서초구 방배동 453-22,서울 서초구 방배천로6길 3-10,,카페,음식점 > 카페,http://place.map.kakao.com/764290074
28,13282390,카페페라,서울 서초구 방배동 444-3,서울 서초구 방배천로 11,02-522-2582,카페,음식점 > 카페,http://place.map.kakao.com/13282390
29,2050364953,레어마카롱 서초점,서울 서초구 서초동 1561-8,서울 서초구 반포대로24길 47,070-8866-6809,카페,음식점 > 카페 > 테마카페 > 디저트카페,http://place.map.kakao.com/2050364953
30,498076105,티그레블랑코,서울 서초구 반포동 718-1,서울 서초구 주흥길 64-17,02-6498-1469,카페,음식점 > 카페,http://place.map.kakao.com/498076105
31,1051388798,비엔나커피하우스 이수역점,서울 서초구 방배동 438-24,서울 서초구 동작대로 86,02-522-1683,카페,음식점 > 카페 > 커피전문점,http://place.map.kakao.com/1051388798
32,2026998817,타짜도르 강남점,서울 서초구 서초동 1309,서울 서초구 서초대로77길 61,070-8848-9965,카페,음식점 > 카페,http://place.map.kakao.com/2026998817
33,27402054,폴바셋 강남삼성타운점,서울 서초구 서초동 1327-1,서울 서초구 서초대로78길 22,02-523-5656,카페,음식점 > 카페 > 커피전문점 > 폴바셋,http://place.map.kakao.com/27402054
34,1539001784,빽다방 빵연구소 신사사거리점,서울 서초구 잠원동 20-9,서울 서초구 강남대로 605,02-517-0410,카페,음식점 > 카페 > 커피전문점 > 빽다방,http://place.map.kakao.com/1539001784
35,2079708590,비엔나커피하우스 방배점,서울 서초구 방배동 902-4,서울 서초구 방배로 126,02-585-1683,카페,음식점 > 카페 > 커피전문점,http://place.map.kakao.com/2079708590
36,1048071601,리프레셔스,서울 서초구 방배동 528-15,서울 서초구 청두곶6길 8,010-4277-2519,카페,음식점 > 카페,http://place.map.kakao.com/1048071601
37,429781054,세컨클락,서울 서초구 신원동 263-6,서울 서초구 청룡마을길 41,02-594-7606,카페,음식점 > 카페 > 커피전문점,http://place.map.kakao.com/429781054
38,1607210817,쿄베이커리 더인피닛카페,서울 서초구 서초동 1303-9,서울 서초구 사평대로58길 6,02-536-2838,카페,음식점 > 카페 > 테마카페 > 디저트카페,http://place.map.kakao.com/1607210817
39,27367643,미스터리룸 이스케이프 강남점,서울 서초구 서초동 1308-10,서울 서초구 서초대로77길 37,02-536-2564,카페,음식점 > 카페 > 테마카페,http://place.map.kakao.com/27367643
40,1047364119,플랫다이닝카페,서울 서초구 서초동 1659-2,서울 서초구 서초중앙로22길 22-7,02-598-1224,카페,음식점 > 카페,http://place.map.kakao.com/1047364119
41,1905394241,그릿918,서울 서초구 서초동 1715-5,서울 서초구 법원로2길 24,02-535-0918,카페,음식점 > 카페 > 테마카페 > 디저트카페,http://place.map.kakao.com/1905394241
42,738869999,엔트런스,서울 서초구 서초동 1643-32,서울 서초구 사임당로19길 72-3,,카페,음식점 > 카페,http://place.map.kakao.com/738869999
43,713850095,카페도킹,서울 서초구 양재동 280-10,서울 서초구 동산로19길 54,070-7757-1207,카페,음식점 > 카페,http://place.map.kakao.com/713850095
44,446015150,미스터힐링 교대역점,서울 서초구 서초동 1575-4,서울 서초구 서초중앙로 111,02-582-2220,카페,음식점 > 카페 > 테마카페,http://place.map.kakao.com/446015150
0,17206019,토즈모임센터 강남역토즈타워점,서울 강남구 역삼동 827-3,서울 강남구 강남대로84길 24-4,02-3454-0116,카페,"서비스,산업 > 전문대행 > 공간대여 > 모임공간 > 토즈모임센터",http://place.map.kakao.com/17206019
1,348276052,카페노티드 청담,서울 강남구 신사동 654-9,서울 강남구 도산대로53길 15,070-8860-9377,카페,음식점 > 카페 > 테마카페 > 디저트카페,http://place.map.kakao.com/348276052
2,179244712,꽁티드툴레아 도산점,서울 강남구 신사동 646-21,서울 강남구 도산대로49길 39,070-8846-8490,카페,음식점 > 카페 > 테마카페 > 디저트카페,http://place.map.kakao.com/179244712
3,1860681564,테라로사 포스코센터점,서울 강남구 대치동 892,서울 강남구 테헤란로 440,033-648-2760,카페,음식점 > 카페 > 커피전문점,http://place.map.kakao.com/1860681564
4,495658881,블루보틀 역삼 카페,서울 강남구 역삼동 648-9,서울 강남구 테헤란로 129,1533-6906,카페,음식점 > 카페,http://place.map.kakao.com/495658881
5,22837049,알베르,서울 강남구 역삼동 618-11,서울 강남구 강남대로102길 34,02-566-6181,카페,음식점 > 카페,http://place.map.kakao.com/22837049
6,11367199,토즈모임센터 선릉점,서울 강남구 대치동 890-34,서울 강남구 테헤란로70길 14-8,02-2052-0113,카페,"서비스,산업 > 전문대행 > 공간대여 > 모임공간 > 토즈모임센터",http://place.map.kakao.com/11367199
7,22549791,마일스톤커피,서울 강남구 신사동 554-4,서울 강남구 논현로159길 49,070-4219-1195,카페,음식점 > 카페 > 커피전문점,http://place.map.kakao.com/22549791
8,714214219,랑데자뷰 강남점,서울 강남구 역삼동 618-18,서울 강남구 봉은사로6길 39,02-552-0204,카페,음식점 > 카페,http://place.map.kakao.com/714214219
9,858715549,카페캠프통,서울 강남구 신사동 643-22,서울 강남구 압구정로42길 27,02-3445-0369,카페,음식점 > 카페 > 테마카페 > 디저트카페,http://place.map.kakao.com/858715549
10,2005375589,썸띵어바웃커피,서울 강남구 역삼동 618-16,서울 강남구 강남대로102길 30,,카페,음식점 > 카페 > 테마카페 > 디저트카페,http://place.map.kakao.com/2005375589
11,1937691860,카페413프로젝트,서울 강남구 역삼동 640-9,서울 강남구 논현로97길 19-11,070-7798-0544,카페,음식점 > 카페,http://place.map.kakao.com/1937691860
12,1168471307,도산맘마,서울 강남구 신사동 645-26,서울 강남구 압구정로42길 45,02-511-0620,카페,음식점 > 카페,http://place.map.kakao.com/1168471307
13,1106428073,정월,서울 강남구 역삼동 618-21,서울 강남구 강남대로102길 46,02-6013-0926,카페,음식점 > 카페,http://place.map.kakao.com/1106428073
14,1075937756,토즈모임센터 역삼점,서울 강남구 역삼동 668-5,서울 강남구 논현로98길 6,02-3452-0811,카페,"서비스,산업 > 전문대행 > 공간대여 > 모임공간 > 토즈모임센터",http://place.map.kakao.com/1075937756
15,1720885570,블루보틀 압구정 카페,서울 강남구 신사동 610-6,서울 강남구 논현로 854,1533-6906,카페,음식점 > 카페,http://place.map.kakao.com/1720885570
16,27220692,C27 가로수길본점,서울 강남구 신사동 545-12,서울 강남구 도산대로15길 39,02-544-1527,카페,음식점 > 카페 > 테마카페 > 디저트카페,http://place.map.kakao.com/27220692
17,19808159,오리지널 팬케이크하우스 가로수길점,서울 강남구 신사동 523-20,서울 강남구 강남대로162길 41,02-511-7481,카페,음식점 > 카페 > 테마카페 > 디저트카페,http://place.map.kakao.com/19808159
18,63672709,카페써드,서울 강남구 논현동 118-4,서울 강남구 선릉로131길 11,070-7773-4559,카페,음식점 > 카페 > 커피전문점,http://place.map.kakao.com/63672709
19,10159026,고센,서울 강남구 청담동 88-23,서울 강남구 선릉로158길 18,02-515-1863,카페,음식점 > 카페,http://place.map.kakao.com/10159026
20,22400767,10꼬르소꼬모카페,서울 강남구 청담동 79,서울 강남구 압구정로 416,,카페,음식점 > 카페 > 테마카페,http://place.map.kakao.com/22400767
21,2014699390,맷카페,서울 강남구 논현동 255-5,서울 강남구 학동로50길 42,070-7599-2212,카페,음식점 > 카페,http://place.map.kakao.com/2014699390
22,530432745,테일러커피 신사점,서울 강남구 신사동 521-17,서울 강남구 강남대로160길 31,02-511-0355,카페,음식점 > 카페,http://place.map.kakao.com/530432745
23,12285498,토즈모임센터 삼성점,서울 강남구 삼성동 169-1,서울 강남구 테헤란로103길 14,02-538-0118,카페,"서비스,산업 > 전문대행 > 공간대여 > 모임공간 > 토즈모임센터",http://place.map.kakao.com/12285498
24,19601351,트리아농,서울 강남구 청담동 26-5,서울 강남구 학동로59길 43,070-8129-5955,카페,음식점 > 카페 > 테마카페 > 디저트카페,http://place.map.kakao.com/19601351
25,27550461,카페무라노,서울 강남구 역삼동 601-30,서울 강남구 강남대로110길 21,02-555-8853,카페,음식점 > 카페,http://place.map.kakao.com/27550461
26,27287887,토즈 압구정센터,서울 강남구 신사동 608-13,서울 강남구 압구정로34길 32,02-544-0117,카페,"서비스,산업 > 전문대행 > 공간대여 > 모임공간 > 토즈모임센터",http://place.map.kakao.com/27287887
27,305164716,버터풀&크리멀러스,서울 강남구 신사동 662-11,서울 강남구 언주로172길 59,02-518-2223,카페,음식점 > 카페 > 테마카페 > 디저트카페,http://place.map.kakao.com/305164716
28,1863764320,논탄토,서울 강남구 신사동 544-23,서울 강남구 도산대로17길 35,,카페,음식점 > 카페,http://place.map.kakao.com/1863764320
29,2120434164,소진담 신사점,서울 강남구 신사동 551-23,서울 강남구 논현로161길 51,02-542-5550,카페,음식점 > 카페,http://place.map.kakao.com/2120434164
30,1429592845,토즈모임센터 강남구청역점,서울 강남구 논현동 118-15,서울 강남구 학동로 335,02-3446-5200,카페,"서비스,산업 > 전문대행 > 공간대여 > 모임공간 > 토즈모임센터",http://place.map.kakao.com/1429592845
31,84268936,가배도 신논현점,서울 강남구 역삼동 601-12,서울 강남구 강남대로110길 13,02-554-4542,카페,음식점 > 카페 > 다방,http://place.map.kakao.com/84268936
32,7948829,세시셀라 도산공원점,서울 강남구 신사동 651-4,서울 강남구 도산대로45길 10-4,02-3448-7100,카페,음식점 > 카페 > 테마카페 > 디저트카페,http://place.map.kakao.com/7948829
33,1045674602,껠끄쇼즈,서울 강남구 대치동 1023-19,서울 강남구 도곡로70길 5,,카페,음식점 > 카페 > 테마카페 > 디저트카페,http://place.map.kakao.com/1045674602
34,561053021,루프808,서울 강남구 역삼동 808,서울 강남구 강남대로 470,02-3452-8088,카페,음식점 > 카페,http://place.map.kakao.com/561053021
35,1016477143,기욤 청담점,서울 강남구 청담동 88-37,서울 강남구 선릉로152길 17,02-512-6701,카페,음식점 > 카페 > 테마카페 > 디저트카페,http://place.map.kakao.com/1016477143
36,26497476,테라로사 코엑스점,서울 강남구 삼성동 159,서울 강남구 영동대로 513,,카페,음식점 > 카페 > 커피전문점,http://place.map.kakao.com/26497476
37,336690720,아우어베이커리 싸이더스점,서울 강남구 논현동 267-20,서울 강남구 선릉로 629,02-541-6639,카페,음식점 > 카페 > 테마카페 > 디저트카페,http://place.map.kakao.com/336690720
38,27349884,빌리엔젤 강남역점,서울 강남구 역삼동 619-16,서울 강남구 테헤란로1길 48,070-5051-8135,카페,음식점 > 카페 > 테마카페 > 디저트카페,http://place.map.kakao.com/27349884
39,854219809,달링키친,서울 강남구 논현동 247-9,서울 강남구 언주로126길 25,02-540-3460,카페,음식점 > 카페,http://place.map.kakao.com/854219809
40,11069279,미엘,서울 강남구 청담동 94-3,서울 강남구 도산대로67길 13-12,02-512-2395,카페,음식점 > 카페 > 테마카페 > 갤러리카페,http://place.map.kakao.com/11069279
41,1996014742,펠트커피 도산공원점,서울 강남구 신사동 645-21,서울 강남구 언주로164길 23,070-7756-3145,카페,음식점 > 카페,http://place.map.kakao.com/1996014742
42,27301629,디올카페,서울 강남구 청담동 98-12,서울 강남구 압구정로 464,,카페,음식점 > 카페 > 테마카페 > 디저트카페,http://place.map.kakao.com/27301629
43,1169822758,파넬카페,서울 강남구 신사동 649-2,서울 강남구 언주로164길 14,,카페,음식점 > 카페,http://place.map.kakao.com/1169822758
44,27196653,파시0914,서울 강남구 신사동 631-35,서울 강남구 도산대로45길 15,02-2056-0917,카페,음식점 > 카페,http://place.map.kakao.com/27196653
0,702337989,라라브레드 송파점,서울 송파구 송파동 58-8,서울 송파구 오금로16길 4,1800-1990,카페,음식점 > 카페 > 테마카페 > 디저트카페,http://place.map.kakao.com/702337989
1,1877651691,벨라스가든,서울 송파구 송파동 32-2,서울 송파구 백제고분로41길 42-19,02-424-4243,카페,음식점 > 카페,http://place.map.kakao.com/1877651691
2,244820280,뷰클런즈,서울 송파구 송파동 45-18,서울 송파구 백제고분로43길 10,070-4065-4860,카페,음식점 > 카페,http://place.map.kakao.com/244820280
3,288452481,서울리즘,서울 송파구 송파동 48-7,서울 송파구 백제고분로 435,02-412-0812,카페,음식점 > 카페 > 커피전문점,http://place.map.kakao.com/288452481
4,27288893,프로퍼커피바,서울 송파구 오금동 8-5,서울 송파구 위례성대로22길 6,02-3401-0703,카페,음식점 > 카페,http://place.map.kakao.com/27288893
5,1087045460,젠젠 잠실점,서울 송파구 송파동 56-1,서울 송파구 백제고분로45길 34,02-412-7240,카페,음식점 > 카페 > 테마카페 > 디저트카페,http://place.map.kakao.com/1087045460
6,21404892,뉴질랜드스토리,서울 송파구 송파동 32-1,서울 송파구 석촌호수로 268,070-7523-6265,카페,음식점 > 카페,http://place.map.kakao.com/21404892
7,581669019,서정적살롱,서울 송파구 송파동 32-7,서울 송파구 석촌호수로 274,02-415-7670,카페,음식점 > 카페,http://place.map.kakao.com/581669019
8,2048471337,디트로네 잠실점,서울 송파구 송파동 7-1,서울 송파구 석촌호수로 258,02-422-5021,카페,음식점 > 카페,http://place.map.kakao.com/2048471337
9,1030591315,오린지,서울 송파구 송파동 30-9,서울 송파구 송파대로48길 19,,카페,음식점 > 카페 > 테마카페 > 디저트카페,http://place.map.kakao.com/1030591315
10,418254115,앙떼띠 잠실점,서울 송파구 방이동 23-2,서울 송파구 올림픽로 342,02-420-7410,카페,음식점 > 카페 > 테마카페 > 디저트카페,http://place.map.kakao.com/418254115
11,438591937,커피바이 로스터스,서울 송파구 잠실동 208-1,서울 송파구 백제고분로17길 56,02-415-4153,카페,음식점 > 카페 > 커피전문점,http://place.map.kakao.com/438591937
12,235831720,카페이클립스,서울 송파구 석촌동 24,서울 송파구 송파대로49길 52,010-7147-0401,카페,음식점 > 카페,http://place.map.kakao.com/235831720
13,70270612,위커파크,서울 송파구 송파동 58-1,서울 송파구 석촌호수로 298,010-2942-0447,카페,음식점 > 카페,http://place.map.kakao.com/70270612
14,1859284257,터치183,서울 송파구 방이동 183,서울 송파구 위례성대로 126,0507-1409-1500,카페,음식점 > 카페,http://place.map.kakao.com/1859284257
15,596720708,얼터너티브,서울 송파구 송파동 131-25,서울 송파구 백제고분로46길 26-1,02-425-0120,카페,음식점 > 카페,http://place.map.kakao.com/596720708
16,26869549,홍팥집 오금점,서울 송파구 오금동 140-15,서울 송파구 성내천로 77,02-430-6577,카페,음식점 > 카페 > 테마카페 > 디저트카페,http://place.map.kakao.com/26869549
17,1215442657,카페노티드 잠실,서울 송파구 송파동 46-4,서울 송파구 백제고분로45길 3,070-8836-9377,카페,음식점 > 카페 > 테마카페 > 디저트카페,http://place.map.kakao.com/1215442657
18,874421812,디어블라썸커피,서울 송파구 잠실동 205-1,서울 송파구 올림픽로12길 23,02-6014-4619,카페,음식점 > 카페,http://place.map.kakao.com/874421812
19,24545480,에브리데이몬데이,서울 송파구 송파동 9-17,서울 송파구 송파대로48길 14,010-4393-0622,카페,음식점 > 카페 > 테마카페 > 갤러리카페,http://place.map.kakao.com/24545480
20,800653208,레어마카롱 본점,서울 송파구 송파동 58-4,서울 송파구 오금로 126,070-7717-6809,카페,음식점 > 카페 > 테마카페 > 디저트카페,http://place.map.kakao.com/800653208
21,1112770031,카페온화 송파점,서울 송파구 송파동 42,서울 송파구 백제고분로45길 15,,카페,음식점 > 카페,http://place.map.kakao.com/1112770031
22,363104233,진저베어 파이샵,서울 송파구 송파동 8-10,서울 송파구 백제고분로41길 43-7,,카페,음식점 > 카페 > 테마카페 > 디저트카페,http://place.map.kakao.com/363104233
23,19432583,잉클링,서울 송파구 가락동 94-5,서울 송파구 양재대로60길 3-5,02-565-5194,카페,음식점 > 카페,http://place.map.kakao.com/19432583
24,1193286973,리프레쉬커피,서울 송파구 문정동 107-3,서울 송파구 송이로30길 11,02-400-0910,카페,음식점 > 카페 > 커피전문점,http://place.map.kakao.com/1193286973
25,1860330877,카페페퍼,서울 송파구 송파동 51-10,서울 송파구 백제고분로45길 12,02-421-0514,카페,음식점 > 카페,http://place.map.kakao.com/1860330877
26,1272240792,코히루,서울 송파구 송파동 48-16,서울 송파구 오금로 148,070-8834-5252,카페,음식점 > 카페,http://place.map.kakao.com/1272240792
27,22547048,스타벅스 석촌호수점,서울 송파구 송파동 7-5,서울 송파구 석촌호수로 262,,카페,음식점 > 카페 > 커피전문점 > 스타벅스,http://place.map.kakao.com/22547048
28,755265788,가배도 송파점,서울 송파구 송파동 49-5,서울 송파구 백제고분로45길 6,,카페,음식점 > 카페,http://place.map.kakao.com/755265788
29,2022863434,비엔나커피하우스 잠실역점,서울 송파구 신천동 7-28,서울 송파구 올림픽로 293-19,02-425-1683,카페,음식점 > 카페 > 커피전문점,http://place.map.kakao.com/2022863434
30,497798133,디저티스트,서울 송파구 송파동 33,서울 송파구 송파대로48길 37,,카페,음식점 > 카페 > 테마카페 > 디저트카페,http://place.map.kakao.com/497798133
31,1750399435,퍼햅스,서울 송파구 삼전동 108-2,서울 송파구 백제고분로29길 29,0507-1390-9811,카페,음식점 > 카페,http://place.map.kakao.com/1750399435
32,900095185,호이안로스터리 1호점,서울 송파구 문정동 204-1,서울 송파구 법원로 128,02-527-8929,카페,음식점 > 카페,http://place.map.kakao.com/900095185
33,254643912,팻어케이크,서울 송파구 송파동 45-4,서울 송파구 백제고분로45길 9,02-123-1234,카페,음식점 > 카페 > 테마카페 > 디저트카페,http://place.map.kakao.com/254643912
34,909388417,자몽하다,서울 송파구 송파동 135-5,서울 송파구 백제고분로 438,02-423-1854,카페,음식점 > 카페 > 테마카페 > 디저트카페,http://place.map.kakao.com/909388417
35,1609818137,벌툰 잠실새내점,서울 송파구 잠실동 180-9,서울 송파구 백제고분로7길 27,070-7575-0600,카페,음식점 > 카페 > 테마카페 > 만화카페,http://place.map.kakao.com/1609818137
36,21580658,스타벅스 잠실새내역점,서울 송파구 잠실동 181,서울 송파구 올림픽로 96,,카페,음식점 > 카페 > 커피전문점 > 스타벅스,http://place.map.kakao.com/21580658
37,1360779553,지오커피,서울 송파구 문정동 69-5,서울 송파구 새말로 97,,카페,음식점 > 카페 > 커피전문점,http://place.map.kakao.com/1360779553
38,1987965338,르쉬드서울,서울 송파구 방이동 164-5,서울 송파구 위례성대로12길 18,02-476-9168,카페,음식점 > 카페 > 커피전문점,http://place.map.kakao.com/1987965338
39,1225656491,몬스터핸드보드카페 방이점,서울 송파구 방이동 62-8,서울 송파구 오금로13길 9,02-422-6054,카페,음식점 > 카페 > 테마카페 > 보드카페,http://place.map.kakao.com/1225656491
40,223148556,이월로스터스 송파1호점,서울 송파구 송파동 51-7,서울 송파구 백제고분로45길 14,070-8839-1004,카페,음식점 > 카페,http://place.map.kakao.com/223148556
41,1130138697,스타벅스 송파나루역DT점,서울 송파구 송파동 59-9,서울 송파구 오금로 142,1522-3232,카페,음식점 > 카페 > 커피전문점 > 스타벅스,http://place.map.kakao.com/1130138697
42,1416428207,카페드로잉,서울 송파구 문정동 618,서울 송파구 송파대로 111,,카페,음식점 > 카페 > 테마카페,http://place.map.kakao.com/1416428207
43,590696681,카페그리너티,서울 송파구 풍납동 150-13,서울 송파구 풍성로23길 17,,카페,음식점 > 카페,http://place.map.kakao.com/590696681
44,24545311,홍팥집 문정점,서울 송파구 문정동 99-7,서울 송파구 새말로 154,02-402-6577,카페,음식점 > 카페 > 테마카페 > 디저트카페,http://place.map.kakao.com/24545311
0,630064388,스윗솔트,서울 강동구 명일동 222-3,서울 강동구 상암로 286,02-3427-0999,카페,음식점 > 카페 > 테마카페 > 디저트카페,http://place.map.kakao.com/630064388
1,1319161148,브랜뉴하이몬드,서울 강동구 성내동 43-19,서울 강동구 천호옛14길 11,02-478-2402,카페,음식점 > 카페 > 테마카페 > 디저트카페,http://place.map.kakao.com/1319161148
2,622634747,미드데이썬,서울 강동구 성내동 432-4,서울 강동구 양재대로91나길 55,0507-136-9308,카페,음식점 > 카페 > 테마카페 > 디저트카페,http://place.map.kakao.com/622634747
3,448338392,성내동커피집 온온,서울 강동구 성내동 469-9,서울 강동구 성내로18길 34,010-1234-5678,카페,음식점 > 카페,http://place.map.kakao.com/448338392
4,780872492,평상시 암사점,서울 강동구 암사동 458-67,서울 강동구 고덕로20길 26,,카페,음식점 > 카페,http://place.map.kakao.com/780872492
5,1011094918,채스우드커피,서울 강동구 성내동 434-20,서울 강동구 성안로 42,02-470-4562,카페,음식점 > 카페,http://place.map.kakao.com/1011094918
6,14829724,분홍다이닝,서울 강동구 천호동 453-8,서울 강동구 천호대로157길 18,02-473-9388,카페,음식점 > 카페,http://place.map.kakao.com/14829724
7,1171056769,테라로사 길동점,서울 강동구 길동 255-2,서울 강동구 천호대로 1221,,카페,음식점 > 카페 > 커피전문점,http://place.map.kakao.com/1171056769
8,26874715,디자인카페허브,서울 강동구 둔촌동 580-6,서울 강동구 천호대로200길 15-16,02-417-0437,카페,음식점 > 카페 > 커피전문점,http://place.map.kakao.com/26874715
9,26925107,스타벅스 천호로데오점,서울 강동구 천호동 453-14,서울 강동구 천호대로 1037,1522-3232,카페,음식점 > 카페 > 커피전문점 > 스타벅스,http://place.map.kakao.com/26925107
10,1980415186,카페제이,서울 강동구 고덕동 294-1,서울 강동구 동남로82길 19,070-8270-9370,카페,음식점 > 카페,http://place.map.kakao.com/1980415186
11,735973978,파트원나이스,서울 강동구 천호동 321-16,서울 강동구 올림픽로89길 29,,카페,음식점 > 카페,http://place.map.kakao.com/735973978
12,458149934,브리에,서울 강동구 성내동 436-30,서울 강동구 강동대로51길 50,010-6757-7304,카페,음식점 > 카페 > 테마카페 > 디저트카페,http://place.map.kakao.com/458149934
13,1354198789,펠어커피 강동점,서울 강동구 성내동 12-29,서울 강동구 천호옛14길 23-12,070-7702-6096,카페,음식점 > 카페 > 커피전문점,http://place.map.kakao.com/1354198789
14,27408085,피에로커피,서울 강동구 성내동 465,서울 강동구 성내로14길 27,02-471-5618,카페,음식점 > 카페,http://place.map.kakao.com/27408085
15,1749096990,스타벅스 강동암사DT,서울 강동구 암사동 441-12,서울 강동구 고덕로 43,1522-3232,카페,음식점 > 카페 > 커피전문점 > 스타벅스,http://place.map.kakao.com/1749096990
16,20598679,하에레츠,서울 강동구 암사동 472-8,서울 강동구 암사길 27,02-481-8341,카페,음식점 > 카페 > 테마카페 > 디저트카페,http://place.map.kakao.com/20598679
17,1255094197,스타벅스 강동구청DT점,서울 강동구 성내동 550,서울 강동구 성내로 32,1522-3232,카페,음식점 > 카페 > 커피전문점 > 스타벅스,http://place.map.kakao.com/1255094197
18,18773346,엘리펀트커피 둔촌점,서울 강동구 둔촌동 53-3,서울 강동구 천호대로 1192,02-488-2039,카페,음식점 > 카페 > 커피전문점,http://place.map.kakao.com/18773346
19,26430433,엘리펀트커피,서울 강동구 길동 335-2,서울 강동구 양재대로 1548,,카페,음식점 > 카페 > 커피전문점,http://place.map.kakao.com/26430433
20,1518220846,카페노란코끼리 천호점,서울 강동구 천호동 427-5,서울 강동구 구천면로24길 20-25,,카페,음식점 > 카페 > 테마카페 > 디저트카페,http://place.map.kakao.com/1518220846
21,1995915808,카쿠,서울 강동구 성내동 421-20,서울 강동구 성안로 45,,카페,음식점 > 카페,http://place.map.kakao.com/1995915808
22,1983850707,벌스커피,서울 강동구 성내동 536-1,서울 강동구 성내로5길 34,02-6084-3317,카페,음식점 > 카페,http://place.map.kakao.com/1983850707
23,27515201,카페메종드한,서울 강동구 성내동 435-44,서울 강동구 성안로 27,02-482-2005,카페,음식점 > 카페,http://place.map.kakao.com/27515201
24,2084777605,카페씨모,서울 강동구 명일동 312-81,서울 강동구 고덕로38길 69,010-4241-9957,카페,음식점 > 카페 > 테마카페 > 디저트카페,http://place.map.kakao.com/2084777605
25,7961107,스타벅스 천호역점,서울 강동구 성내동 62-4,서울 강동구 천호대로 1012,1522-3232,카페,음식점 > 카페 > 커피전문점 > 스타벅스,http://place.map.kakao.com/7961107
26,912653147,우드멜로우,서울 강동구 고덕동 482,서울 강동구 아리수로 243,,카페,음식점 > 카페,http://place.map.kakao.com/912653147
27,868075887,카페티에드,서울 강동구 천호동 409-50,서울 강동구 천호대로157길 52,02-475-0011,카페,음식점 > 카페 > 커피전문점,http://place.map.kakao.com/868075887
28,375551127,솔리,서울 강동구 천호동 409-35,서울 강동구 진황도로 4-5,,카페,음식점 > 카페,http://place.map.kakao.com/375551127
29,2068185089,카페공공장소,서울 강동구 암사동 497-7,서울 강동구 암사길 7-1,0507-1314-6627,카페,음식점 > 카페 > 커피전문점,http://place.map.kakao.com/2068185089
30,27538963,스타벅스 둔촌동점,서울 강동구 성내동 441-2,서울 강동구 양재대로 1303,1522-3232,카페,음식점 > 카페 > 커피전문점 > 스타벅스,http://place.map.kakao.com/27538963
31,472671966,브로일링커피 강동점,서울 강동구 성내동 560-9,서울 강동구 성내로10길 9-6,,카페,음식점 > 카페,http://place.map.kakao.com/472671966
32,25017323,스타벅스 길동역점,서울 강동구 길동 378-3,서울 강동구 양재대로 1487,1522-3232,카페,음식점 > 카페 > 커피전문점 > 스타벅스,http://place.map.kakao.com/25017323
33,2084584062,잇다,서울 강동구 둔촌동 425-15,서울 강동구 천호대로 1156-5,070-8973-1066,카페,음식점 > 카페 > 테마카페,http://place.map.kakao.com/2084584062
34,854928918,스타벅스 명일역점,서울 강동구 명일동 312-28,서울 강동구 양재대로 1647,1522-3232,카페,음식점 > 카페 > 커피전문점 > 스타벅스,http://place.map.kakao.com/854928918
35,1124970786,스타벅스 강동역점,서울 강동구 천호동 447-17,서울 강동구 천호대로 1089,1522-3232,카페,음식점 > 카페 > 커피전문점 > 스타벅스,http://place.map.kakao.com/1124970786
36,27075529,폴바셋 상일동점,서울 강동구 상일동 501-2,서울 강동구 상일로6길 21,02-481-9223,카페,음식점 > 카페 > 커피전문점 > 폴바셋,http://place.map.kakao.com/27075529
37,403702789,도미넌트,서울 강동구 성내동 440-25,서울 강동구 양재대로83길 14,,카페,음식점 > 카페,http://place.map.kakao.com/403702789
38,23150275,카페온도,서울 강동구 성내동 245-39,서울 강동구 양재대로103길 40,070-8822-9561,카페,음식점 > 카페,http://place.map.kakao.com/23150275
39,16704632,수요일,서울 강동구 명일동 47-18,서울 강동구 동남로 891,02-3427-6467,카페,음식점 > 카페 > 전통찻집,http://place.map.kakao.com/16704632
40,22105090,스타벅스 상일동점,서울 강동구 상일동 501,서울 강동구 상일로10길 36,1522-3232,카페,음식점 > 카페 > 커피전문점 > 스타벅스,http://place.map.kakao.com/22105090
41,795440538,까페항상,서울 강동구 성내동 319-9,서울 강동구 성내로3길 5,,카페,음식점 > 카페,http://place.map.kakao.com/795440538
42,1711786724,빵카페,서울 강동구 둔촌동 105-40,서울 강동구 동남로 578,02-478-6464,카페,음식점 > 카페,http://place.map.kakao.com/1711786724
43,18637034,룸카페쁠레쟝 천호점,서울 강동구 천호3동 453-18,서울 강동구 천호대로157길 6,0507-1392-7807,카페,음식점 > 카페 > 테마카페,http://place.map.kakao.com/18637034
44,12526693,아이스베리 천호점,서울 강동구 천호동 454-64,서울 강동구 천호대로157길 17,,카페,음식점 > 카페,http://place.map.kakao.com/12526693
