,Unnamed: 0,id,place_name,address_name,road_address_name,phone,category_group_name,category_name,place_url,naver_keyword,naver_map_url
0,0,1974266862,카페노티드 안국,서울 종로구 재동 86,서울 종로구 북촌로 6-3,0507-1337-9973,카페,음식점 > 카페 > 테마카페 > 디저트카페,http://place.map.kakao.com/1974266862,카페노티드 안국,https://m.place.naver.com/restaurant/1229793109
1,1,8574728,토즈모임센터 종로점,서울 종로구 종로2가 84-8,서울 종로구 종로 68,02-736-0061,카페,"서비스,산업 > 전문대행 > 공간대여 > 모임공간 > 토즈모임센터",http://place.map.kakao.com/8574728,토즈모임센터 종로점,https://m.place.naver.com/restaurant/37532328
2,2,853028118,어니언 안국점,서울 종로구 계동 146-1,서울 종로구 계동길 5,070-7543-2123,카페,음식점 > 카페,http://place.map.kakao.com/853028118,어니언 안국점,https://m.place.naver.com/restaurant/1240190178
3,3,353512935,블루보틀 삼청 카페,서울 종로구 소격동 86,서울 종로구 북촌로5길 76,1533-6906,카페,음식점 > 카페,http://place.map.kakao.com/353512935,블루보틀 삼청 카페,https://m.place.naver.com/restaurant/1942921803
4,4,1779571274,안녕인사동,서울 종로구 관훈동 155-2,서울 종로구 인사동길 49,02-6954-2910,카페,음식점 > 카페 > 테마카페,http://place.map.kakao.com/1779571274,안녕인사동,https://m.place.naver.com/restaurant/1410492841
5,5,1508329235,스태픽스,서울 종로구 필운동 32-1,서울 종로구 사직로9길 22,0507-1341-2055,카페,음식점 > 카페,http://place.map.kakao.com/1508329235,스태픽스,https://m.place.naver.com/restaurant/1142689405
6,6,1429224581,아키비스트,서울 종로구 효자동 164-7,서울 종로구 효자로13길 52,02-738-1517,카페,음식점 > 카페,http://place.map.kakao.com/1429224581,아키비스트,https://m.place.naver.com/restaurant/1783153281
7,7,7912367,산모퉁이,서울 종로구 부암동 97-5,서울 종로구 백석동길 153,02-391-4737,카페,음식점 > 카페,http://place.map.kakao.com/7912367,산모퉁이,https://m.place.naver.com/restaurant/12781756
8,8,27187492,포비 광화문점,서울 종로구 청진동 246,서울 종로구 종로3길 17,02-2251-8125,카페,음식점 > 카페,http://place.map.kakao.com/27187492,포비 광화문점,https://m.place.naver.com/restaurant/37197875
9,9,8082652,차마시는 뜰,서울 종로구 삼청동 35-169,서울 종로구 북촌로11나길 26,02-722-7006,카페,음식점 > 카페 > 전통찻집,http://place.map.kakao.com/8082652,차마시는 뜰,https://m.place.naver.com/restaurant/11719309
10,10,24725284,테라로사 광화문점,서울 종로구 중학동 19,서울 종로구 종로1길 50,,카페,음식점 > 카페 > 커피전문점,http://place.map.kakao.com/24725284,테라로사 광화문점,https://m.place.naver.com/restaurant/38231951
11,11,826692169,카페 레이어드 안국점,서울 종로구 재동 84-14,서울 종로구 북촌로2길 2-3,,카페,음식점 > 카페 > 테마카페 > 디저트카페,http://place.map.kakao.com/826692169,카페 레이어드 안국점,https://m.place.naver.com/restaurant/731605639
12,12,1154772851,프릳츠 원서점,서울 종로구 원서동 221-1,서울 종로구 율곡로 83,02-747-8101,카페,음식점 > 카페,http://place.map.kakao.com/1154772851,프릳츠 원서점,https://m.place.naver.com/restaurant/715782489
13,13,11016313,나무사이로,서울 종로구 내자동 196,서울 종로구 사직로8길 21,070-7590-0885,카페,음식점 > 카페 > 커피전문점,http://place.map.kakao.com/11016313,나무사이로,https://m.place.naver.com/restaurant/33431802
14,14,281666038,포비브라이트 광화문점,서울 종로구 신문로1가 115,서울 종로구 새문안로 76,02-6744-0120,카페,음식점 > 카페,http://place.map.kakao.com/281666038,포비브라이트 광화문점,https://m.place.naver.com/restaurant/1730708111
16,16,890843625,개뿔,서울 종로구 이화동 9-443,서울 종로구 낙산성곽서1길 26,02-765-2019,카페,음식점 > 카페 > 테마카페 > 갤러리카페,http://place.map.kakao.com/890843625,개뿔,https://m.place.naver.com/restaurant/92673530
17,17,967168196,H라운지,서울 종로구 통의동 35-21,서울 종로구 자하문로4길 21-9,02-722-0028,카페,음식점 > 카페,http://place.map.kakao.com/967168196,H라운지,https://m.place.naver.com/restaurant/1171532481
18,18,78911659,청수당,서울 종로구 익선동 144,서울 종로구 돈화문로11나길 31-9,0507-1318-8215,카페,음식점 > 카페,http://place.map.kakao.com/78911659,청수당,https://m.place.naver.com/restaurant/1262377225
19,19,27411968,토즈모임센터 광화문점,서울 종로구 신문로1가 25,서울 종로구 새문안로 89,02-735-0022,카페,"서비스,산업 > 전문대행 > 공간대여 > 모임공간 > 토즈모임센터",http://place.map.kakao.com/27411968,토즈모임센터 광화문점,https://m.place.naver.com/restaurant/37532328
20,20,20459372,부빙,서울 종로구 부암동 254-2,서울 종로구 창의문로 136,02-394-8288,카페,음식점 > 카페 > 테마카페 > 디저트카페,http://place.map.kakao.com/20459372,부빙,https://m.place.naver.com/restaurant/35272285
21,21,468528939,카페키이로,서울 종로구 명륜4가 154-2,서울 종로구 창경궁로26길 41-3,02-747-0848,카페,음식점 > 카페 > 커피전문점,http://place.map.kakao.com/468528939,카페키이로,https://m.place.naver.com/restaurant/939051630
22,22,320882660,도트블랭킷,서울 종로구 안국동 83,서울 종로구 윤보선길 22,0507-1431-2226,카페,음식점 > 카페,http://place.map.kakao.com/320882660,도트블랭킷,https://m.place.naver.com/restaurant/1031190341
23,23,7941905,서울서 둘째로잘하는집,서울 종로구 삼청동 28-21,서울 종로구 삼청로 122-1,02-734-5302,카페,음식점 > 카페 > 전통찻집,http://place.map.kakao.com/7941905,서울서 둘째로잘하는집,https://m.place.naver.com/restaurant/11569682
24,24,2084457534,카페 하이웨스트 익선점,서울 종로구 돈의동 13,서울 종로구 돈화문로11다길 18,,카페,음식점 > 카페,http://place.map.kakao.com/2084457534,카페 하이웨스트 익선점,https://m.place.naver.com/restaurant/1827620160
25,25,1882706147,대충유원지 인왕산,서울 종로구 누하동 22,서울 종로구 필운대로 46,,카페,음식점 > 카페,http://place.map.kakao.com/1882706147,대충유원지 인왕산,https://m.place.naver.com/restaurant/1077382386
26,26,17382138,라카페갤러리,서울 종로구 통의동 10,서울 종로구 자하문로10길 28,02-379-1975,카페,음식점 > 카페 > 테마카페 > 갤러리카페,http://place.map.kakao.com/17382138,라카페갤러리,https://m.place.naver.com/restaurant/21413519
27,27,27278291,슬로우파크,서울 종로구 삼청동 15-2,서울 종로구 삼청로 141,02-739-8797,카페,음식점 > 카페,http://place.map.kakao.com/27278291,슬로우파크,https://m.place.naver.com/restaurant/33875115
28,28,594338477,가배도 삼청점,서울 종로구 소격동 142-2,서울 종로구 북촌로5길 56-8,02-732-4542,카페,음식점 > 카페 > 다방,http://place.map.kakao.com/594338477,가배도 삼청점,https://m.place.naver.com/restaurant/1151193613
29,29,10405822,반쥴,서울 종로구 관철동 12-16,서울 종로구 삼일대로17길 23,02-735-5437,카페,음식점 > 카페 > 커피전문점,http://place.map.kakao.com/10405822,반쥴,https://m.place.naver.com/restaurant/31197772
30,30,8045991,카페이마,서울 종로구 세종로 139-8,서울 종로구 세종대로 152,02-2020-2088,카페,음식점 > 카페,http://place.map.kakao.com/8045991,카페이마,https://m.place.naver.com/restaurant/11678597
31,31,212413668,내자상회,서울 종로구 내자동 142,서울 종로구 사직로10길 3,070-7755-0142,카페,음식점 > 카페,http://place.map.kakao.com/212413668,내자상회,https://m.place.naver.com/restaurant/1617315736
32,32,1182434312,제이히든하우스,서울 종로구 종로6가 94,서울 종로구 종로 269-4,02-744-1915,카페,음식점 > 카페,http://place.map.kakao.com/1182434312,제이히든하우스,https://m.place.naver.com/restaurant/1023401640
33,33,1154343797,한옥찻집,서울 종로구 관훈동 64,서울 종로구 인사동12길 9,,카페,음식점 > 카페 > 전통찻집,http://place.map.kakao.com/1154343797,한옥찻집,https://m.place.naver.com/restaurant/1764065667
34,34,971978748,로코랩,서울 종로구 수송동 46-13,서울 종로구 율곡로4길 51,02-3210-3258,카페,음식점 > 카페,http://place.map.kakao.com/971978748,로코랩,https://m.place.naver.com/restaurant/1473374967
35,35,517442171,결,서울 종로구 공평동 17,서울 종로구 우정국로 26,02-6370-5840,카페,음식점 > 카페,http://place.map.kakao.com/517442171,결,https://m.place.naver.com/restaurant/1084312804
36,36,15815825,mk2,서울 종로구 창성동 122-2,서울 종로구 자하문로10길 17,,카페,음식점 > 카페,http://place.map.kakao.com/15815825,mk2,https://m.place.naver.com/restaurant/19866844
37,37,630916358,동백양과점 익선점,서울 종로구 익선동 166-73,서울 종로구 수표로28길 17-24,02-3144-0429,카페,음식점 > 카페 > 커피전문점,http://place.map.kakao.com/630916358,동백양과점 익선점,https://m.place.naver.com/restaurant/1387480043
38,38,9544927,클럽에스프레소,서울 종로구 부암동 257-1,서울 종로구 창의문로 132,02-764-8719,카페,음식점 > 카페 > 커피전문점,http://place.map.kakao.com/9544927,클럽에스프레소,https://m.place.naver.com/restaurant/11694272
39,39,1041123432,애즈라이크,서울 종로구 통의동 7-33,서울 종로구 효자로7길 23,02-722-9994,카페,음식점 > 카페,http://place.map.kakao.com/1041123432,애즈라이크,https://m.place.naver.com/restaurant/1580576074
40,40,1711700322,밀크홀1937 종로점,서울 종로구 종로2가 71-5,서울 종로구 종로 86-1,070-8801-1937,카페,음식점 > 카페,http://place.map.kakao.com/1711700322,밀크홀1937 종로점,https://m.place.naver.com/restaurant/1928789154
41,41,1742096339,카페온화 익선점,서울 종로구 익선동 166-39,서울 종로구 수표로28길 21-10,,카페,음식점 > 카페,http://place.map.kakao.com/1742096339,카페온화 익선점,https://m.place.naver.com/restaurant/1360232609
42,42,855621421,호텔세느장,서울 종로구 낙원동 122,서울 종로구 돈화문로11길 28-5,02-766-8211,카페,음식점 > 카페 > 테마카페 > 디저트카페,http://place.map.kakao.com/855621421,호텔세느장,https://m.place.naver.com/restaurant/1735045626
43,43,26964717,코피티암커피 경복궁점,서울 종로구 통의동 35-29,서울 종로구 자하문로4길 7,070-7670-8837,카페,음식점 > 카페,http://place.map.kakao.com/26964717,코피티암커피 경복궁점,https://m.place.naver.com/restaurant/36547723
44,44,8105618,커피스트,서울 종로구 신문로2가 1-335,서울 종로구 경희궁길 39,02-725-5557,카페,음식점 > 카페 > 커피전문점,http://place.map.kakao.com/8105618,커피스트,https://m.place.naver.com/restaurant/11864493
45,0,1709558766,호랑이,서울 중구 산림동 207-2,서울 중구 을지로 157,02-2269-5880,카페,음식점 > 카페,http://place.map.kakao.com/1709558766,호랑이,https://m.place.naver.com/restaurant/1386833963
46,1,87323834,더스팟 패뷸러스,서울 중구 명동2가 105,서울 중구 명동2길 22,02-779-1981,카페,음식점 > 카페 > 커피전문점,http://place.map.kakao.com/87323834,더스팟 패뷸러스,https://m.place.naver.com/restaurant/181633326
47,2,243733683,덕수궁 리에제와플,서울 중구 태평로2가 365,서울 중구 덕수궁길 5,02-318-5202,카페,음식점 > 카페,http://place.map.kakao.com/243733683,덕수궁 리에제와플,https://m.place.naver.com/restaurant/21627288
48,3,1198183678,커피앤시가렛,서울 중구 서소문동 75-95,서울 중구 서소문로 116,02-777-7557,카페,음식점 > 카페,http://place.map.kakao.com/1198183678,커피앤시가렛,https://m.place.naver.com/restaurant/1547453593
49,4,253560122,커피루소 정동점,서울 중구 정동 17-4,서울 중구 정동길 17,02-772-9935,카페,음식점 > 카페,http://place.map.kakao.com/253560122,커피루소 정동점,https://m.place.naver.com/restaurant/38238621
50,5,1769574951,더하우스1932,서울 중구 만리동1가 62-16,서울 중구 만리재로35길 7,02-365-1932,카페,음식점 > 카페,http://place.map.kakao.com/1769574951,더하우스1932,https://m.place.naver.com/restaurant/1085431656
51,6,1440347564,커피한약방,서울 중구 을지로2가 101-34,서울 중구 삼일대로12길 16-6,070-4148-4242,카페,음식점 > 카페 > 커피전문점,http://place.map.kakao.com/1440347564,커피한약방,https://m.place.naver.com/restaurant/1614417324
52,7,1345866783,적당,서울 중구 을지로1가 87,서울 중구 을지로 29,070-7543-8928,카페,음식점 > 카페,http://place.map.kakao.com/1345866783,적당,https://m.place.naver.com/restaurant/1250997417
53,8,1982412866,챔프커피 제3작업실,서울 중구 을지로4가 9-6,서울 중구 을지로 157,010-8943-4516,카페,음식점 > 카페 > 커피전문점,http://place.map.kakao.com/1982412866,챔프커피 제3작업실,https://m.place.naver.com/restaurant/1856734353
54,9,1873478634,리사르커피로스터스 약수점,서울 중구 신당동 366-32,서울 중구 다산로8길 16-7,070-7677-5538,카페,음식점 > 카페 > 커피전문점,http://place.map.kakao.com/1873478634,리사르커피로스터스 약수점,https://m.place.naver.com/restaurant/33085557
55,10,1039797847,섬광,서울 중구 충무로4가 32-16,서울 중구 창경궁로1길 38,070-8866-8485,카페,음식점 > 카페,http://place.map.kakao.com/1039797847,섬광,https://m.place.naver.com/restaurant/1913147400
56,11,17187804,르풀,서울 중구 정동 1-28,서울 중구 정동길 33,02-3789-0400,카페,음식점 > 카페 > 테마카페,http://place.map.kakao.com/17187804,르풀,https://m.place.naver.com/restaurant/31583286
57,12,1965342185,커피스니퍼,서울 중구 북창동 11-3,서울 중구 세종대로16길 27,02-3789-1781,카페,음식점 > 카페,http://place.map.kakao.com/1965342185,커피스니퍼,https://m.place.naver.com/restaurant/1915708438
58,13,375097954,카페피크닉,서울 중구 남창동 194,서울 중구 퇴계로6가길 30,070-8821-6374,카페,음식점 > 카페,http://place.map.kakao.com/375097954,카페피크닉,https://m.place.naver.com/restaurant/1052789166
59,14,875047420,홍만당 명동본점,서울 중구 명동2가 32-8,서울 중구 명동8길 11-6,02-777-4422,카페,음식점 > 카페 > 테마카페 > 디저트카페,http://place.map.kakao.com/875047420,홍만당 명동본점,https://m.place.naver.com/restaurant/34850621
60,15,1651034737,라운드앤드,서울 중구 정동 11-3,서울 중구 정동길 35,,카페,음식점 > 카페 > 테마카페 > 디저트카페,http://place.map.kakao.com/1651034737,라운드앤드,https://m.place.naver.com/restaurant/1250544364
61,16,346424300,혜민당,서울 중구 을지로2가 101-37,서울 중구 삼일대로12길 16-9,070-8833-4242,카페,음식점 > 카페 > 테마카페 > 디저트카페,http://place.map.kakao.com/346424300,혜민당,https://m.place.naver.com/restaurant/86196000
62,17,38432219,러시아 케이크,서울 중구 광희동1가 134,서울 중구 을지로42길 7,02-6053-4079,카페,음식점 > 카페 > 테마카페 > 디저트카페,http://place.map.kakao.com/38432219,러시아 케이크,https://m.place.naver.com/restaurant/1395219888
63,18,1773363624,마뫼,서울 중구 회현동1가 산 1-20,서울 중구 소파로 41,,카페,음식점 > 카페,http://place.map.kakao.com/1773363624,마뫼,https://m.place.naver.com/restaurant/716435253
64,19,1168606226,더피터커피,서울 중구 흥인동 63,서울 중구 퇴계로 411,,카페,음식점 > 카페,http://place.map.kakao.com/1168606226,더피터커피,https://m.place.naver.com/restaurant/1948501076
65,20,831681203,죠지서울,서울 중구 을지로3가 334-7,서울 중구 을지로12길 6,070-8810-2693,카페,음식점 > 카페,http://place.map.kakao.com/831681203,죠지서울,https://m.place.naver.com/restaurant/1647032458
66,21,1254228746,수잔나의앞치마,서울 중구 충무로5가 36-12,서울 중구 퇴계로49길 24,,카페,음식점 > 카페,http://place.map.kakao.com/1254228746,수잔나의앞치마,https://m.place.naver.com/restaurant/1804950881
67,22,8101536,코인 명동점,서울 중구 명동2가 54-20,서울 중구 명동6길 10,02-753-1667,카페,음식점 > 카페,http://place.map.kakao.com/8101536,코인 명동점,https://m.place.naver.com/restaurant/31575946
68,23,1879590476,심세정,서울 중구 흥인동 88,서울 중구 퇴계로 409-11,070-8823-7577,카페,음식점 > 카페 > 테마카페 > 디저트카페,http://place.map.kakao.com/1879590476,심세정,https://m.place.naver.com/restaurant/1972800327
69,24,252792288,카페 아포테케리,서울 중구 흥인동 89,서울 중구 퇴계로 409-9,02-2236-8987,카페,음식점 > 카페,http://place.map.kakao.com/252792288,카페 아포테케리,https://m.place.naver.com/restaurant/324612192
71,26,557230756,바캉스커피,서울 중구 다동 117,서울 중구 남대문로9길 12,070-8803-2326,카페,음식점 > 카페,http://place.map.kakao.com/557230756,바캉스커피,https://m.place.naver.com/restaurant/1105473067
72,27,893424676,한옥카페,서울 중구 남대문로4가 71-1,서울 중구 남대문로 11,070-4509-9100,카페,음식점 > 카페,http://place.map.kakao.com/893424676,한옥카페,https://m.place.naver.com/restaurant/11689844
73,28,1250821144,카페라그린,서울 중구 정동 32-1,서울 중구 정동길 26,02-3789-8005,카페,음식점 > 카페,http://place.map.kakao.com/1250821144,카페라그린,https://m.place.naver.com/restaurant/1310154588
74,29,170158577,커피사,서울 중구 을지로3가 277-3,서울 중구 을지로 142-1,02-2274-2780,카페,음식점 > 카페,http://place.map.kakao.com/170158577,커피사,https://m.place.naver.com/restaurant/1038607282
75,30,8123091,포엠,서울 중구 명동2가 54-7,서울 중구 명동4길 13,02-776-5003,카페,음식점 > 카페,http://place.map.kakao.com/8123091,포엠,https://m.place.naver.com/restaurant/19923805
76,31,1824024125,오프셋커피,서울 중구 신당동 340-83,서울 중구 다산로20길 7,070-8790-2650,카페,음식점 > 카페,http://place.map.kakao.com/1824024125,오프셋커피,https://m.place.naver.com/restaurant/1629986587
77,32,22894118,스타벅스 환구단점,서울 중구 소공동 87-1,서울 중구 소공로 112,1522-3232,카페,음식점 > 카페 > 커피전문점 > 스타벅스,http://place.map.kakao.com/22894118,스타벅스 환구단점,https://m.place.naver.com/restaurant/11689844
78,33,47806106,분카샤 을지로점,서울 중구 을지로3가 302-22,서울 중구 을지로14길 20,02-2269-6947,카페,음식점 > 카페,http://place.map.kakao.com/47806106,분카샤 을지로점,https://m.place.naver.com/restaurant/636720810
79,34,1277741639,카페노티드 종각하이커,서울 중구 다동 10,서울 중구 청계천로 40,0507-1405-0085,카페,음식점 > 카페 > 테마카페 > 디저트카페,http://place.map.kakao.com/1277741639,카페노티드 종각하이커,https://m.place.naver.com/restaurant/1711387938
80,35,17522361,고양이놀이터 명동점,서울 중구 충무로2가 66-4,서울 중구 명동8길 37-14,,카페,음식점 > 카페 > 테마카페 > 고양이카페,http://place.map.kakao.com/17522361,고양이놀이터 명동점,https://m.place.naver.com/restaurant/21617309
81,36,1524619494,커피그래,서울 중구 신당동 422-1,서울 중구 동호로 204,0507-1348-1256,카페,음식점 > 카페 > 커피전문점,http://place.map.kakao.com/1524619494,커피그래,https://m.place.naver.com/restaurant/1872352260
82,37,1062422741,루프트 명동점,서울 중구 충무로2가 50-10,서울 중구 삼일대로 308,02-2267-2233,카페,음식점 > 카페,http://place.map.kakao.com/1062422741,루프트 명동점,https://m.place.naver.com/restaurant/152660082
83,38,385848168,mwm,서울 중구 저동2가 69-1,서울 중구 수표로 35-1,,카페,음식점 > 카페,http://place.map.kakao.com/385848168,mwm,https://m.place.naver.com/restaurant/1232577588
84,39,2128655244,로이터 커피셸터,서울 중구 필동3가 62-11,서울 중구 필동로 53,,카페,음식점 > 카페,http://place.map.kakao.com/2128655244,로이터 커피셸터,https://m.place.naver.com/restaurant/1590613420
85,40,380897959,계단집,서울 중구 회현동1가 150-1,서울 중구 퇴계로6길 35,070-4419-7776,카페,음식점 > 카페,http://place.map.kakao.com/380897959,계단집,https://m.place.naver.com/restaurant/31694842
86,41,27391558,호텔수선화,서울 중구 을지로3가 302-18,서울 중구 충무로7길 17,070-8950-2649,카페,음식점 > 카페,http://place.map.kakao.com/27391558,호텔수선화,https://m.place.naver.com/restaurant/37384167
87,42,1435193216,는커피,서울 중구 신당동 288-24,서울 중구 청구로4길 19,02-2246-1212,카페,음식점 > 카페 > 커피전문점,http://place.map.kakao.com/1435193216,는커피,https://m.place.naver.com/restaurant/1071075760
89,44,321907882,스타벅스 동대문공원점,서울 중구 광희동1가 185-1,서울 중구 장충단로 229,1522-3232,카페,음식점 > 카페 > 커피전문점 > 스타벅스,http://place.map.kakao.com/321907882,스타벅스 동대문공원점,https://m.place.naver.com/restaurant/425231306
90,0,711864705,맥심플랜트,서울 용산구 한남동 683-140,서울 용산구 이태원로 250,070-4287-8557,카페,음식점 > 카페,http://place.map.kakao.com/711864705,맥심플랜트,https://m.place.naver.com/restaurant/1057800745
91,1,1958239830,오츠커피,서울 용산구 원효로1가 48-8,서울 용산구 원효로89길 13-12,,카페,음식점 > 카페,http://place.map.kakao.com/1958239830,오츠커피,https://m.place.naver.com/restaurant/1583598574
92,2,27436567,오리올,서울 용산구 후암동 406-99,서울 용산구 신흥로20길 43,02-6406-5252,카페,음식점 > 카페,http://place.map.kakao.com/27436567,오리올,https://m.place.naver.com/restaurant/1167750133
93,3,256884650,사유,서울 용산구 한남동 682-5,서울 용산구 이태원로54길 5,02-2289-9050,카페,음식점 > 카페 > 테마카페 > 갤러리카페,http://place.map.kakao.com/256884650,사유,https://m.place.naver.com/restaurant/428320157
94,4,27344582,앤트러사이트 한남점,서울 용산구 한남동 683-142,서울 용산구 이태원로 240,02-797-7508,카페,음식점 > 카페,http://place.map.kakao.com/27344582,앤트러사이트 한남점,https://m.place.naver.com/restaurant/1392057734
95,5,27462552,오리지널 팬케익하우스 이태원점,서울 용산구 이태원동 172-2,서울 용산구 이태원로 153,02-795-7481,카페,음식점 > 카페 > 테마카페 > 디저트카페,http://place.map.kakao.com/27462552,오리지널 팬케익하우스 이태원점,https://m.place.naver.com/restaurant/37402425
96,6,27514796,더로열푸드앤드링크,서울 용산구 후암동 406-58,서울 용산구 신흥로20길 37,070-7774-4168,카페,음식점 > 카페,http://place.map.kakao.com/27514796,더로열푸드앤드링크,https://m.place.naver.com/restaurant/37556038
97,7,1456774315,오아시스 한남점,서울 용산구 한남동 745-10,서울 용산구 이태원로45길 30,02-790-8906,카페,음식점 > 카페 > 테마카페 > 디저트카페,http://place.map.kakao.com/1456774315,오아시스 한남점,https://m.place.naver.com/restaurant/1110133208
99,9,1143868163,챔프커피 2작업실,서울 용산구 이태원동 79-44,서울 용산구 녹사평대로26가길 24,02-790-4516,카페,음식점 > 카페 > 커피전문점,http://place.map.kakao.com/1143868163,챔프커피 2작업실,https://m.place.naver.com/restaurant/35559487
100,10,163434813,테라로사 한남점,서울 용산구 한남동 736-4,서울 용산구 이태원로36길 15,033-648-2760,카페,음식점 > 카페 > 커피전문점,http://place.map.kakao.com/163434813,테라로사 한남점,https://m.place.naver.com/restaurant/1477226533
101,11,285654982,인바이티드,서울 용산구 한강로1가 221-8,서울 용산구 한강대로52길 41,02-794-3332,카페,음식점 > 카페,http://place.map.kakao.com/285654982,인바이티드,https://m.place.naver.com/restaurant/806441898
102,12,239691324,트래버틴,서울 용산구 한강로3가 40-317,서울 용산구 한강대로7길 18-7,070-8862-6003,카페,음식점 > 카페 > 커피전문점,http://place.map.kakao.com/239691324,트래버틴,https://m.place.naver.com/restaurant/1812600941
103,13,1886309015,콩카페 이태원점,서울 용산구 이태원동 34-54,서울 용산구 녹사평대로 168-8,,카페,음식점 > 카페,http://place.map.kakao.com/1886309015,콩카페 이태원점,https://m.place.naver.com/restaurant/1282234213
104,14,800587300,키에리 이태원점,서울 용산구 이태원동 73-7,서울 용산구 이태원로26길 16-8,,카페,음식점 > 카페 > 테마카페 > 디저트카페,http://place.map.kakao.com/800587300,키에리 이태원점,https://m.place.naver.com/restaurant/37848376
105,15,1562438866,써머레인,서울 용산구 한남동 738-13,서울 용산구 이태원로55가길 49,02-792-8114,카페,음식점 > 카페 > 테마카페 > 디저트카페,http://place.map.kakao.com/1562438866,써머레인,https://m.place.naver.com/restaurant/733920762
106,16,859448387,카키바움,서울 용산구 한강로1가 225-1,서울 용산구 한강대로52길 29,02-790-6275,카페,음식점 > 카페,http://place.map.kakao.com/859448387,카키바움,https://m.place.naver.com/restaurant/1987057140
107,17,1840672910,한남베르그,서울 용산구 한남동 683-76,서울 용산구 이태원로54길 58-26,02-790-1750,카페,음식점 > 카페,http://place.map.kakao.com/1840672910,한남베르그,https://m.place.naver.com/restaurant/1100009233
108,18,1187934853,테이프,서울 용산구 이태원동 63-5,서울 용산구 이태원로14길 21,010-7317-4201,카페,음식점 > 카페,http://place.map.kakao.com/1187934853,테이프,https://m.place.naver.com/restaurant/1845157455
109,19,1240018987,때가이르매 숙대점,서울 용산구 남영동 8-2,서울 용산구 두텁바위로 8,070-4320-8495,카페,음식점 > 카페 > 테마카페 > 디저트카페,http://place.map.kakao.com/1240018987,때가이르매 숙대점,https://m.place.naver.com/restaurant/667716278
110,20,1349192932,버터북,서울 용산구 용산동2가 31-2,서울 용산구 신흥로15길 20,,카페,음식점 > 카페 > 테마카페 > 디저트카페,http://place.map.kakao.com/1349192932,버터북,https://m.place.naver.com/restaurant/1901689061
111,21,1559187561,북파크라운지,서울 용산구 한남동 727-56,서울 용산구 이태원로 294,070-7770-0539,카페,음식점 > 카페 > 테마카페 > 북카페,http://place.map.kakao.com/1559187561,북파크라운지,https://m.place.naver.com/restaurant/1174718905
112,22,2010021183,원인어밀리언,서울 용산구 한남동 684-62,서울 용산구 이태원로54길 31,02-794-2414,카페,음식점 > 카페,http://place.map.kakao.com/2010021183,원인어밀리언,https://m.place.naver.com/restaurant/37793452
113,23,614667104,몬스터플레이스,서울 용산구 청파동3가 114-3,서울 용산구 청파로43길 70,02-6402-5404,카페,음식점 > 카페,http://place.map.kakao.com/614667104,몬스터플레이스,https://m.place.naver.com/restaurant/1732861163
114,24,1285150992,바마셀,서울 용산구 원효로1가 38-5,서울 용산구 원효로89길 12,,카페,음식점 > 카페,http://place.map.kakao.com/1285150992,바마셀,https://m.place.naver.com/restaurant/1932179186
115,25,1698143190,오잇,서울 용산구 용산동2가 1-471,서울 용산구 신흥로 95,010-8844-1993,카페,음식점 > 카페,http://place.map.kakao.com/1698143190,오잇,https://m.place.naver.com/restaurant/1497570402
116,26,251037961,헬카페스피리터스,서울 용산구 이촌동 300-23,서울 용산구 이촌로 248,070-7612-4687,카페,음식점 > 카페,http://place.map.kakao.com/251037961,헬카페스피리터스,https://m.place.naver.com/restaurant/734543637
118,28,926051759,도렐 육지2호점,서울 용산구 한강로2가 424,서울 용산구 한강대로 100,02-6365-3675,카페,음식점 > 카페,http://place.map.kakao.com/926051759,도렐 육지2호점,https://m.place.naver.com/restaurant/1774254672
119,29,13582387,엘카페커피로스터스,서울 용산구 후암동 1-43,서울 용산구 후암로 68,02-2638-0715,카페,음식점 > 카페,http://place.map.kakao.com/13582387,엘카페커피로스터스,https://m.place.naver.com/restaurant/19570596
120,30,460216775,도토리,서울 용산구 한강로1가 227,서울 용산구 한강대로52길 25-6,02-797-0225,카페,음식점 > 카페 > 테마카페 > 디저트카페,http://place.map.kakao.com/460216775,도토리,https://m.place.naver.com/restaurant/1072787710
121,31,1151652295,한남작업실,서울 용산구 한남동 745-2,서울 용산구 이태원로55나길 7,02-792-5620,카페,음식점 > 카페,http://place.map.kakao.com/1151652295,한남작업실,https://m.place.naver.com/restaurant/1365054072
122,32,101568646,33아파트먼트,서울 용산구 한남동 729-68,서울 용산구 한남대로27길 33,02-794-0033,카페,음식점 > 카페,http://place.map.kakao.com/101568646,33아파트먼트,https://m.place.naver.com/restaurant/424208738
123,33,335734051,카페노티드 한남점,서울 용산구 한남동 684-77,서울 용산구 대사관로5길 12,0507-1301-2387,카페,음식점 > 카페 > 테마카페 > 디저트카페,http://place.map.kakao.com/335734051,카페노티드 한남점,https://m.place.naver.com/restaurant/1097972836
124,34,954423286,무진장,서울 용산구 이태원동 34-58,서울 용산구 녹사평대로 168-18,,카페,음식점 > 카페,http://place.map.kakao.com/954423286,무진장,https://m.place.naver.com/restaurant/1499717815
125,35,19615417,서울루덴스,서울 용산구 이태원동 5-12,서울 용산구 회나무로 69,02-795-4151,카페,음식점 > 카페,http://place.map.kakao.com/19615417,서울루덴스,https://m.place.naver.com/restaurant/32481253
126,36,869574538,뉴오리진 동부이촌점,서울 용산구 이촌동 302-43,서울 용산구 이촌로 208,02-6272-6527,카페,음식점 > 카페,http://place.map.kakao.com/869574538,뉴오리진 동부이촌점,https://m.place.naver.com/restaurant/1501820086
127,37,1579324098,널담은공간,서울 용산구 용산동2가 19-12,서울 용산구 신흥로15길 18-12,031-436-8037,카페,음식점 > 카페,http://place.map.kakao.com/1579324098,널담은공간,https://m.place.naver.com/restaurant/1902632584
128,38,1784875766,삼층로비,서울 용산구 한강로3가 40-642,서울 용산구 한강대로15길 19-19,070-8865-1919,카페,음식점 > 카페,http://place.map.kakao.com/1784875766,삼층로비,https://m.place.naver.com/restaurant/1454089015
129,39,1709532725,코지빌라커피,서울 용산구 이태원동 74-45,서울 용산구 이태원로20길 32,02-794-5657,카페,음식점 > 카페,http://place.map.kakao.com/1709532725,코지빌라커피,https://m.place.naver.com/restaurant/1663724505
130,40,1640456450,챔프커피 1작업실,서울 용산구 한남동 768-25,서울 용산구 우사단로10길 121,010-5269-4931,카페,음식점 > 카페 > 커피전문점,http://place.map.kakao.com/1640456450,챔프커피 1작업실,https://m.place.naver.com/restaurant/35516315
131,41,25548485,헬카페,서울 용산구 보광동 238-43,서울 용산구 보광로 76,,카페,음식점 > 카페,http://place.map.kakao.com/25548485,헬카페,https://m.place.naver.com/restaurant/32762565
132,42,1343541111,골드문커피,서울 용산구 한강로3가 65-157,서울 용산구 한강대로14길 12,010-3112-6118,카페,음식점 > 카페,http://place.map.kakao.com/1343541111,골드문커피,https://m.place.naver.com/restaurant/1126438979
133,43,1884738430,어프로치커피,서울 용산구 한강로2가 154,서울 용산구 한강대로40길 18-3,,카페,음식점 > 카페,http://place.map.kakao.com/1884738430,어프로치커피,https://m.place.naver.com/restaurant/1406234830
134,44,1744219383,팬케이크샵,서울 용산구 이태원동 455-1,서울 용산구 녹사평대로40다길 2,,카페,음식점 > 카페,http://place.map.kakao.com/1744219383,팬케이크샵,https://m.place.naver.com/restaurant/421667612
135,0,1492599844,블루보틀 성수 카페,서울 성동구 성수동1가 656-302,서울 성동구 아차산로 7,1533-6906,카페,음식점 > 카페,http://place.map.kakao.com/1492599844,블루보틀 성수 카페,https://m.place.naver.com/restaurant/1725895520
136,1,1301973155,할아버지공장,서울 성동구 성수동2가 309-133,서울 성동구 성수이로7가길 9,010-3934-2301,카페,음식점 > 카페 > 테마카페 > 디저트카페,http://place.map.kakao.com/1301973155,할아버지공장,https://m.place.naver.com/restaurant/1945220263
137,2,1783691580,쎈느,서울 성동구 성수동2가 314-2,서울 성동구 연무장5길 20,02-469-2122,카페,음식점 > 카페,http://place.map.kakao.com/1783691580,쎈느,https://m.place.naver.com/restaurant/37879684
138,3,145791269,어니언컴퍼니,서울 성동구 성수동2가 277-135,서울 성동구 아차산로9길 8,02-1644-1941,카페,음식점 > 카페 > 테마카페 > 디저트카페,http://place.map.kakao.com/145791269,어니언컴퍼니,https://m.place.naver.com/restaurant/1925852247
139,4,1128989913,대림창고,서울 성동구 성수동2가 322-32,서울 성동구 성수이로 78,02-499-9669,카페,음식점 > 카페 > 테마카페 > 갤러리카페,http://place.map.kakao.com/1128989913,대림창고,https://m.place.naver.com/restaurant/37910590
140,5,286483883,센터커피 서울숲점,서울 성동구 성수동1가 685-478,서울 성동구 서울숲2길 28-11,070-8868-2008,카페,음식점 > 카페 > 커피전문점,http://place.map.kakao.com/286483883,센터커피 서울숲점,https://m.place.naver.com/restaurant/523890342
141,6,1460620031,인더매스 마장,서울 성동구 마장동 776-1,서울 성동구 마장로 270,,카페,음식점 > 카페,http://place.map.kakao.com/1460620031,인더매스 마장,https://m.place.naver.com/restaurant/1042933481
142,7,547570065,옹근달,서울 성동구 성수동2가 333-52,서울 성동구 성수이로7길 41-1,02-499-5012,카페,음식점 > 카페,http://place.map.kakao.com/547570065,옹근달,https://m.place.naver.com/restaurant/1395030685
143,8,1842536906,멜로워 성수플래그쉽,서울 성동구 성수동2가 333-94,서울 성동구 성수이로7길 39,02-499-1112,카페,음식점 > 카페,http://place.map.kakao.com/1842536906,멜로워 성수플래그쉽,https://m.place.naver.com/restaurant/365858525
144,9,1302549042,로우키,서울 성동구 성수동2가 302-16,서울 성동구 연무장3길 6,,카페,음식점 > 카페,http://place.map.kakao.com/1302549042,로우키,https://m.place.naver.com/restaurant/1393890643
145,10,1942841428,카페포제,서울 성동구 성수동2가 315-41,서울 성동구 연무장9길 7,070-8830-5994,카페,음식점 > 카페,http://place.map.kakao.com/1942841428,카페포제,https://m.place.naver.com/restaurant/1509451621
146,11,1038283810,마를리,서울 성동구 성수동2가 315-55,서울 성동구 연무장길 47,02-467-0303,카페,음식점 > 카페,http://place.map.kakao.com/1038283810,마를리,https://m.place.naver.com/restaurant/742676592
147,12,940053669,로우커피스탠드,서울 성동구 성수동1가 8-16,서울 성동구 왕십리로4길 28-2,,카페,음식점 > 카페 > 커피전문점,http://place.map.kakao.com/940053669,로우커피스탠드,https://m.place.naver.com/restaurant/1168698330
148,13,144753549,카페 연무장,서울 성동구 성수동2가 310-63,서울 성동구 연무장길 36,,카페,음식점 > 카페,http://place.map.kakao.com/144753549,카페 연무장,https://m.place.naver.com/restaurant/1247415883
149,14,939851854,카멜 성수점,서울 성동구 성수동2가 570-1,서울 성동구 성덕정19길 6,,카페,음식점 > 카페,http://place.map.kakao.com/939851854,카멜 성수점,https://m.place.naver.com/restaurant/1353346572
150,15,1530215201,체다앤올리,서울 성동구 성수동1가 685-696,서울 성동구 서울숲2길 32-14,02-468-1003,카페,음식점 > 카페,http://place.map.kakao.com/1530215201,체다앤올리,https://m.place.naver.com/restaurant/343496704
151,16,301697712,도렐 육지3호점,서울 성동구 성수동2가 314-12,서울 성동구 연무장7길 11,02-516-3675,카페,음식점 > 카페,http://place.map.kakao.com/301697712,도렐 육지3호점,https://m.place.naver.com/restaurant/1432336976
152,17,2111826352,우디집,서울 성동구 성수동1가 311,서울 성동구 둘레9길 17,,카페,음식점 > 카페,http://place.map.kakao.com/2111826352,우디집,https://m.place.naver.com/restaurant/1241418880
153,18,231920851,갈십리,서울 성동구 행당동 19-108,서울 성동구 마조로 15-11,010-9034-3939,카페,음식점 > 카페 > 테마카페 > 디저트카페,http://place.map.kakao.com/231920851,갈십리,https://m.place.naver.com/restaurant/1800066032
154,19,2030999010,아우프글렛 금호점,서울 성동구 금호동1가 1801-4,서울 성동구 독서당로51길 7,,카페,음식점 > 카페,http://place.map.kakao.com/2030999010,아우프글렛 금호점,https://m.place.naver.com/restaurant/1897342038
155,20,857915820,글로우,서울 성동구 성수동2가 277-24,서울 성동구 아차산로9길 20,,카페,음식점 > 카페,http://place.map.kakao.com/857915820,글로우,https://m.place.naver.com/restaurant/548365578
156,21,2077832392,슈퍼말차 성수,서울 성동구 성수동1가 668-9,서울 성동구 서울숲6길 19,070-4632-3882,카페,음식점 > 카페,http://place.map.kakao.com/2077832392,슈퍼말차 성수,https://m.place.naver.com/restaurant/1643583812
157,22,27347404,치카치카,서울 성동구 성수동2가 512,서울 성동구 성수이로3길 16,02-498-3478,카페,음식점 > 카페 > 테마카페 > 디저트카페,http://place.map.kakao.com/27347404,치카치카,https://m.place.naver.com/restaurant/37191703
158,23,328817208,5TO7,서울 성동구 성수동1가 668-136,서울 성동구 서울숲2길 44-13,,카페,음식점 > 카페,http://place.map.kakao.com/328817208,5TO7,https://m.place.naver.com/restaurant/1508243090
159,24,935863440,서울앵무새,서울 성동구 성수동1가 685-213,서울 성동구 서울숲9길 3,070-8846-2025,카페,음식점 > 카페 > 테마카페 > 디저트카페,http://place.map.kakao.com/935863440,서울앵무새,https://m.place.naver.com/restaurant/1240372795
160,25,912676778,하루&원데이,서울 성동구 성수동2가 314-5,서울 성동구 아차산로 92,02-499-9303,카페,음식점 > 카페 > 테마카페 > 디저트카페,http://place.map.kakao.com/912676778,하루&원데이,https://m.place.naver.com/restaurant/1118763038
161,26,13498947,봉순이네다락방,서울 성동구 행당동 292-33,서울 성동구 왕십리로21길 13-1,02-2299-8057,카페,음식점 > 카페 > 커피전문점,http://place.map.kakao.com/13498947,봉순이네다락방,https://m.place.naver.com/restaurant/33875306
162,27,1941275560,메쉬커피,서울 성동구 성수동1가 685-307,서울 성동구 서울숲길 43,02-464-7078,카페,음식점 > 카페 > 커피전문점,http://place.map.kakao.com/1941275560,메쉬커피,https://m.place.naver.com/restaurant/36276169
163,28,732470230,카페오롯,서울 성동구 성수동1가 13-428,서울 성동구 상원6나길 7,02-2292-2223,카페,음식점 > 카페,http://place.map.kakao.com/732470230,카페오롯,https://m.place.naver.com/restaurant/352011330
164,29,1599571399,어라운드데이,서울 성동구 성수동1가 685-483,서울 성동구 서울숲2길 24-1,0507-1431-8310,카페,음식점 > 카페,http://place.map.kakao.com/1599571399,어라운드데이,https://m.place.naver.com/restaurant/1344027015
165,30,1431819126,훔볼트,서울 성동구 성수동2가 325-19,서울 성동구 성수이로 58,,카페,음식점 > 카페 > 테마카페 > 디저트카페,http://place.map.kakao.com/1431819126,훔볼트,https://m.place.naver.com/restaurant/1504347953
166,31,1904529538,업사이드커피 뚝섬점,서울 성동구 성수동1가 7-8,서울 성동구 왕십리로14길 19-1,070-8691-4107,카페,음식점 > 카페,http://place.map.kakao.com/1904529538,업사이드커피 뚝섬점,https://m.place.naver.com/restaurant/1906998225
167,32,1742492568,키커피컴퍼니 왕십리점,서울 성동구 행당동 130-115,서울 성동구 왕십리로 269,070-4230-8893,카페,음식점 > 카페 > 커피전문점,http://place.map.kakao.com/1742492568,키커피컴퍼니 왕십리점,https://m.place.naver.com/restaurant/1976097430
168,33,1653556066,카페온화 성수점,서울 성동구 성수동2가 302-4,서울 성동구 아차산로 78,,카페,음식점 > 카페,http://place.map.kakao.com/1653556066,카페온화 성수점,https://m.place.naver.com/restaurant/1321493330
169,34,1623291829,오우드,서울 성동구 성수동2가 272-3,서울 성동구 연무장길 101-1,070-8844-0196,카페,음식점 > 카페 > 테마카페 > 디저트카페,http://place.map.kakao.com/1623291829,오우드,https://m.place.naver.com/restaurant/1833313793
170,35,1325105515,카페노티드 성수,서울 성동구 성수동2가 316-5,서울 성동구 연무장길 29-17,,카페,음식점 > 카페,http://place.map.kakao.com/1325105515,카페노티드 성수,https://m.place.naver.com/restaurant/1706561777
171,36,17657824,하루노유키,서울 성동구 성수동1가 685-428,서울 성동구 서울숲2길 17,02-548-8662,카페,음식점 > 카페 > 테마카페 > 디저트카페,http://place.map.kakao.com/17657824,하루노유키,https://m.place.naver.com/restaurant/30811760
172,37,483722570,마크69,서울 성동구 성수동1가 685-350,서울 성동구 서울숲길 24,,카페,음식점 > 카페,http://place.map.kakao.com/483722570,마크69,https://m.place.naver.com/restaurant/1430646260
173,38,505665583,맛차차,서울 성동구 성수동1가 685-450,서울 성동구 서울숲2길 18-11,010-9719-8707,카페,음식점 > 카페,http://place.map.kakao.com/505665583,맛차차,https://m.place.naver.com/restaurant/1467953783
174,39,431464251,아이오쓰리 성수사거리점,서울 성동구 성수동2가 275-54,서울 성동구 성수이로20길 60,02-497-1961,카페,음식점 > 카페,http://place.map.kakao.com/431464251,아이오쓰리 성수사거리점,https://m.place.naver.com/restaurant/1918028699
175,40,753723493,브라운팟,서울 성동구 행당동 286-19,서울 성동구 무학봉28길 16,02-2299-7796,카페,음식점 > 카페,http://place.map.kakao.com/753723493,브라운팟,https://m.place.naver.com/restaurant/1165635472
176,41,1431120740,플디 성수점,서울 성동구 성수동1가 13-156,서울 성동구 상원길 44,,카페,음식점 > 카페,http://place.map.kakao.com/1431120740,플디 성수점,https://m.place.naver.com/restaurant/1030413970
177,42,1300323227,카페노티드 피치스,서울 성동구 성수동2가 301-16,서울 성동구 연무장3길 9,0507-1405-9377,카페,음식점 > 카페 > 테마카페 > 디저트카페,http://place.map.kakao.com/1300323227,카페노티드 피치스,https://m.place.naver.com/restaurant/1022973489
178,43,1501931765,천상가옥,서울 성동구 성수동2가 322-4,서울 성동구 성수이로14길 14,,카페,음식점 > 카페,http://place.map.kakao.com/1501931765,천상가옥,https://m.place.naver.com/restaurant/1074358103
179,44,157479724,비엔나커피하우스 서울숲역점,서울 성동구 성수동1가 656-447,서울 성동구 왕십리로 66,070-4628-5049,카페,음식점 > 카페,http://place.map.kakao.com/157479724,비엔나커피하우스 서울숲역점,https://m.place.naver.com/restaurant/1320858854
181,1,1926044933,도우터,서울 광진구 화양동 11-17,서울 광진구 아차산로31길 40,02-464-0559,카페,음식점 > 카페,http://place.map.kakao.com/1926044933,도우터,https://m.place.naver.com/restaurant/1510634316
182,2,519082124,뚝방길홍차가게,서울 광진구 자양동 589-20,서울 광진구 자양강변길 277,02-512-0189,카페,음식점 > 카페,http://place.map.kakao.com/519082124,뚝방길홍차가게,https://m.place.naver.com/restaurant/1038971057
183,3,61909173,아르무아,서울 광진구 화양동 5-32,서울 광진구 동일로22길 117-27,02-463-9981,카페,음식점 > 카페,http://place.map.kakao.com/61909173,아르무아,https://m.place.naver.com/restaurant/1463726182
184,4,501741750,인덱스숍,서울 광진구 자양동 17-3,서울 광진구 아차산로 200,02-2122-1259,카페,음식점 > 카페 > 테마카페 > 북카페,http://place.map.kakao.com/501741750,인덱스숍,https://m.place.naver.com/restaurant/1975205745
185,5,1096654389,안다즈커피,서울 광진구 구의동 75-26,서울 광진구 천호대로132길 10,0507-1324-4277,카페,음식점 > 카페 > 커피전문점,http://place.map.kakao.com/1096654389,안다즈커피,https://m.place.naver.com/restaurant/66005003
186,6,1755713937,체리커피,서울 광진구 능동 282-1,서울 광진구 능동로 284,02-444-7222,카페,음식점 > 카페 > 커피전문점,http://place.map.kakao.com/1755713937,체리커피,https://m.place.naver.com/restaurant/1095857027
187,7,420350631,더이퀼리브리엄커피,서울 광진구 자양동 7-30,서울 광진구 아차산로30길 7,070-7537-3744,카페,음식점 > 카페 > 커피전문점,http://place.map.kakao.com/420350631,더이퀼리브리엄커피,https://m.place.naver.com/restaurant/1418441461
188,8,1159203702,비에이치테이블,서울 광진구 자양동 775-10,서울 광진구 아차산로45길 16,,카페,음식점 > 카페,http://place.map.kakao.com/1159203702,비에이치테이블,https://m.place.naver.com/restaurant/1431086824
189,9,22674971,카페히릿,서울 광진구 화양동 111-72,서울 광진구 광나루로 404,070-8870-4442,카페,음식점 > 카페 > 테마카페 > 애견카페,http://place.map.kakao.com/22674971,카페히릿,https://m.place.naver.com/restaurant/33996520
190,10,18263855,마우스레빗,서울 광진구 화양동 5-14,서울 광진구 능동로11길 10,02-462-4015,카페,음식점 > 카페,http://place.map.kakao.com/18263855,마우스레빗,https://m.place.naver.com/restaurant/31305562
191,11,287949141,넥스트에디션 건대2호점,서울 광진구 자양동 17-5,서울 광진구 아차산로 192,0507-417-8580,카페,음식점 > 카페 > 테마카페,http://place.map.kakao.com/287949141,넥스트에디션 건대2호점,https://m.place.naver.com/restaurant/1163403341
192,12,88469138,랑데자뷰 건대점,서울 광진구 화양동 9-23,서울 광진구 아차산로31길 3,070-7718-3088,카페,음식점 > 카페,http://place.map.kakao.com/88469138,랑데자뷰 건대점,https://m.place.naver.com/restaurant/1608897550
193,13,2239,커피나무 건대입구역점,서울 광진구 화양동 5-40,서울 광진구 동일로22길 117-26,02-466-1415,카페,음식점 > 카페 > 커피전문점,http://place.map.kakao.com/2239,커피나무 건대입구역점,https://m.place.naver.com/restaurant/1957957154
195,15,1508416506,헤르츠커피로스팅,서울 광진구 중곡동 161-27,서울 광진구 능동로 334,010-3312-9952,카페,음식점 > 카페 > 커피전문점,http://place.map.kakao.com/1508416506,헤르츠커피로스팅,https://m.place.naver.com/restaurant/1951409514
196,16,2106246357,그리네,서울 광진구 군자동 64-21,서울 광진구 군자로 139,,카페,음식점 > 카페 > 테마카페 > 디저트카페,http://place.map.kakao.com/2106246357,그리네,https://m.place.naver.com/restaurant/1799218070
197,17,1017964919,도쿄빙수 건대점,서울 광진구 화양동 10-2,서울 광진구 아차산로31길 45,02-466-2012,카페,음식점 > 카페 > 테마카페 > 디저트카페,http://place.map.kakao.com/1017964919,도쿄빙수 건대점,https://m.place.naver.com/restaurant/726103904
198,18,143898787,카페 드노보,서울 광진구 광장동 187-2,서울 광진구 아차산로78길 157,,카페,음식점 > 카페,http://place.map.kakao.com/143898787,카페 드노보,https://m.place.naver.com/restaurant/1040854858
199,19,1024200053,펠어커피 구의점,서울 광진구 구의동 223-23,서울 광진구 아차산로59길 63,0507-1447-0140,카페,음식점 > 카페 > 커피전문점,http://place.map.kakao.com/1024200053,펠어커피 구의점,https://m.place.naver.com/restaurant/119879272
200,20,25060136,설빙 건대직영점,서울 광진구 화양동 7-44,서울 광진구 아차산로 225,02-499-5385,카페,음식점 > 카페 > 테마카페 > 디저트카페 > 설빙,http://place.map.kakao.com/25060136,설빙 건대직영점,https://m.place.naver.com/restaurant/35271883
201,21,1430310181,키랩보드게임 룸카페 건대본점,서울 광진구 화양동 11-7,서울 광진구 아차산로33길 49,070-8098-7300,카페,음식점 > 카페 > 테마카페 > 보드카페,http://place.map.kakao.com/1430310181,키랩보드게임 룸카페 건대본점,https://m.place.naver.com/restaurant/37630236
202,22,715860315,아오스요거트,서울 광진구 화양동 2-23,서울 광진구 능동로 153,070-8111-9451,카페,음식점 > 카페 > 테마카페 > 디저트카페,http://place.map.kakao.com/715860315,아오스요거트,https://m.place.naver.com/restaurant/1521571612
203,23,1766978425,안다미로팬케이크,서울 광진구 화양동 48-23,서울 광진구 아차산로25길 8,02-6405-7773,카페,음식점 > 카페 > 테마카페 > 디저트카페,http://place.map.kakao.com/1766978425,안다미로팬케이크,https://m.place.naver.com/restaurant/1256627119
204,24,27354377,엑스케이프,서울 광진구 화양동 50-2,서울 광진구 동일로 112,02-463-9366,카페,음식점 > 카페 > 테마카페,http://place.map.kakao.com/27354377,엑스케이프,https://m.place.naver.com/restaurant/1159261726
205,25,26826876,히어로보드게임카페 건대1호점,서울 광진구 화양동 7-4,서울 광진구 아차산로 221,02-466-1203,카페,음식점 > 카페 > 테마카페 > 보드카페,http://place.map.kakao.com/26826876,히어로보드게임카페 건대1호점,https://m.place.naver.com/restaurant/36665455
206,26,757366145,카페레디언트,서울 광진구 중곡동 142-36,서울 광진구 능동로38길 41,02-2201-0204,카페,음식점 > 카페,http://place.map.kakao.com/757366145,카페레디언트,https://m.place.naver.com/restaurant/1357882348
207,27,1040379670,열매제과점,서울 광진구 화양동 36-60,서울 광진구 동일로24길 31,010-5814-3738,카페,음식점 > 카페,http://place.map.kakao.com/1040379670,열매제과점,https://m.place.naver.com/restaurant/1276749064
209,29,26869515,오페뜨 건대점,서울 광진구 화양동 5-106,서울 광진구 능동로 111,02-2135-9982,카페,음식점 > 카페,http://place.map.kakao.com/26869515,오페뜨 건대점,https://m.place.naver.com/restaurant/36631214
210,30,296921469,카페온더플랜 건대점,서울 광진구 화양동 90-4,서울 광진구 능동로 161,02-462-1020,카페,음식점 > 카페,http://place.map.kakao.com/296921469,카페온더플랜 건대점,https://m.place.naver.com/restaurant/364501975
211,31,831662985,북카페세모,서울 광진구 화양동 8-43,서울 광진구 아차산로31길 20,02-463-0305,카페,음식점 > 카페 > 테마카페 > 북카페,http://place.map.kakao.com/831662985,북카페세모,https://m.place.naver.com/restaurant/1387574298
212,32,1928816021,보난자커피 군자점,서울 광진구 군자동 270,서울 광진구 능동로 239,070-4110-3113,카페,음식점 > 카페,http://place.map.kakao.com/1928816021,보난자커피 군자점,https://m.place.naver.com/restaurant/1689645997
213,33,2053737523,카페러슬,서울 광진구 구의동 612-10,서울 광진구 자양로37길 63,070-4202-1555,카페,음식점 > 카페,http://place.map.kakao.com/2053737523,카페러슬,https://m.place.naver.com/restaurant/1308190517
214,34,24350794,스타벅스 군자역,서울 광진구 군자동 478-5,서울 광진구 천호대로 548,1522-3232,카페,음식점 > 카페 > 커피전문점 > 스타벅스,http://place.map.kakao.com/24350794,스타벅스 군자역,https://m.place.naver.com/restaurant/34689603
215,35,693959559,해피니스디저트 건대점,서울 광진구 자양동 6-58,서울 광진구 아차산로30길 31,010-4295-2600,카페,음식점 > 카페 > 테마카페 > 디저트카페,http://place.map.kakao.com/693959559,해피니스디저트 건대점,https://m.place.naver.com/restaurant/1086653842
216,36,1592555351,밀피,서울 광진구 화양동 5-99,서울 광진구 동일로22길 117-15,,카페,음식점 > 카페,http://place.map.kakao.com/1592555351,밀피,https://m.place.naver.com/restaurant/1547337460
217,37,26639935,스타벅스 구의DT,서울 광진구 구의동 67-36,서울 광진구 광나루로 519,1522-3232,카페,음식점 > 카페 > 커피전문점 > 스타벅스,http://place.map.kakao.com/26639935,스타벅스 구의DT,https://m.place.naver.com/restaurant/36636853
218,38,15954181,꼬메노,서울 광진구 화양동 16-24,서울 광진구 군자로7길 29,02-468-5177,카페,음식점 > 카페,http://place.map.kakao.com/15954181,꼬메노,https://m.place.naver.com/restaurant/20322289
219,39,606933069,플라이팬커피,서울 광진구 자양동 64-11,서울 광진구 능동로3길 14,,카페,음식점 > 카페 > 커피전문점,http://place.map.kakao.com/606933069,플라이팬커피,https://m.place.naver.com/restaurant/1450169164
220,40,13337306,커피마켓,서울 광진구 화양동 3-71,서울 광진구 아차산로33길 60,02-463-8009,카페,음식점 > 카페 > 커피전문점,http://place.map.kakao.com/13337306,커피마켓,https://m.place.naver.com/restaurant/11713252
221,41,630372352,스타벅스 어린이대공원역,서울 광진구 군자동 236,서울 광진구 능동로 243,1522-3232,카페,음식점 > 카페 > 커피전문점 > 스타벅스,http://place.map.kakao.com/630372352,스타벅스 어린이대공원역,https://m.place.naver.com/restaurant/1052484442
222,42,382585102,미어캣족장,서울 광진구 자양동 9-31,서울 광진구 동일로20길 72,,카페,음식점 > 카페 > 테마카페,http://place.map.kakao.com/382585102,미어캣족장,https://m.place.naver.com/restaurant/1570008501
223,43,514403916,라운드브릭,서울 광진구 광장동 287-1,서울 광진구 광장로 67,,카페,음식점 > 카페 > 커피전문점,http://place.map.kakao.com/514403916,라운드브릭,https://m.place.naver.com/restaurant/1785308966
225,0,1779970753,베러댄,서울 동대문구 휘경동 317-53,서울 동대문구 망우로 34,,카페,음식점 > 카페,http://place.map.kakao.com/1779970753,베러댄,https://m.place.naver.com/restaurant/1372247665
226,1,26354962,커피나인 본점,서울 동대문구 답십리동 268-8,서울 동대문구 전농로3길 12,02-6396-9992,카페,음식점 > 카페 > 커피전문점,http://place.map.kakao.com/26354962,커피나인 본점,https://m.place.naver.com/restaurant/37927848
227,2,1317422264,카페몰로,서울 동대문구 회기동 57-11,서울 동대문구 회기로 163,02-966-1301,카페,음식점 > 카페 > 테마카페 > 디저트카페,http://place.map.kakao.com/1317422264,카페몰로,https://m.place.naver.com/restaurant/1669716615
229,4,1989079728,너디블루,서울 동대문구 전농동 103-312,서울 동대문구 전농로36길 9,,카페,음식점 > 카페,http://place.map.kakao.com/1989079728,너디블루,https://m.place.naver.com/restaurant/81033019
230,5,2093688428,카페양귀비,서울 동대문구 이문동 345-7,서울 동대문구 이문로9길 8,,카페,음식점 > 카페,http://place.map.kakao.com/2093688428,카페양귀비,https://m.place.naver.com/restaurant/1237399814
231,6,105370530,오앤디,서울 동대문구 휘경동 293-171,서울 동대문구 망우로12가길 17,,카페,음식점 > 카페,http://place.map.kakao.com/105370530,오앤디,https://m.place.naver.com/restaurant/1465450152
232,7,7883277,민들레영토 경희대점,서울 동대문구 회기동 60-84,서울 동대문구 경희대로1길 34,02-959-3733,카페,음식점 > 카페 > 커피전문점,http://place.map.kakao.com/7883277,민들레영토 경희대점,https://m.place.naver.com/restaurant/19805605
233,8,13333488,컴플리트커피,서울 동대문구 이문동 264-293,서울 동대문구 천장산로7길 19,070-8873-0419,카페,음식점 > 카페,http://place.map.kakao.com/13333488,컴플리트커피,https://m.place.naver.com/restaurant/1403132921
234,9,2047903591,대즐링,서울 동대문구 제기동 137-130,서울 동대문구 안암로 132,070-763-9394,카페,음식점 > 카페,http://place.map.kakao.com/2047903591,대즐링,https://m.place.naver.com/restaurant/200872182
235,10,1872113102,더크림,서울 동대문구 장안동 330-9,서울 동대문구 장한로28길 18,070-4065-7313,카페,음식점 > 카페 > 테마카페 > 디저트카페,http://place.map.kakao.com/1872113102,더크림,https://m.place.naver.com/restaurant/1014303253
236,11,19034696,카페온,서울 동대문구 전농동 602-6,서울 동대문구 왕산로 276-1,070-8682-4958,카페,음식점 > 카페,http://place.map.kakao.com/19034696,카페온,https://m.place.naver.com/restaurant/32839721
237,12,1175140530,카페림,서울 동대문구 용두동 38-3,서울 동대문구 천호대로27길 8-2,02-968-1497,카페,음식점 > 카페 > 테마카페 > 디저트카페,http://place.map.kakao.com/1175140530,카페림,https://m.place.naver.com/restaurant/1095717187
238,13,789579036,키라쿠,서울 동대문구 제기동 1152-13,서울 동대문구 약령시로 5-1,,카페,음식점 > 카페,http://place.map.kakao.com/789579036,키라쿠,https://m.place.naver.com/restaurant/1918906970
239,14,17884754,스타벅스 장한평역점,서울 동대문구 장안동 433-7,서울 동대문구 장한로 10,1522-3232,카페,음식점 > 카페 > 커피전문점 > 스타벅스,http://place.map.kakao.com/17884754,스타벅스 장한평역점,https://m.place.naver.com/restaurant/31316684
240,15,1387251423,스타벅스 답십리역점,서울 동대문구 답십리동 497-67,서울 동대문구 천호대로 263,1522-3232,카페,음식점 > 카페 > 커피전문점 > 스타벅스,http://place.map.kakao.com/1387251423,스타벅스 답십리역점,https://m.place.naver.com/restaurant/594618313
241,16,26900379,스타벅스 신설동역점,서울 동대문구 신설동 76-10,서울 동대문구 왕산로 19,1522-3232,카페,음식점 > 카페 > 커피전문점 > 스타벅스,http://place.map.kakao.com/26900379,스타벅스 신설동역점,https://m.place.naver.com/restaurant/36952160
242,17,24868732,스타벅스 회기역사거리점,서울 동대문구 회기동 346-18,서울 동대문구 이문로 37,1522-3232,카페,음식점 > 카페 > 커피전문점 > 스타벅스,http://place.map.kakao.com/24868732,스타벅스 회기역사거리점,https://m.place.naver.com/restaurant/35076339
243,18,453254465,쁘띠몽드 키즈카페,서울 동대문구 장안동 111-1,서울 동대문구 한천로 193,02-2215-7005,카페,음식점 > 카페 > 테마카페 > 키즈카페,http://place.map.kakao.com/453254465,쁘띠몽드 키즈카페,https://m.place.naver.com/restaurant/1214031199
244,19,811623792,한시십일분,서울 동대문구 휘경동 267-84,서울 동대문구 망우로 66,,카페,음식점 > 카페,http://place.map.kakao.com/811623792,한시십일분,https://m.place.naver.com/restaurant/1431249739
245,20,2103694654,비하인드미,서울 동대문구 회기동 60-93,서울 동대문구 회기로 125,,카페,음식점 > 카페,http://place.map.kakao.com/2103694654,비하인드미,https://m.place.naver.com/restaurant/554316357
246,21,27542920,이문동커피집 플랫피플,서울 동대문구 이문동 331-56,서울 동대문구 이문로25길 39,,카페,음식점 > 카페 > 커피전문점,http://place.map.kakao.com/27542920,이문동커피집 플랫피플,https://m.place.naver.com/restaurant/1141283550
247,22,27020768,디어테이블,서울 동대문구 장안동 338-9,서울 동대문구 답십리로72길 68,,카페,음식점 > 카페,http://place.map.kakao.com/27020768,디어테이블,https://m.place.naver.com/restaurant/292141070
248,23,14723310,8번가,서울 동대문구 회기동 42-139,서울 동대문구 경희대로3길 8,,카페,음식점 > 카페,http://place.map.kakao.com/14723310,8번가,https://m.place.naver.com/restaurant/1928437084
249,24,26407016,아임파이 외대점,서울 동대문구 이문동 317-11,서울 동대문구 휘경로2길 39,070-4274-1182,카페,음식점 > 카페 > 테마카페 > 디저트카페,http://place.map.kakao.com/26407016,아임파이 외대점,https://m.place.naver.com/restaurant/35701526
250,25,1264344578,카페 트위그,서울 동대문구 장안동 412-4,서울 동대문구 한천로 10,02-6953-8892,카페,음식점 > 카페,http://place.map.kakao.com/1264344578,카페 트위그,https://m.place.naver.com/restaurant/1783956058
251,26,737325783,너나들이 만화카페,서울 동대문구 회기동 60-71,서울 동대문구 회기로13길 19,0507-1443-0331,카페,음식점 > 카페 > 테마카페 > 만화카페,http://place.map.kakao.com/737325783,너나들이 만화카페,https://m.place.naver.com/restaurant/881718554
252,27,831347994,커피블랑,서울 동대문구 회기동 16-18,서울 동대문구 회기로19길 16,010-2717-7316,카페,음식점 > 카페 > 테마카페 > 디저트카페,http://place.map.kakao.com/831347994,커피블랑,https://m.place.naver.com/restaurant/1182229235
253,28,1945277759,37.5 답십리점,서울 동대문구 답십리동 1003,서울 동대문구 답십리로 130,02-2212-3705,카페,음식점 > 카페 > 테마카페 > 디저트카페,http://place.map.kakao.com/1945277759,37.5 답십리점,https://m.place.naver.com/restaurant/1354598598
254,29,1609221649,스타벅스 청량리역사점,서울 동대문구 전농동 588-1,서울 동대문구 왕산로 214,1522-3232,카페,음식점 > 카페 > 커피전문점 > 스타벅스,http://place.map.kakao.com/1609221649,스타벅스 청량리역사점,https://m.place.naver.com/restaurant/1555336463
255,30,1853475772,스타벅스 경희대삼거리점,서울 동대문구 회기동 60-40,서울 동대문구 회기로 141,,카페,음식점 > 카페 > 커피전문점 > 스타벅스,http://place.map.kakao.com/1853475772,스타벅스 경희대삼거리점,https://m.place.naver.com/restaurant/298674863
256,31,1507094194,그대쉴꽃,서울 동대문구 회기동 16-96,서울 동대문구 회기로19길 6,02-966-0813,카페,음식점 > 카페,http://place.map.kakao.com/1507094194,그대쉴꽃,https://m.place.naver.com/restaurant/1336333460
257,32,1772092398,세라젬웰카페 서울답십리직영점,서울 동대문구 답십리동 1012,서울 동대문구 사가정로 80,02-6952-1825,카페,음식점 > 카페 > 테마카페,http://place.map.kakao.com/1772092398,세라젬웰카페 서울답십리직영점,https://m.place.naver.com/restaurant/1015115313
258,33,1131068123,고소운,서울 동대문구 이문동 288-40,서울 동대문구 휘경로2길 4,,카페,음식점 > 카페,http://place.map.kakao.com/1131068123,고소운,https://m.place.naver.com/restaurant/1000955576
259,34,16620949,투썸플레이스 장안점,서울 동대문구 장안동 375-1,서울 동대문구 장한로 73,02-2212-1780,카페,음식점 > 카페 > 커피전문점 > 투썸플레이스,http://place.map.kakao.com/16620949,투썸플레이스 장안점,https://m.place.naver.com/restaurant/20464239
260,35,347913254,온니당,서울 동대문구 장안동 105-11,서울 동대문구 답십리로63길 125,010-4450-9715,카페,음식점 > 카페 > 테마카페 > 디저트카페,http://place.map.kakao.com/347913254,온니당,https://m.place.naver.com/restaurant/1337811116
261,36,25684300,설빙 서울회기역점,서울 동대문구 휘경동 191-4,서울 동대문구 회기로 193,02-960-4342,카페,음식점 > 카페 > 테마카페 > 디저트카페 > 설빙,http://place.map.kakao.com/25684300,설빙 서울회기역점,https://m.place.naver.com/restaurant/35756594
262,37,1565634100,카페파인,서울 동대문구 제기동 137-7,서울 동대문구 안암로22길 15,,카페,음식점 > 카페,http://place.map.kakao.com/1565634100,카페파인,https://m.place.naver.com/restaurant/1158688459
263,38,1065892215,프롬하츠커피 용두점,서울 동대문구 용두동 130-4,서울 동대문구 왕산로 71,02-924-2230,카페,음식점 > 카페 > 커피전문점,http://place.map.kakao.com/1065892215,프롬하츠커피 용두점,https://m.place.naver.com/restaurant/631859316
264,39,1138197258,카페시사,서울 동대문구 전농동 123-1,서울 동대문구 전농로 217,,카페,음식점 > 카페,http://place.map.kakao.com/1138197258,카페시사,https://m.place.naver.com/restaurant/1606902512
265,40,1076774313,빈칸,서울 동대문구 휘경동 192-5,서울 동대문구 망우로21길 52,02-1577-5886,카페,음식점 > 카페,http://place.map.kakao.com/1076774313,빈칸,https://m.place.naver.com/restaurant/1589920689
266,41,1096938565,멜팅폼,서울 동대문구 이문동 264-410,서울 동대문구 천장산로7길 10-3,02-960-2544,카페,음식점 > 카페 > 테마카페,http://place.map.kakao.com/1096938565,멜팅폼,https://m.place.naver.com/restaurant/1224672816
267,42,20103597,투썸플레이스 답십리점,서울 동대문구 답십리동 530-16,서울 동대문구 고미술로 81,070-7554-5045,카페,음식점 > 카페 > 커피전문점 > 투썸플레이스,http://place.map.kakao.com/20103597,투썸플레이스 답십리점,https://m.place.naver.com/restaurant/1093193614
268,43,8439657,스타벅스 외대점,서울 동대문구 이문동 305-60,서울 동대문구 휘경로 12-1,,카페,음식점 > 카페 > 커피전문점 > 스타벅스,http://place.map.kakao.com/8439657,스타벅스 외대점,https://m.place.naver.com/restaurant/11689857
269,44,491664026,투썸플레이스 휘경점,서울 동대문구 휘경동 275-5,서울 동대문구 망우로 86,02-2039-6288,카페,음식점 > 카페 > 커피전문점 > 투썸플레이스,http://place.map.kakao.com/491664026,투썸플레이스 휘경점,https://m.place.naver.com/restaurant/1030255415
270,0,24576625,파크더블유,서울 중랑구 망우동 43-8,서울 중랑구 양원역로16길 103-111,02-432-5659,카페,음식점 > 카페,http://place.map.kakao.com/24576625,파크더블유,https://m.place.naver.com/restaurant/34907580
271,1,2145979742,커피스터프,서울 중랑구 상봉동 118-1,서울 중랑구 망우로42길 10,,카페,음식점 > 카페,http://place.map.kakao.com/2145979742,커피스터프,https://m.place.naver.com/restaurant/1284783089
272,2,2062868872,미니특공대테마파크 면목역점,서울 중랑구 면목동 118-13,서울 중랑구 겸재로 164,070-7788-5656,카페,음식점 > 카페 > 테마카페 > 키즈카페,http://place.map.kakao.com/2062868872,미니특공대테마파크 면목역점,https://m.place.naver.com/restaurant/1339696263
273,3,26932883,카페브릭,서울 중랑구 신내동 243-20,서울 중랑구 신내역로1길 127-11,,카페,음식점 > 카페,http://place.map.kakao.com/26932883,카페브릭,https://m.place.naver.com/restaurant/36998529
274,4,19756111,라떼플로라,서울 중랑구 묵동 180-51,서울 중랑구 동일로156길 7,02-432-9503,카페,음식점 > 카페 > 테마카페,http://place.map.kakao.com/19756111,라떼플로라,https://m.place.naver.com/restaurant/33758632
275,5,1905828600,상봉커피,서울 중랑구 면목동 133-1,서울 중랑구 봉우재로 96,,카페,음식점 > 카페,http://place.map.kakao.com/1905828600,상봉커피,https://m.place.naver.com/restaurant/1532453360
276,6,358842854,카페소고 망우점,서울 중랑구 망우동 489-29,서울 중랑구 신내로1길 15,02-6014-6912,카페,음식점 > 카페,http://place.map.kakao.com/358842854,카페소고 망우점,https://m.place.naver.com/restaurant/1691702665
277,7,131735695,카페252,서울 중랑구 상봉동 118-19,서울 중랑구 망우로 252,02-493-8286,카페,음식점 > 카페 > 테마카페 > 디저트카페,http://place.map.kakao.com/131735695,카페252,https://m.place.naver.com/restaurant/1068679360
278,8,17884784,스타벅스 상봉역점,서울 중랑구 상봉동 100-2,서울 중랑구 망우로 307,1522-3232,카페,음식점 > 카페 > 커피전문점 > 스타벅스,http://place.map.kakao.com/17884784,스타벅스 상봉역점,https://m.place.naver.com/restaurant/31316697
279,9,1848099630,개인공간,서울 중랑구 신내동 495-35,서울 중랑구 송림길 12,070-7718-0087,카페,음식점 > 카페,http://place.map.kakao.com/1848099630,개인공간,https://m.place.naver.com/restaurant/1431736263
280,10,26303961,스타벅스 사가정역점,서울 중랑구 면목동 617-2,서울 중랑구 면목로 310,1522-3232,카페,음식점 > 카페 > 커피전문점 > 스타벅스,http://place.map.kakao.com/26303961,스타벅스 사가정역점,https://m.place.naver.com/restaurant/35781801
281,11,27598483,스타벅스 상봉점,서울 중랑구 상봉동 501,서울 중랑구 상봉로 131,1522-3232,카페,음식점 > 카페 > 커피전문점 > 스타벅스,http://place.map.kakao.com/27598483,스타벅스 상봉점,https://m.place.naver.com/restaurant/37775015
282,12,26785139,스타벅스 중랑구청점,서울 중랑구 신내동 563-3,서울 중랑구 신내로 72,,카페,음식점 > 카페 > 커피전문점 > 스타벅스,http://place.map.kakao.com/26785139,스타벅스 중랑구청점,https://m.place.naver.com/restaurant/36469904
283,13,1536161428,다시사랑받개,서울 중랑구 신내동 273-20,서울 중랑구 용마산로139나길 83,02-6958-6224,카페,음식점 > 카페,http://place.map.kakao.com/1536161428,다시사랑받개,https://m.place.naver.com/restaurant/1016307700
284,14,181624929,디저트아카데미,서울 중랑구 상봉동 127-15,서울 중랑구 망우로36길 38,02-433-6096,카페,음식점 > 카페 > 테마카페 > 디저트카페,http://place.map.kakao.com/181624929,디저트아카데미,https://m.place.naver.com/restaurant/1329550380
285,15,366702623,이층커피,서울 중랑구 중화동 305-20,서울 중랑구 동일로 805-1,02-437-0627,카페,음식점 > 카페,http://place.map.kakao.com/366702623,이층커피,https://m.place.naver.com/restaurant/1392183842
286,16,1097099031,로기스커피,서울 중랑구 면목동 117-35,서울 중랑구 겸재로 172-1,070-8621-8791,카페,음식점 > 카페,http://place.map.kakao.com/1097099031,로기스커피,https://m.place.naver.com/restaurant/1370219520
287,17,26644161,설빙 상봉점,서울 중랑구 상봉동 130-1,서울 중랑구 망우로 204,02-6380-0707,카페,음식점 > 카페 > 테마카페 > 디저트카페 > 설빙,http://place.map.kakao.com/26644161,설빙 상봉점,https://m.place.naver.com/restaurant/36655751
288,18,1424988476,모이카페,서울 중랑구 신내동 430-26,서울 중랑구 용마산로125길 108-17,070-4230-0404,카페,음식점 > 카페,http://place.map.kakao.com/1424988476,모이카페,https://m.place.naver.com/restaurant/1542813230
289,19,511991724,스토어드커피,서울 중랑구 묵동 239-118,서울 중랑구 동일로157길 22,070-8823-7669,카페,음식점 > 카페,http://place.map.kakao.com/511991724,스토어드커피,https://m.place.naver.com/restaurant/1608587059
290,20,744705019,문릿,서울 중랑구 상봉동 87-2,서울 중랑구 봉우재로43길 35,,카페,음식점 > 카페 > 테마카페 > 디저트카페,http://place.map.kakao.com/744705019,문릿,https://m.place.naver.com/restaurant/1373503982
291,21,119112939,티하우스나니,서울 중랑구 신내동 493-46,서울 중랑구 용마산로117길 26,02-433-2726,카페,음식점 > 카페 > 전통찻집,http://place.map.kakao.com/119112939,티하우스나니,https://m.place.naver.com/restaurant/976635066
292,22,1565667844,빈스로드 본사,서울 중랑구 상봉동 490-4,서울 중랑구 봉화산로 111,070-7593-7005,카페,음식점 > 카페,http://place.map.kakao.com/1565667844,빈스로드 본사,https://m.place.naver.com/restaurant/37883140
293,23,26925099,스타벅스 중랑역점,서울 중랑구 상봉동 130-3,서울 중랑구 망우로30길 3,,카페,음식점 > 카페 > 커피전문점 > 스타벅스,http://place.map.kakao.com/26925099,스타벅스 중랑역점,https://m.place.naver.com/restaurant/37038909
294,24,1531026852,커피빈 상봉역점,서울 중랑구 상봉동 100-17,서울 중랑구 망우로 291,02-493-8902,카페,음식점 > 카페 > 커피전문점 > 커피빈,http://place.map.kakao.com/1531026852,커피빈 상봉역점,https://m.place.naver.com/restaurant/864608408
295,25,1831290209,투썸플레이스 망우점,서울 중랑구 망우동 489-2,서울 중랑구 망우로 403,02-6954-2588,카페,음식점 > 카페 > 커피전문점 > 투썸플레이스,http://place.map.kakao.com/1831290209,투썸플레이스 망우점,https://m.place.naver.com/restaurant/1125288880
296,26,1879929501,투썸플레이스 신내점,서울 중랑구 신내동 386-2,서울 중랑구 용마산로 637,02-2088-0858,카페,음식점 > 카페 > 커피전문점 > 투썸플레이스,http://place.map.kakao.com/1879929501,투썸플레이스 신내점,https://m.place.naver.com/restaurant/1118755333
297,27,1937762094,스타벅스 묵동점,서울 중랑구 묵동 169-12,서울 중랑구 동일로 952,1522-3232,카페,음식점 > 카페 > 커피전문점 > 스타벅스,http://place.map.kakao.com/1937762094,스타벅스 묵동점,https://m.place.naver.com/restaurant/1032276040
298,28,27282278,더바른차담소,서울 중랑구 면목동 718-2,서울 중랑구 동일로 467,070-7760-0298,카페,음식점 > 카페 > 테마카페 > 디저트카페,http://place.map.kakao.com/27282278,더바른차담소,https://m.place.naver.com/restaurant/37101479
299,29,27079711,데일리파크,서울 중랑구 묵동 20,서울 중랑구 신내로15길 196,02-3422-0146,카페,음식점 > 카페 > 테마카페 > 디저트카페,http://place.map.kakao.com/27079711,데일리파크,https://m.place.naver.com/restaurant/36203119
300,30,218720613,스타벅스 중화역점,서울 중랑구 중화동 306-71,서울 중랑구 봉화산로 35,1522-3232,카페,음식점 > 카페 > 커피전문점 > 스타벅스,http://place.map.kakao.com/218720613,스타벅스 중화역점,https://m.place.naver.com/restaurant/1676043328
301,31,1721326456,어느날오늘,서울 중랑구 상봉동 314-69,서울 중랑구 봉화산로30길 98,,카페,음식점 > 카페 > 테마카페 > 디저트카페,http://place.map.kakao.com/1721326456,어느날오늘,https://m.place.naver.com/restaurant/1929386226
302,32,1734478763,시즌,서울 중랑구 면목동 499-29,서울 중랑구 사가정로49길 62,,카페,음식점 > 카페,http://place.map.kakao.com/1734478763,시즌,https://m.place.naver.com/restaurant/1792785194
303,33,1433298247,투썸플레이스 사가정역점,서울 중랑구 면목동 633-9,서울 중랑구 면목로 301,02-433-4024,카페,음식점 > 카페 > 커피전문점 > 투썸플레이스,http://place.map.kakao.com/1433298247,투썸플레이스 사가정역점,https://m.place.naver.com/restaurant/637496597
304,34,26947865,이노이드커피랩,서울 중랑구 면목동 52-11,서울 중랑구 용마산로86길 9-38,070-7808-0085,카페,음식점 > 카페,http://place.map.kakao.com/26947865,이노이드커피랩,https://m.place.naver.com/restaurant/1654761299
305,35,340390324,헬로방방 상봉점,서울 중랑구 상봉동 501,서울 중랑구 상봉로 131,02-433-0514,카페,음식점 > 카페 > 테마카페 > 키즈카페,http://place.map.kakao.com/340390324,헬로방방 상봉점,https://m.place.naver.com/restaurant/1537973012
306,36,1279265877,투썸플레이스 중랑역점,서울 중랑구 상봉동 130-166,서울 중랑구 망우로 202,,카페,음식점 > 카페 > 커피전문점 > 투썸플레이스,http://place.map.kakao.com/1279265877,투썸플레이스 중랑역점,https://m.place.naver.com/restaurant/38667665
307,37,27403044,디저트39 상봉점,서울 중랑구 상봉동 500,서울 중랑구 망우로 353,02-6053-3939,카페,음식점 > 카페 > 테마카페 > 디저트카페 > 디저트39,http://place.map.kakao.com/27403044,디저트39 상봉점,https://m.place.naver.com/restaurant/1460534367
308,38,1070026450,투썸플레이스 묵동자이점,서울 중랑구 묵동 170-1,서울 중랑구 동일로 932,02-949-1222,카페,음식점 > 카페 > 커피전문점 > 투썸플레이스,http://place.map.kakao.com/1070026450,투썸플레이스 묵동자이점,https://m.place.naver.com/restaurant/38522588
309,39,24960322,내친구고양이카페,서울 중랑구 면목동 617-3,서울 중랑구 면목로 306,02-2209-7446,카페,음식점 > 카페 > 테마카페 > 고양이카페,http://place.map.kakao.com/24960322,내친구고양이카페,https://m.place.naver.com/restaurant/35156364
310,40,884093176,제주역,서울 중랑구 상봉동 190-119,서울 중랑구 상봉중앙로5다길 49,0507-1349-9926,카페,음식점 > 카페 > 테마카페 > 디저트카페,http://place.map.kakao.com/884093176,제주역,https://m.place.naver.com/restaurant/1902012779
311,41,1140431464,투썸플레이스 서일대점,서울 중랑구 면목동 56-2,서울 중랑구 용마산로 384,,카페,음식점 > 카페 > 커피전문점 > 투썸플레이스,http://place.map.kakao.com/1140431464,투썸플레이스 서일대점,https://m.place.naver.com/restaurant/1169282066
312,42,1402799921,똥강아지카페,서울 중랑구 면목동 1502-2,서울 중랑구 용마산로 248,02-435-0722,카페,음식점 > 카페 > 테마카페 > 애견카페,http://place.map.kakao.com/1402799921,똥강아지카페,https://m.place.naver.com/restaurant/1007284746
313,43,1261194641,설빙 묵동점,서울 중랑구 묵동 234-14,서울 중랑구 중랑역로 242,02-949-7767,카페,음식점 > 카페 > 테마카페 > 디저트카페 > 설빙,http://place.map.kakao.com/1261194641,설빙 묵동점,https://m.place.naver.com/restaurant/1028418059
314,44,19812044,탐앤탐스 상봉메가박스점,서울 중랑구 상봉동 130-135,서울 중랑구 망우로 210,02-434-4565,카페,음식점 > 카페 > 커피전문점 > 탐앤탐스,http://place.map.kakao.com/19812044,탐앤탐스 상봉메가박스점,https://m.place.naver.com/restaurant/33021929
315,0,1540882128,성북동빵공장,서울 성북구 성북동 330-105,서울 성북구 대사관로 40,02-762-3450,카페,음식점 > 카페 > 테마카페 > 디저트카페,http://place.map.kakao.com/1540882128,성북동빵공장,https://m.place.naver.com/restaurant/63234658
316,1,7940056,수연산방,서울 성북구 성북동 248,서울 성북구 성북로26길 8,02-764-1736,카페,음식점 > 카페 > 전통찻집,http://place.map.kakao.com/7940056,수연산방,https://m.place.naver.com/restaurant/11569524
317,2,824146965,블랑제메종북악,서울 성북구 성북동 270-1,서울 성북구 성북로 156,02-747-0305,카페,음식점 > 카페 > 테마카페 > 디저트카페,http://place.map.kakao.com/824146965,블랑제메종북악,https://m.place.naver.com/restaurant/1290970158
318,3,2072595213,해로커피,서울 성북구 성북동1가 66,서울 성북구 성북로 19-3,02-6012-9871,카페,음식점 > 카페 > 커피전문점,http://place.map.kakao.com/2072595213,해로커피,https://m.place.naver.com/restaurant/1075501022
319,4,13324245,죠셉의커피나무,서울 성북구 성북동 350-3,서울 성북구 성북로31길 65,02-741-1060,카페,음식점 > 카페 > 커피전문점,http://place.map.kakao.com/13324245,죠셉의커피나무,https://m.place.naver.com/restaurant/1091439148
320,5,1742406210,폴드커피,서울 성북구 하월곡동 133,서울 성북구 종암로 214-3,02-912-9946,카페,음식점 > 카페,http://place.map.kakao.com/1742406210,폴드커피,https://m.place.naver.com/restaurant/1026454126
321,6,26488245,커피명가 안암점,서울 성북구 안암동4가 8,서울 성북구 안암로5길 40,02-928-0892,카페,음식점 > 카페,http://place.map.kakao.com/26488245,커피명가 안암점,https://m.place.naver.com/restaurant/36297984
322,7,293334422,카페루틴,서울 성북구 동선동3가 230,서울 성북구 보문로34가길 6,,카페,음식점 > 카페,http://place.map.kakao.com/293334422,카페루틴,https://m.place.naver.com/restaurant/1557074212
323,8,27464878,알렉스더커피 성북점,서울 성북구 성북동 260-38,서울 성북구 성북로28길 9,070-7520-7714,카페,음식점 > 카페,http://place.map.kakao.com/27464878,알렉스더커피 성북점,https://m.place.naver.com/restaurant/37417613
324,9,327691864,모블러,서울 성북구 동선동3가 28,서울 성북구 동소문로26다길 26,,카페,음식점 > 카페,http://place.map.kakao.com/327691864,모블러,https://m.place.naver.com/restaurant/1709962566
325,10,595329992,더홈서울,서울 성북구 삼선동5가 357,서울 성북구 고려대로1길 87,,카페,음식점 > 카페 > 커피전문점,http://place.map.kakao.com/595329992,더홈서울,https://m.place.naver.com/restaurant/53720120
326,11,828624861,카페그리다,서울 성북구 정릉동 691-5,서울 성북구 솔샘로 19,02-909-4987,카페,음식점 > 카페 > 테마카페 > 디저트카페,http://place.map.kakao.com/828624861,카페그리다,https://m.place.naver.com/restaurant/1636167754
327,12,17884760,스타벅스 성신여대점,서울 성북구 동선동1가 92-1,서울 성북구 동소문로24길 12,1522-3232,카페,음식점 > 카페 > 커피전문점 > 스타벅스,http://place.map.kakao.com/17884760,스타벅스 성신여대점,https://m.place.naver.com/restaurant/21869006
328,13,964447498,정이정,서울 성북구 종암동 10-101,서울 성북구 종암로 82-15,,카페,음식점 > 카페,http://place.map.kakao.com/964447498,정이정,https://m.place.naver.com/restaurant/1066378572
329,14,1893082733,카페비,서울 성북구 동선동2가 121-2,서울 성북구 보문로30길 71,02-921-7797,카페,음식점 > 카페,http://place.map.kakao.com/1893082733,카페비,https://m.place.naver.com/restaurant/13051994
330,15,864091669,커피매터스,서울 성북구 삼선동4가 85,서울 성북구 동소문로10길 19-1,070-8860-8147,카페,음식점 > 카페,http://place.map.kakao.com/864091669,커피매터스,https://m.place.naver.com/restaurant/1387784432
331,16,746492402,헬로방방 돌곶이역점,서울 성북구 석관동 349-1,서울 성북구 화랑로 248,02-959-0077,카페,음식점 > 카페 > 테마카페 > 키즈카페,http://place.map.kakao.com/746492402,헬로방방 돌곶이역점,https://m.place.naver.com/restaurant/1869840846
332,17,174376625,밀월,서울 성북구 동소문동4가 16,,,카페,음식점 > 카페,http://place.map.kakao.com/174376625,밀월,https://m.place.naver.com/restaurant/1263957307
333,18,1774383267,로스디아스,서울 성북구 동선동2가 82,서울 성북구 동소문로22길 67,,카페,음식점 > 카페,http://place.map.kakao.com/1774383267,로스디아스,https://m.place.naver.com/restaurant/1103631091
334,19,23779742,째즈스토리,서울 성북구 성북동 122-7,서울 성북구 혜화로 88,02-725-6537,카페,음식점 > 카페 > 테마카페 > 라이브카페,http://place.map.kakao.com/23779742,째즈스토리,https://m.place.naver.com/restaurant/11569500
335,20,1879177739,스타벅스 성신여대정문,서울 성북구 동선동2가 134,서울 성북구 보문로34길 62,,카페,음식점 > 카페 > 커피전문점 > 스타벅스,http://place.map.kakao.com/1879177739,스타벅스 성신여대정문,https://m.place.naver.com/restaurant/38233066
336,21,1432212706,네이버후드,서울 성북구 성북동 15-23,서울 성북구 대사관로 133,,카페,음식점 > 카페,http://place.map.kakao.com/1432212706,네이버후드,https://m.place.naver.com/restaurant/447606652
337,22,18522088,카페1976,서울 성북구 길음동 22-1,서울 성북구 도봉로 1,02-989-8613,카페,음식점 > 카페 > 테마카페 > 디저트카페,http://place.map.kakao.com/18522088,카페1976,https://m.place.naver.com/restaurant/38276393
338,23,1925239650,스타벅스 종암DT점,서울 성북구 종암동 29-10,서울 성북구 종암로 17,1522-3232,카페,음식점 > 카페 > 커피전문점 > 스타벅스,http://place.map.kakao.com/1925239650,스타벅스 종암DT점,https://m.place.naver.com/restaurant/1447459716
339,24,364220603,오후홍콩 성신여대점,서울 성북구 동선동1가 85-115,서울 성북구 동소문로24가길 16,02-6497-6787,카페,음식점 > 카페,http://place.map.kakao.com/364220603,오후홍콩 성신여대점,https://m.place.naver.com/restaurant/1271352861
340,25,1326586308,일일커피,서울 성북구 길음동 1249,서울 성북구 삼양로 27,070-8845-3583,카페,음식점 > 카페,http://place.map.kakao.com/1326586308,일일커피,https://m.place.naver.com/restaurant/1169850055
341,26,198229338,까쉬,서울 성북구 동선동2가 135-10,서울 성북구 보문로34길 72-5,,카페,음식점 > 카페 > 테마카페 > 디저트카페,http://place.map.kakao.com/198229338,까쉬,https://m.place.naver.com/restaurant/1744261154
342,27,11831570,일상,서울 성북구 성북동 100-1,서울 성북구 성북로 106,,카페,음식점 > 카페 > 커피전문점,http://place.map.kakao.com/11831570,일상,https://m.place.naver.com/restaurant/37294243
343,28,1125682061,제뉴어리피크닉,서울 성북구 성북동1가 48,서울 성북구 창경궁로43길 26,,카페,음식점 > 카페,http://place.map.kakao.com/1125682061,제뉴어리피크닉,https://m.place.naver.com/restaurant/1876330408
344,29,1119289963,카페동선동,서울 성북구 동선동4가 122-3,서울 성북구 동소문로 129-2,,카페,음식점 > 카페 > 테마카페 > 디저트카페,http://place.map.kakao.com/1119289963,카페동선동,https://m.place.naver.com/restaurant/1687154937
345,30,18691197,스타벅스 안암역점,서울 성북구 안암동5가 92,서울 성북구 고려대로 102-2,1522-3232,카페,음식점 > 카페 > 커피전문점 > 스타벅스,http://place.map.kakao.com/18691197,스타벅스 안암역점,https://m.place.naver.com/restaurant/31316673
346,31,18996363,우드&브릭 성북점,서울 성북구 성북동 97-21,서울 성북구 성북로 120,02-741-1171,카페,음식점 > 카페 > 테마카페 > 디저트카페,http://place.map.kakao.com/18996363,우드&브릭 성북점,https://m.place.naver.com/restaurant/33142212
347,32,879915397,오버스토리,서울 성북구 성북동 8-28,서울 성북구 선잠로2다길 13-13,,카페,음식점 > 카페,http://place.map.kakao.com/879915397,오버스토리,https://m.place.naver.com/restaurant/1366796180
348,33,2066961828,원오프카페,서울 성북구 동선동2가 128,서울 성북구 동소문로22길 57-4,,카페,음식점 > 카페,http://place.map.kakao.com/2066961828,원오프카페,https://m.place.naver.com/restaurant/1518493978
349,34,889014888,이씨네빵집,서울 성북구 삼선동5가 298-4,서울 성북구 보문로 173-2,02-6081-4152,카페,음식점 > 카페 > 테마카페 > 디저트카페,http://place.map.kakao.com/889014888,이씨네빵집,https://m.place.naver.com/restaurant/1987787158
350,35,1468332961,프로젝트얼스,서울 성북구 성북동 126-31,서울 성북구 성북로15길 21,,카페,음식점 > 카페,http://place.map.kakao.com/1468332961,프로젝트얼스,https://m.place.naver.com/restaurant/70686527
351,36,405171902,그릭데이 성신여대점,서울 성북구 동선동2가 135-29,서울 성북구 보문로34길 66,02-6053-9222,카페,음식점 > 카페 > 테마카페 > 디저트카페,http://place.map.kakao.com/405171902,그릭데이 성신여대점,https://m.place.naver.com/restaurant/1186599097
352,37,956088782,바스크,서울 성북구 길음동 1171-14,서울 성북구 삼양로9길 10-2,02-941-5168,카페,음식점 > 카페,http://place.map.kakao.com/956088782,바스크,https://m.place.naver.com/restaurant/513690995
353,38,22895384,비나케이크,서울 성북구 보문동1가 1-12,서울 성북구 보문로30길 12,02-953-7070,카페,음식점 > 카페 > 테마카페 > 디저트카페,http://place.map.kakao.com/22895384,비나케이크,https://m.place.naver.com/restaurant/35726801
354,39,27198954,스타벅스 종암점,서울 성북구 종암동 3-686,서울 성북구 종암로 122,,카페,음식점 > 카페 > 커피전문점 > 스타벅스,http://place.map.kakao.com/27198954,스타벅스 종암점,https://m.place.naver.com/restaurant/37249932
355,40,7961278,스타벅스 고대점,서울 성북구 안암동5가 104-30,서울 성북구 고려대로24길 51,1522-3232,카페,음식점 > 카페 > 커피전문점 > 스타벅스,http://place.map.kakao.com/7961278,스타벅스 고대점,https://m.place.naver.com/restaurant/11689826
356,41,711914897,모던양갱집,서울 성북구 정릉동 266-98,서울 성북구 보국문로16길 72,,카페,음식점 > 카페 > 테마카페 > 디저트카페,http://place.map.kakao.com/711914897,모던양갱집,https://m.place.naver.com/restaurant/1559471397
357,42,27602223,커피하우스반달,서울 성북구 장위동 238-425,서울 성북구 장월로23길 5-10,,카페,음식점 > 카페 > 테마카페 > 디저트카페,http://place.map.kakao.com/27602223,커피하우스반달,https://m.place.naver.com/restaurant/37017445
358,43,332933530,네임드에스프레소,서울 성북구 동소문동1가 8,서울 성북구 성북로6길 2-2,02-765-5556,카페,음식점 > 카페 > 커피전문점,http://place.map.kakao.com/332933530,네임드에스프레소,https://m.place.naver.com/restaurant/1314013990
359,44,17757850,투썸플레이스 성신여대점,서울 성북구 동선동1가 3-2,서울 성북구 동소문로20다길 17,02-923-7707,카페,음식점 > 카페 > 커피전문점 > 투썸플레이스,http://place.map.kakao.com/17757850,투썸플레이스 성신여대점,https://m.place.naver.com/restaurant/31316681
360,0,2021943104,카페어니언 미아점,서울 강북구 미아동 127-9,서울 강북구 솔매로50길 55,070-7816-2714,카페,음식점 > 카페,http://place.map.kakao.com/2021943104,카페어니언 미아점,https://m.place.naver.com/restaurant/1663881809
361,1,7888616,미즐카페엠,서울 강북구 수유동 535-11,서울 강북구 4.19로 107,02-999-5055,카페,음식점 > 카페,http://place.map.kakao.com/7888616,미즐카페엠,https://m.place.naver.com/restaurant/1446201981
362,2,234080048,무너미,서울 강북구 수유동 222-78,서울 강북구 노해로8가길 40,02-0903-5058,카페,음식점 > 카페 > 커피전문점,http://place.map.kakao.com/234080048,무너미,https://m.place.naver.com/restaurant/1530597017
363,3,2001336225,경계선,서울 강북구 수유동 516-62,서울 강북구 삼각산로 22-7,010-3957-7341,카페,음식점 > 카페 > 커피전문점,http://place.map.kakao.com/2001336225,경계선,https://m.place.naver.com/restaurant/801902370
364,4,394644903,카페멘디,서울 강북구 수유동 582-12,서울 강북구 4.19로8길 7-2,02-990-7832,카페,음식점 > 카페,http://place.map.kakao.com/394644903,카페멘디,https://m.place.naver.com/restaurant/1924670105
365,5,2034455524,카페 산아래,서울 강북구 우이동 217-1,서울 강북구 삼양로181길 56,,카페,음식점 > 카페,http://place.map.kakao.com/2034455524,카페 산아래,https://m.place.naver.com/restaurant/1499941915
366,6,943203996,제이제곱,서울 강북구 미아동 54-46,서울 강북구 도봉로10나길 17,010-4883-4249,카페,음식점 > 카페,http://place.map.kakao.com/943203996,제이제곱,https://m.place.naver.com/restaurant/1001109104
367,7,657378473,릴렉스,서울 강북구 우이동 238-1,서울 강북구 삼양로181길 142,,카페,음식점 > 카페,http://place.map.kakao.com/657378473,릴렉스,https://m.place.naver.com/restaurant/1635358195
368,8,939649470,에이머그,서울 강북구 수유동 2-2,서울 강북구 노해로 21,02-6953-2629,카페,음식점 > 카페,http://place.map.kakao.com/939649470,에이머그,https://m.place.naver.com/restaurant/1649194403
369,9,1044086314,백란,서울 강북구 우이동 244-3,서울 강북구 삼양로181길 201-20,02-993-7745,카페,음식점 > 카페,http://place.map.kakao.com/1044086314,백란,https://m.place.naver.com/restaurant/34975400
370,10,27020659,스타벅스 강북구청사거리점,서울 강북구 수유동 174-13,서울 강북구 도봉로 365,1522-3232,카페,음식점 > 카페 > 커피전문점 > 스타벅스,http://place.map.kakao.com/27020659,스타벅스 강북구청사거리점,https://m.place.naver.com/restaurant/37053567
371,11,4331171,큐브이스케이프 수유점,서울 강북구 수유동 229-46,서울 강북구 도봉로87길 11,02-903-0706,카페,음식점 > 카페 > 테마카페,http://place.map.kakao.com/4331171,큐브이스케이프 수유점,https://m.place.naver.com/restaurant/1503146221
372,12,26572250,스타벅스 미아사거리역점,서울 강북구 미아동 35-30,서울 강북구 도봉로 32,1522-3232,카페,음식점 > 카페 > 커피전문점 > 스타벅스,http://place.map.kakao.com/26572250,스타벅스 미아사거리역점,https://m.place.naver.com/restaurant/36203162
373,13,325005868,투썸플레이스 미아사거리역점,서울 강북구 미아동 860-187,서울 강북구 도봉로10길 6,02-982-2500,카페,음식점 > 카페 > 커피전문점 > 투썸플레이스,http://place.map.kakao.com/325005868,투썸플레이스 미아사거리역점,https://m.place.naver.com/restaurant/1030819161
374,14,10534106,스타벅스 수유역점,서울 강북구 번동 418-20,서울 강북구 도봉로 342,,카페,음식점 > 카페 > 커피전문점 > 스타벅스,http://place.map.kakao.com/10534106,스타벅스 수유역점,https://m.place.naver.com/restaurant/11689846
375,15,1356390089,번418,서울 강북구 번동 418-13,서울 강북구 오패산로 414,02-907-5757,카페,음식점 > 카페 > 테마카페 > 디저트카페,http://place.map.kakao.com/1356390089,번418,https://m.place.naver.com/restaurant/1408529601
376,16,1305533873,노르웨이안우드,서울 강북구 수유동 192-33,서울 강북구 도봉로87길 32-6,02-999-3738,카페,음식점 > 카페,http://place.map.kakao.com/1305533873,노르웨이안우드,https://m.place.naver.com/restaurant/1603200457
377,17,1307504751,커피타는고양이,서울 강북구 미아동 35-27,서울 강북구 도봉로 34-8,02-980-9080,카페,음식점 > 카페 > 테마카페 > 고양이카페,http://place.map.kakao.com/1307504751,커피타는고양이,https://m.place.naver.com/restaurant/1698137720
378,18,1583585647,스타벅스 미아뉴타운점,서울 강북구 미아동 812-2,서울 강북구 삼양로 161,,카페,음식점 > 카페 > 커피전문점 > 스타벅스,http://place.map.kakao.com/1583585647,스타벅스 미아뉴타운점,https://m.place.naver.com/restaurant/38654635
379,19,104030976,숲속앵두나무카페,서울 강북구 번동 526-83,서울 강북구 덕릉로40다길 33-38,02-773-2517,카페,음식점 > 카페 > 테마카페 > 애견카페,http://place.map.kakao.com/104030976,숲속앵두나무카페,https://m.place.naver.com/restaurant/1255407274
380,20,856213664,다정도병인양,서울 강북구 수유동 567-6,서울 강북구 4.19로 41-1,02-990-4190,카페,음식점 > 카페 > 전통찻집,http://place.map.kakao.com/856213664,다정도병인양,https://m.place.naver.com/restaurant/38419102
381,21,12108082,전광수커피하우스 북한산점,서울 강북구 수유동 535-76,서울 강북구 4.19로 97,02-991-0233,카페,음식점 > 카페 > 커피전문점,http://place.map.kakao.com/12108082,전광수커피하우스 북한산점,https://m.place.naver.com/restaurant/13485883
382,22,647290928,스타벅스 파라스파라서울점,서울 강북구 우이동 산 13-2,서울 강북구 삼양로 689,1522-3232,카페,음식점 > 카페 > 커피전문점 > 스타벅스,http://place.map.kakao.com/647290928,스타벅스 파라스파라서울점,https://m.place.naver.com/restaurant/1126391870
383,23,198411926,수유리조트,서울 강북구 수유동 221-18,서울 강북구 노해로8가길 45,02-990-9882,카페,음식점 > 카페,http://place.map.kakao.com/198411926,수유리조트,https://m.place.naver.com/restaurant/21082552
384,24,428271652,카페비르케,서울 강북구 수유동 567-7,서울 강북구 4.19로 43,02-997-5841,카페,음식점 > 카페 > 커피전문점,http://place.map.kakao.com/428271652,카페비르케,https://m.place.naver.com/restaurant/1328305894
385,25,714285841,투썸플레이스 수유사거리점,서울 강북구 수유동 47-2,서울 강북구 도봉로 295,02-900-2388,카페,음식점 > 카페 > 커피전문점 > 투썸플레이스,http://place.map.kakao.com/714285841,투썸플레이스 수유사거리점,https://m.place.naver.com/restaurant/1083036053
386,26,23885367,삼양여관,서울 강북구 수유동 461-35,서울 강북구 덕릉로8길 6,010-7907-1296,카페,음식점 > 카페 > 커피전문점,http://place.map.kakao.com/23885367,삼양여관,https://m.place.naver.com/restaurant/1219037492
387,27,1386475413,키쉬미뇽,서울 강북구 미아동 55-25,서울 강북구 도봉로10길 12,02-987-5553,카페,음식점 > 카페,http://place.map.kakao.com/1386475413,키쉬미뇽,https://m.place.naver.com/restaurant/1299351750
388,28,1171264693,월드보드카페,서울 강북구 수유동 229-33,서울 강북구 도봉로87길 9,02-6959-3213,카페,음식점 > 카페 > 테마카페 > 보드카페,http://place.map.kakao.com/1171264693,월드보드카페,https://m.place.naver.com/restaurant/38019562
389,29,17884745,스타벅스 미아역점,서울 강북구 미아동 121-19,서울 강북구 도봉로 196,1522-3232,카페,음식점 > 카페 > 커피전문점 > 스타벅스,http://place.map.kakao.com/17884745,스타벅스 미아역점,https://m.place.naver.com/restaurant/31317363
391,31,20007815,엔제리너스 수유역점,서울 강북구 수유동 229-5,서울 강북구 도봉로 333,02-994-8556,카페,음식점 > 카페 > 커피전문점 > 엔제리너스,http://place.map.kakao.com/20007815,엔제리너스 수유역점,https://m.place.naver.com/restaurant/33252435
392,32,987554111,할리스 수유사거리점,서울 강북구 번동 446-7,서울 강북구 도봉로82길 11,070-5226-1999,카페,음식점 > 카페 > 커피전문점 > 할리스,http://place.map.kakao.com/987554111,할리스 수유사거리점,https://m.place.naver.com/restaurant/1216645200
393,33,1363689657,아띠랑스,서울 강북구 수유동 568-19,서울 강북구 4.19로 42-1,,카페,음식점 > 카페 > 테마카페 > 디저트카페,http://place.map.kakao.com/1363689657,아띠랑스,https://m.place.naver.com/restaurant/1088310618
394,34,26909639,투썸플레이스 미아테라스파크점,서울 강북구 미아동 811-9,서울 강북구 삼양로27길 43,02-985-2355,카페,음식점 > 카페 > 커피전문점 > 투썸플레이스,http://place.map.kakao.com/26909639,투썸플레이스 미아테라스파크점,https://m.place.naver.com/restaurant/37387456
395,35,1575543638,카페문나잇,서울 강북구 미아동 121-47,서울 강북구 솔매로50길 7,070-4046-0915,카페,음식점 > 카페,http://place.map.kakao.com/1575543638,카페문나잇,https://m.place.naver.com/restaurant/1328475052
396,36,1477182775,리틀비틀 수유점,서울 강북구 수유동 188-26,서울 강북구 노해로 70,02-991-0664,카페,음식점 > 카페 > 테마카페 > 키즈카페,http://place.map.kakao.com/1477182775,리틀비틀 수유점,https://m.place.naver.com/restaurant/575641891
397,37,1447421184,키치,서울 강북구 수유동 173-15,서울 강북구 도봉로 387,070-8244-0030,카페,음식점 > 카페,http://place.map.kakao.com/1447421184,키치,https://m.place.naver.com/restaurant/1335827796
398,38,1542847364,투썸플레이스 북한산우이역점,서울 강북구 우이동 4-1,서울 강북구 삼양로 685,02-993-9173,카페,음식점 > 카페 > 커피전문점 > 투썸플레이스,http://place.map.kakao.com/1542847364,투썸플레이스 북한산우이역점,https://m.place.naver.com/restaurant/1386108098
399,39,1199751265,카페다담,서울 강북구 수유동 48-73,서울 강북구 덕릉로 64,010-9476-2098,카페,음식점 > 카페 > 테마카페 > 디저트카페,http://place.map.kakao.com/1199751265,카페다담,https://m.place.naver.com/restaurant/1839820425
400,40,1154248983,카페백야,서울 강북구 수유동 251-10,서울 강북구 노해로21길 7,,카페,음식점 > 카페,http://place.map.kakao.com/1154248983,카페백야,https://m.place.naver.com/restaurant/1233968551
401,41,1653778865,스파웃커피,서울 강북구 수유동 659-32,서울 강북구 노해로33길 49,,카페,음식점 > 카페,http://place.map.kakao.com/1653778865,스파웃커피,https://m.place.naver.com/restaurant/1175587007
403,43,1931876722,투썸플레이스 북서울꿈의숲점,서울 강북구 번동 105-1,서울 강북구 월계로 183,02-542-7711,카페,음식점 > 카페 > 커피전문점 > 투썸플레이스,http://place.map.kakao.com/1931876722,투썸플레이스 북서울꿈의숲점,https://m.place.naver.com/restaurant/958070875
404,44,1577225420,수유342,서울 강북구 수유동 342-2,서울 강북구 삼양로113길 17,02-908-3422,카페,음식점 > 카페,http://place.map.kakao.com/1577225420,수유342,https://m.place.naver.com/restaurant/1026041084
405,0,1553976296,도봉관,서울 도봉구 창동 700-27,서울 도봉구 노해로 261,,카페,음식점 > 카페 > 테마카페 > 디저트카페,http://place.map.kakao.com/1553976296,도봉관,https://m.place.naver.com/restaurant/1517232276
406,1,24695495,카페오븐,서울 도봉구 창동 813,서울 도봉구 해등로16길 12,02-3141-0089,카페,음식점 > 카페 > 커피전문점,http://place.map.kakao.com/24695495,카페오븐,https://m.place.naver.com/restaurant/11820496
407,2,2113410227,카페작약,서울 도봉구 창동 659-1,서울 도봉구 도봉로118길 10,070-7740-0259,카페,음식점 > 카페 > 테마카페 > 디저트카페,http://place.map.kakao.com/2113410227,카페작약,https://m.place.naver.com/restaurant/1183773905
408,3,27393895,와겐커피 방학점,서울 도봉구 방학동 716-14,서울 도봉구 도봉로150마길 15,02-2277-3001,카페,음식점 > 카페 > 커피전문점,http://place.map.kakao.com/27393895,와겐커피 방학점,https://m.place.naver.com/restaurant/37263988
409,4,1789979058,몽상가 크레이프전문점,서울 도봉구 방학동 675-33,서울 도봉구 도봉로143길 30,02-0202-0202,카페,음식점 > 카페 > 테마카페 > 디저트카페,http://place.map.kakao.com/1789979058,몽상가 크레이프전문점,https://m.place.naver.com/restaurant/1684726047
410,5,635306818,꿀소담,서울 도봉구 창동 269-4,서울 도봉구 해등로16길 67,,카페,음식점 > 카페,http://place.map.kakao.com/635306818,꿀소담,https://m.place.naver.com/restaurant/1519339864
411,6,27440655,쌍문동커피,서울 도봉구 창동 658-49,서울 도봉구 도봉로116길 5,,카페,음식점 > 카페 > 커피전문점,http://place.map.kakao.com/27440655,쌍문동커피,https://m.place.naver.com/restaurant/37488823
412,7,462897050,카페그리너리티,서울 도봉구 창동 667-5,서울 도봉구 노해로62길 80,010-2514-6469,카페,음식점 > 카페,http://place.map.kakao.com/462897050,카페그리너리티,https://m.place.naver.com/restaurant/1778983053
413,8,1985501177,카페152길,서울 도봉구 도봉동 622-64,서울 도봉구 도봉로152길 29-3,02-954-1520,카페,음식점 > 카페 > 테마카페 > 디저트카페,http://place.map.kakao.com/1985501177,카페152길,https://m.place.naver.com/restaurant/38554969
414,9,19530655,산과산사이커피로드,서울 도봉구 도봉동 44-5,서울 도봉구 도봉로180가길 96,070-4177-8197,카페,음식점 > 카페,http://place.map.kakao.com/19530655,산과산사이커피로드,https://m.place.naver.com/restaurant/32323309
415,10,119532698,카페방학,서울 도봉구 방학동 264-46,서울 도봉구 도당로6길 30-6,070-4117-9055,카페,음식점 > 카페 > 커피전문점,http://place.map.kakao.com/119532698,카페방학,https://m.place.naver.com/restaurant/1872941811
416,11,447862448,카페더로비,서울 도봉구 방학동 670-1,서울 도봉구 방학로 171-5,02-954-1715,카페,음식점 > 카페,http://place.map.kakao.com/447862448,카페더로비,https://m.place.naver.com/restaurant/1243050861
417,12,22547060,스타벅스 쌍문역점,서울 도봉구 창동 659-5,서울 도봉구 도봉로 480,1522-3232,카페,음식점 > 카페 > 커피전문점 > 스타벅스,http://place.map.kakao.com/22547060,스타벅스 쌍문역점,https://m.place.naver.com/restaurant/33941271
418,13,1336295111,매일이기념일,서울 도봉구 쌍문동 103-30,서울 도봉구 우이천로24길 69,010-9013-7962,카페,음식점 > 카페,http://place.map.kakao.com/1336295111,매일이기념일,https://m.place.naver.com/restaurant/1162670905
419,14,2002605651,도봉산커피,서울 도봉구 도봉동 282-316,서울 도봉구 도봉산4가길 4,010-9945-7145,카페,음식점 > 카페 > 커피전문점,http://place.map.kakao.com/2002605651,도봉산커피,https://m.place.naver.com/restaurant/1180879761
420,15,1757795758,세라젬웰카페 서울쌍문직영점,서울 도봉구 쌍문동 656,서울 도봉구 도봉로 571,02-6949-5325,카페,음식점 > 카페 > 테마카페,http://place.map.kakao.com/1757795758,세라젬웰카페 서울쌍문직영점,https://m.place.naver.com/restaurant/1792895124
421,16,1246426011,로로옴,서울 도봉구 도봉동 92-71,서울 도봉구 도봉로152가길 152,02-6091-8800,카페,음식점 > 카페,http://place.map.kakao.com/1246426011,로로옴,https://m.place.naver.com/restaurant/1346392978
422,17,2084988667,키웨스트 연산군묘점,서울 도봉구 방학동 584,서울 도봉구 방학로17길 85,,카페,음식점 > 카페,http://place.map.kakao.com/2084988667,키웨스트 연산군묘점,https://m.place.naver.com/restaurant/1071899382
423,18,697641350,스타벅스 창동이마트점,서울 도봉구 창동 75-3,서울 도봉구 노해로65길 4,1522-3232,카페,음식점 > 카페 > 커피전문점 > 스타벅스,http://place.map.kakao.com/697641350,스타벅스 창동이마트점,https://m.place.naver.com/restaurant/1330465501
424,19,519080844,스타벅스 쌍문도봉로점,서울 도봉구 창동 650-45,서울 도봉구 도봉로 444,,카페,음식점 > 카페 > 커피전문점 > 스타벅스,http://place.map.kakao.com/519080844,스타벅스 쌍문도봉로점,https://m.place.naver.com/restaurant/1133583874
425,20,38242363,디아망 강북본점,서울 도봉구 쌍문동 653,서울 도봉구 도봉로 575,02-997-0210,카페,음식점 > 카페 > 테마카페 > 키즈카페,http://place.map.kakao.com/38242363,디아망 강북본점,https://m.place.naver.com/restaurant/508173926
426,21,1340630386,스타벅스 방학역점,서울 도봉구 방학동 707-6,서울 도봉구 도봉로 684,1522-3232,카페,음식점 > 카페 > 커피전문점 > 스타벅스,http://place.map.kakao.com/1340630386,스타벅스 방학역점,https://m.place.naver.com/restaurant/1207341843
427,22,1087965647,온도감,서울 도봉구 방학동 695,서울 도봉구 도당로 66-1,,카페,음식점 > 카페,http://place.map.kakao.com/1087965647,온도감,https://m.place.naver.com/restaurant/1057402778
428,23,20937361,모래스푼,서울 도봉구 쌍문동 311,서울 도봉구 시루봉로 2,02-996-5252,카페,음식점 > 카페 > 테마카페 > 키즈카페,http://place.map.kakao.com/20937361,모래스푼,https://m.place.naver.com/restaurant/31906060
429,24,1668192705,카페7179,서울 도봉구 창동 676-77,서울 도봉구 도봉로110길 97,010-9870-9717,카페,음식점 > 카페 > 테마카페 > 디저트카페,http://place.map.kakao.com/1668192705,카페7179,https://m.place.naver.com/restaurant/1024537439
430,25,21544366,투썸플레이스 창동역점,서울 도봉구 창동 9-2,서울 도봉구 노해로 381,02-994-2388,카페,음식점 > 카페 > 커피전문점 > 투썸플레이스,http://place.map.kakao.com/21544366,투썸플레이스 창동역점,https://m.place.naver.com/restaurant/33028112
433,28,779650889,카페에덴,서울 도봉구 방학동 596-1,서울 도봉구 방학로 306,02-3491-3331,카페,음식점 > 카페 > 커피전문점,http://place.map.kakao.com/779650889,카페에덴,https://m.place.naver.com/restaurant/1769606064
434,29,21927608,만남의광장,서울 도봉구 도봉동 288-20,,02-956-4545,카페,음식점 > 카페,http://place.map.kakao.com/21927608,만남의광장,https://m.place.naver.com/restaurant/20662279
435,30,17736089,투썸플레이스 쌍문역점,서울 도봉구 쌍문동 96-4,서울 도봉구 도봉로 461,02-998-2377,카페,음식점 > 카페 > 커피전문점 > 투썸플레이스,http://place.map.kakao.com/17736089,투썸플레이스 쌍문역점,https://m.place.naver.com/restaurant/31317366
436,31,25531123,설빙 쌍문점,서울 도봉구 창동 655-11,서울 도봉구 도봉로 460,02-991-0077,카페,음식점 > 카페 > 테마카페 > 디저트카페 > 설빙,http://place.map.kakao.com/25531123,설빙 쌍문점,https://m.place.naver.com/restaurant/35413568
437,32,861389811,투썸플레이스 방학역점,서울 도봉구 방학동 706-9,서울 도봉구 도봉로 696,02-954-7799,카페,음식점 > 카페 > 커피전문점 > 투썸플레이스,http://place.map.kakao.com/861389811,투썸플레이스 방학역점,https://m.place.naver.com/restaurant/38556127
438,33,21605277,투썸플레이스 도봉보건소점,서울 도봉구 창동 715-1,서울 도봉구 도봉로 578,,카페,음식점 > 카페 > 커피전문점 > 투썸플레이스,http://place.map.kakao.com/21605277,투썸플레이스 도봉보건소점,https://m.place.naver.com/restaurant/33703661
439,34,1915489402,디저트도본,서울 도봉구 쌍문동 103-159,서울 도봉구 우이천로 288-3,070-7543-3557,카페,음식점 > 카페 > 테마카페 > 디저트카페,http://place.map.kakao.com/1915489402,디저트도본,https://m.place.naver.com/restaurant/1971164259
440,35,346649554,투썸플레이스 쌍문중앙점,서울 도봉구 창동 659-4,서울 도봉구 도봉로 482,02-991-2377,카페,음식점 > 카페 > 커피전문점 > 투썸플레이스,http://place.map.kakao.com/346649554,투썸플레이스 쌍문중앙점,https://m.place.naver.com/restaurant/905071937
441,36,27347024,카미노커피로스터스,서울 도봉구 방학동 671-18,서울 도봉구 도당로 46,,카페,음식점 > 카페,http://place.map.kakao.com/27347024,카미노커피로스터스,https://m.place.naver.com/restaurant/1654640336
442,37,945235417,키블리 창동점,서울 도봉구 창동 826,서울 도봉구 도봉로136가길 73,02-905-2484,카페,음식점 > 카페 > 테마카페 > 키즈카페,http://place.map.kakao.com/945235417,키블리 창동점,https://m.place.naver.com/restaurant/596750301
443,38,609301855,카페푸쿠푸쿠,서울 도봉구 쌍문동 309-21,서울 도봉구 노해로45길 17,0507-1303-5711,카페,음식점 > 카페 > 커피전문점,http://place.map.kakao.com/609301855,카페푸쿠푸쿠,https://m.place.naver.com/restaurant/1758862023
444,39,2025938087,키즈팡팡 쌍문점,서울 도봉구 쌍문동 358,서울 도봉구 우이천로32길 38,02-904-3210,카페,음식점 > 카페 > 테마카페 > 키즈카페,http://place.map.kakao.com/2025938087,키즈팡팡 쌍문점,https://m.place.naver.com/restaurant/1326413351
445,40,933788438,무수울카페,서울 도봉구 도봉동 435-18,서울 도봉구 도봉로173길 124,,카페,음식점 > 카페,http://place.map.kakao.com/933788438,무수울카페,https://m.place.naver.com/restaurant/1305036004
446,41,4013599,커피스미스 도봉역점,서울 도봉구 도봉동 92-55,서울 도봉구 도봉로152가길 176,02-948-6900,카페,음식점 > 카페 > 커피전문점,http://place.map.kakao.com/4013599,커피스미스 도봉역점,https://m.place.naver.com/restaurant/1157535416
447,42,27575377,창포원북카페 비상,서울 도봉구 도봉동 4-1,서울 도봉구 마들로 916,02-954-5254,카페,음식점 > 카페 > 테마카페 > 북카페,http://place.map.kakao.com/27575377,창포원북카페 비상,https://m.place.naver.com/restaurant/1219655154
448,43,122599399,카페고르,서울 도봉구 창동 651-31,서울 도봉구 도봉로112길 38,,카페,음식점 > 카페,http://place.map.kakao.com/122599399,카페고르,https://m.place.naver.com/restaurant/1539086082
449,44,1762898207,마이림,서울 도봉구 쌍문동 449-7,서울 도봉구 우이천로34길 13,,카페,음식점 > 카페 > 테마카페 > 디저트카페,http://place.map.kakao.com/1762898207,마이림,https://m.place.naver.com/restaurant/1081092567
450,0,872257394,라라브레드 공릉점,서울 노원구 공릉동 350-24,서울 노원구 공릉로41길 32,1800-2790,카페,음식점 > 카페 > 테마카페 > 디저트카페,http://place.map.kakao.com/872257394,라라브레드 공릉점,https://m.place.naver.com/restaurant/1062761073
451,1,586007148,감각,서울 노원구 상계동 337,서울 노원구 상계로 77,070-7576-4177,카페,음식점 > 카페,http://place.map.kakao.com/586007148,감각,https://m.place.naver.com/restaurant/1794396162
452,2,19696160,시드누아 노원본점,서울 노원구 상계동 341-5,서울 노원구 상계로 84,02-938-9559,카페,음식점 > 카페,http://place.map.kakao.com/19696160,시드누아 노원본점,https://m.place.naver.com/restaurant/38019327
453,3,1571140539,상상과자점,서울 노원구 공릉동 504-15,서울 노원구 동일로186길 77-7,02-977-8838,카페,음식점 > 카페 > 테마카페 > 디저트카페,http://place.map.kakao.com/1571140539,상상과자점,https://m.place.naver.com/restaurant/1785766103
454,4,153487369,표준커피,서울 노원구 공릉동 589-21,서울 노원구 공릉로 119-5,0507-1314-7603,카페,음식점 > 카페,http://place.map.kakao.com/153487369,표준커피,https://m.place.naver.com/restaurant/1438557498
455,5,990866386,카페드미셸,서울 노원구 공릉동 670-25,서울 노원구 화랑로 441,02-971-1100,카페,음식점 > 카페,http://place.map.kakao.com/990866386,카페드미셸,https://m.place.naver.com/restaurant/1249840902
456,6,985778800,시즌,서울 노원구 상계동 358-6,서울 노원구 상계로3길 38-2,,카페,음식점 > 카페 > 테마카페 > 디저트카페,http://place.map.kakao.com/985778800,시즌,https://m.place.naver.com/restaurant/1792785194
457,7,1488538685,샛별제과,서울 노원구 상계동 397-4,서울 노원구 상계로9길 23,,카페,음식점 > 카페 > 테마카페 > 디저트카페,http://place.map.kakao.com/1488538685,샛별제과,https://m.place.naver.com/restaurant/750402764
458,8,1826125340,스타벅스 공릉DT점,서울 노원구 공릉동 597-34,서울 노원구 동일로 1015,1522-3232,카페,음식점 > 카페 > 커피전문점 > 스타벅스,http://place.map.kakao.com/1826125340,스타벅스 공릉DT점,https://m.place.naver.com/restaurant/1954026333
459,9,1520080778,던모스,서울 노원구 공릉동 320-107,서울 노원구 공릉로27길 8,010-3244-5044,카페,음식점 > 카페 > 테마카페 > 디저트카페,http://place.map.kakao.com/1520080778,던모스,https://m.place.naver.com/restaurant/1296655542
460,10,17688746,커피베스코,서울 노원구 상계동 693-3,서울 노원구 상계로 55,,카페,음식점 > 카페 > 커피전문점,http://place.map.kakao.com/17688746,커피베스코,https://m.place.naver.com/restaurant/31394989
461,11,818423534,따미커피,서울 노원구 공릉동 644-24,서울 노원구 공릉로 120,070-7793-1201,카페,음식점 > 카페 > 커피전문점,http://place.map.kakao.com/818423534,따미커피,https://m.place.naver.com/restaurant/402684515
462,12,231176219,스윗레시피,서울 노원구 상계동 591-25,서울 노원구 상계로1길 38,02-6494-1004,카페,음식점 > 카페 > 테마카페 > 디저트카페,http://place.map.kakao.com/231176219,스윗레시피,https://m.place.naver.com/restaurant/37798087
463,13,104777847,아너카페,서울 노원구 공릉동 389-12,서울 노원구 동일로192다길 9,,카페,음식점 > 카페,http://place.map.kakao.com/104777847,아너카페,https://m.place.naver.com/restaurant/1506082849
464,14,19469879,스타벅스 노원역점,서울 노원구 상계동 712,서울 노원구 동일로 1413,1522-3232,카페,음식점 > 카페 > 커피전문점 > 스타벅스,http://place.map.kakao.com/19469879,스타벅스 노원역점,https://m.place.naver.com/restaurant/31874980
465,15,206091656,위플랜트위커피,서울 노원구 공릉동 587-1,서울 노원구 동일로178길 59-39,,카페,음식점 > 카페 > 커피전문점,http://place.map.kakao.com/206091656,위플랜트위커피,https://m.place.naver.com/restaurant/1919675345
466,16,1800821127,스타벅스 상계초교사거리점,서울 노원구 상계동 372-16,서울 노원구 노원로 449,1522-3232,카페,음식점 > 카페 > 커피전문점 > 스타벅스,http://place.map.kakao.com/1800821127,스타벅스 상계초교사거리점,https://m.place.naver.com/restaurant/1281930498
467,17,1338966452,무드쉐어,서울 노원구 공릉동 589-16,서울 노원구 공릉로 119-23,070-8286-6626,카페,음식점 > 카페,http://place.map.kakao.com/1338966452,무드쉐어,https://m.place.naver.com/restaurant/1661375727
468,18,2080972721,스타벅스 노원마들역점,서울 노원구 상계동 694,서울 노원구 노원로 569,1522-3232,카페,음식점 > 카페 > 커피전문점 > 스타벅스,http://place.map.kakao.com/2080972721,스타벅스 노원마들역점,https://m.place.naver.com/restaurant/1136232147
469,19,799469641,스타벅스 공릉역,서울 노원구 공릉동 379-27,서울 노원구 동일로 1081,1522-3232,카페,음식점 > 카페 > 커피전문점 > 스타벅스,http://place.map.kakao.com/799469641,스타벅스 공릉역,https://m.place.naver.com/restaurant/160721567
470,20,1161456883,더메이즈 노원점,서울 노원구 상계동 357-8,서울 노원구 상계로5길 26,02-6012-2620,카페,음식점 > 카페 > 테마카페,http://place.map.kakao.com/1161456883,더메이즈 노원점,https://m.place.naver.com/restaurant/41395678
471,21,1513264138,몽실디저트,서울 노원구 상계동 693-1,서울 노원구 상계로 51,010-3072-9855,카페,음식점 > 카페 > 테마카페 > 디저트카페,http://place.map.kakao.com/1513264138,몽실디저트,https://m.place.naver.com/restaurant/1885927579
472,22,82447262,오피셜커피,서울 노원구 공릉동 506-34,서울 노원구 동일로184길 69-7,,카페,음식점 > 카페,http://place.map.kakao.com/82447262,오피셜커피,https://m.place.naver.com/restaurant/1008011249
473,23,20046343,스타벅스 중계역점,서울 노원구 상계동 763-3,서울 노원구 동일로 1339,1522-3232,카페,음식점 > 카페 > 커피전문점 > 스타벅스,http://place.map.kakao.com/20046343,스타벅스 중계역점,https://m.place.naver.com/restaurant/33021705
474,24,17757837,투썸플레이스 노원문화의거리점,서울 노원구 상계동 593-14,서울 노원구 상계로 69,02-935-2388,카페,음식점 > 카페 > 커피전문점 > 투썸플레이스,http://place.map.kakao.com/17757837,투썸플레이스 노원문화의거리점,https://m.place.naver.com/restaurant/1674728532
475,25,27583400,502세컨즈카페 노원점,서울 노원구 하계동 270,서울 노원구 섬밭로 232,070-4465-7996,카페,음식점 > 카페,http://place.map.kakao.com/27583400,502세컨즈카페 노원점,https://m.place.naver.com/restaurant/38008870
476,26,394316415,파브커피,서울 노원구 공릉동 506-29,서울 노원구 동일로186길 76,,카페,음식점 > 카페,http://place.map.kakao.com/394316415,파브커피,https://m.place.naver.com/restaurant/1206035483
477,27,216150274,오누이,서울 노원구 공릉동 400-17,서울 노원구 동일로187길 12-47,,카페,음식점 > 카페,http://place.map.kakao.com/216150274,오누이,https://m.place.naver.com/restaurant/37873802
478,28,18691127,스타벅스 노원KT점,서울 노원구 상계동 723,서울 노원구 노해로 502,1522-3232,카페,음식점 > 카페 > 커피전문점 > 스타벅스,http://place.map.kakao.com/18691127,스타벅스 노원KT점,https://m.place.naver.com/restaurant/30847386
479,29,1454424295,블루마일스커피로스터즈,서울 노원구 공릉동 392-21,서울 노원구 동일로190길 65,02-979-1003,카페,음식점 > 카페 > 커피전문점,http://place.map.kakao.com/1454424295,블루마일스커피로스터즈,https://m.place.naver.com/restaurant/1505598385
480,30,1840820291,미라쥬양과점,서울 노원구 공릉동 362-12,서울 노원구 동일로196길 15,010-2006-9433,카페,음식점 > 카페 > 테마카페 > 디저트카페,http://place.map.kakao.com/1840820291,미라쥬양과점,https://m.place.naver.com/restaurant/1212071877
481,31,944088477,스타벅스 태릉입구역DT,서울 노원구 공릉동 653-8,서울 노원구 화랑로 469,,카페,음식점 > 카페 > 커피전문점 > 스타벅스,http://place.map.kakao.com/944088477,스타벅스 태릉입구역DT,https://m.place.naver.com/restaurant/1221245848
482,32,18039621,커피콩,서울 노원구 공릉동 380-51,서울 노원구 동일로191가길 19,02-977-6164,카페,음식점 > 카페 > 커피전문점,http://place.map.kakao.com/18039621,커피콩,https://m.place.naver.com/restaurant/31744094
483,33,101891212,플로레스테이블,서울 노원구 상계동 1305,서울 노원구 상계로5길 12,02-931-9312,카페,음식점 > 카페 > 테마카페 > 디저트카페,http://place.map.kakao.com/101891212,플로레스테이블,https://m.place.naver.com/restaurant/1246737404
484,34,27229512,에슬로우커피 공릉점,서울 노원구 공릉동 90-4,서울 노원구 노원로 3,02-949-4542,카페,음식점 > 카페 > 커피전문점,http://place.map.kakao.com/27229512,에슬로우커피 공릉점,https://m.place.naver.com/restaurant/36690538
485,35,1321281310,커피빈 노원역점,서울 노원구 상계동 724-1,서울 노원구 노해로 490,02-952-9577,카페,음식점 > 카페 > 커피전문점 > 커피빈,http://place.map.kakao.com/1321281310,커피빈 노원역점,https://m.place.naver.com/restaurant/824133843
486,36,1927286862,디저트식탁,서울 노원구 상계동 602-8,서울 노원구 상계로1길 14-29,02-930-3313,카페,음식점 > 카페 > 테마카페 > 디저트카페,http://place.map.kakao.com/1927286862,디저트식탁,https://m.place.naver.com/restaurant/1679615419
487,37,1910112179,이너모스트,서울 노원구 공릉동 494-4,서울 노원구 동일로183길 12-14,,카페,음식점 > 카페,http://place.map.kakao.com/1910112179,이너모스트,https://m.place.naver.com/restaurant/1906556394
488,38,975733166,플랫커피,서울 노원구 공릉동 349-8,서울 노원구 공릉로39길 20,070-8614-8747,카페,음식점 > 카페 > 커피전문점,http://place.map.kakao.com/975733166,플랫커피,https://m.place.naver.com/restaurant/1467633478
489,39,1366601562,비엔나커피하우스 노원역점,서울 노원구 상계동 711-13,서울 노원구 동일로 1417,02-932-1683,카페,음식점 > 카페 > 커피전문점,http://place.map.kakao.com/1366601562,비엔나커피하우스 노원역점,https://m.place.naver.com/restaurant/1876710934
490,40,485967615,1일1잔,서울 노원구 월계동 472-45,서울 노원구 광운로2길 6,02-941-8911,카페,음식점 > 카페 > 테마카페 > 디저트카페,http://place.map.kakao.com/485967615,1일1잔,https://m.place.naver.com/restaurant/983551547
491,41,10538293,스타벅스 은행사거리점,서울 노원구 중계동 360-6,서울 노원구 중계로 217,,카페,음식점 > 카페 > 커피전문점 > 스타벅스,http://place.map.kakao.com/10538293,스타벅스 은행사거리점,https://m.place.naver.com/restaurant/12947636
492,42,1764989514,르다,서울 노원구 상계동 396-6,서울 노원구 상계로9길 28,02-938-5599,카페,음식점 > 카페,http://place.map.kakao.com/1764989514,르다,https://m.place.naver.com/restaurant/1390451279
493,43,26927344,에이치큐브,서울 노원구 공릉동 240-243,서울 노원구 노원로1길 73-12,,카페,음식점 > 카페,http://place.map.kakao.com/26927344,에이치큐브,https://m.place.naver.com/restaurant/36992681
494,44,1619812580,카페기차가있는풍경,서울 노원구 공릉동 29-4,서울 노원구 화랑로 608,02-2116-4398,카페,음식점 > 카페,http://place.map.kakao.com/1619812580,카페기차가있는풍경,https://m.place.naver.com/restaurant/1553166824
495,0,670102239,1인1잔,서울 은평구 진관동 219,서울 은평구 연서로 534,02-355-1111,카페,음식점 > 카페,http://place.map.kakao.com/670102239,1인1잔,https://m.place.naver.com/restaurant/1101064446
496,1,566932126,카페뤽상부르,서울 은평구 갈현동 481-13,서울 은평구 연서로25길 6-11,02-385-2846,카페,음식점 > 카페 > 커피전문점,http://place.map.kakao.com/566932126,카페뤽상부르,https://m.place.naver.com/restaurant/343562993
497,2,841369143,근린커피,서울 은평구 응암동 579-33,서울 은평구 응암로21길 23,070-7715-5300,카페,음식점 > 카페,http://place.map.kakao.com/841369143,근린커피,https://m.place.naver.com/restaurant/1907911493
498,3,514604405,롱브레드 은평한옥마을점,서울 은평구 진관동 219-2,서울 은평구 연서로 530,02-352-7290,카페,음식점 > 카페 > 테마카페,http://place.map.kakao.com/514604405,롱브레드 은평한옥마을점,https://m.place.naver.com/restaurant/1660680786
499,4,1994915181,YM커피프로젝트,서울 은평구 갈현동 452-26,서울 은평구 연서로29길 21-8,070-7767-0829,카페,음식점 > 카페 > 커피전문점,http://place.map.kakao.com/1994915181,YM커피프로젝트,https://m.place.naver.com/restaurant/37064850
500,5,428776706,플로,서울 은평구 녹번동 82-41,서울 은평구 서오릉로 20-1,02-355-4862,카페,음식점 > 카페,http://place.map.kakao.com/428776706,플로,https://m.place.naver.com/restaurant/34329204
501,6,1059714707,휴가,서울 은평구 진관동 74,서울 은평구 진관2로 19,02-352-7400,카페,음식점 > 카페 > 커피전문점,http://place.map.kakao.com/1059714707,휴가,https://m.place.naver.com/restaurant/1900462991
502,7,1333160596,카페볼가심,서울 은평구 진관동 198-7,서울 은평구 진관길 10,,카페,음식점 > 카페,http://place.map.kakao.com/1333160596,카페볼가심,https://m.place.naver.com/restaurant/1454058197
503,8,862753029,213점,서울 은평구 응암동 120-39,서울 은평구 응암로21가길 27,02-356-7312,카페,음식점 > 카페,http://place.map.kakao.com/862753029,213점,https://m.place.naver.com/restaurant/1384967865
504,9,1460285187,북한산큰숲제빵소,서울 은평구 진관동 296-12,서울 은평구 북한산로 271-3,02-2267-9001,카페,음식점 > 카페,http://place.map.kakao.com/1460285187,북한산큰숲제빵소,https://m.place.naver.com/restaurant/1446678987
505,10,1532325160,플럽커피,서울 은평구 갈현동 456-12,서울 은평구 연서로29길 7-11,,카페,음식점 > 카페,http://place.map.kakao.com/1532325160,플럽커피,https://m.place.naver.com/restaurant/1400797896
506,11,24765609,스타벅스 은평구청입구점,서울 은평구 응암동 96-1,서울 은평구 은평로 170,1522-3232,카페,음식점 > 카페 > 커피전문점 > 스타벅스,http://place.map.kakao.com/24765609,스타벅스 은평구청입구점,https://m.place.naver.com/restaurant/34984392
507,12,1722687087,823m,서울 은평구 갈현동 453-22,서울 은평구 연서로29길 21-9,02-2088-1823,카페,음식점 > 카페 > 테마카페 > 디저트카페,http://place.map.kakao.com/1722687087,823m,https://m.place.naver.com/restaurant/1066669787
508,13,293547899,선과점,서울 은평구 역촌동 191-2,서울 은평구 갈현로7가길 11,,카페,음식점 > 카페,http://place.map.kakao.com/293547899,선과점,https://m.place.naver.com/restaurant/1163476271
509,14,356891147,카페미제,서울 은평구 역촌동 83-39,서울 은평구 연서로 19,,카페,음식점 > 카페 > 테마카페,http://place.map.kakao.com/356891147,카페미제,https://m.place.naver.com/restaurant/1047657297
510,15,1484410257,스타벅스 불광역점,서울 은평구 대조동 15-9,서울 은평구 통일로 715,1522-3232,카페,음식점 > 카페 > 커피전문점 > 스타벅스,http://place.map.kakao.com/1484410257,스타벅스 불광역점,https://m.place.naver.com/restaurant/1997786762
511,16,27294965,도토리카페,서울 은평구 진관동 279-36,서울 은평구 대서문길 15-5,02-385-4949,카페,음식점 > 카페,http://place.map.kakao.com/27294965,도토리카페,https://m.place.naver.com/restaurant/1248398289
512,17,38547227,온도차,서울 은평구 녹번동 117-64,서울 은평구 녹번로 74,070-8861-6622,카페,음식점 > 카페,http://place.map.kakao.com/38547227,온도차,https://m.place.naver.com/restaurant/1631467594
513,18,690365890,알키미스타,서울 은평구 응암동 592-61,서울 은평구 응암로9길 24,02-6104-5803,카페,음식점 > 카페 > 테마카페 > 북카페,http://place.map.kakao.com/690365890,알키미스타,https://m.place.naver.com/restaurant/38751800
514,19,2143276770,해례커피,서울 은평구 갈현동 430-1,서울 은평구 통일로83길 19,,카페,음식점 > 카페 > 커피전문점,http://place.map.kakao.com/2143276770,해례커피,https://m.place.naver.com/restaurant/1974427706
515,20,158505473,카페아사,서울 은평구 응암동 591-19,서울 은평구 불광천길 338,070-4950-2577,카페,음식점 > 카페,http://place.map.kakao.com/158505473,카페아사,https://m.place.naver.com/restaurant/265276088
516,21,1034381485,볼베어파크 은평점,서울 은평구 진관동 67-31,서울 은평구 통일로 1050,02-6975-5363,카페,음식점 > 카페 > 테마카페 > 키즈카페,http://place.map.kakao.com/1034381485,볼베어파크 은평점,https://m.place.naver.com/restaurant/1442137164
517,22,1200602899,명금탕,서울 은평구 진관동 205-6,서울 은평구 진관길 5,02-739-0394,카페,음식점 > 카페 > 전통찻집,http://place.map.kakao.com/1200602899,명금탕,https://m.place.naver.com/restaurant/13150906
518,23,26900385,스타벅스 구파발역점,서울 은평구 진관동 90-1,서울 은평구 진관2로 12,1522-3232,카페,음식점 > 카페 > 커피전문점 > 스타벅스,http://place.map.kakao.com/26900385,스타벅스 구파발역점,https://m.place.naver.com/restaurant/36952173
519,24,27543867,탐나도다,서울 은평구 갈현동 403-3,서울 은평구 통일로83길 5-14,02-384-9292,카페,음식점 > 카페,http://place.map.kakao.com/27543867,탐나도다,https://m.place.naver.com/restaurant/38571545
520,25,420721827,카페달력,서울 은평구 대조동 50-2,서울 은평구 연서로18길 28-2,070-7376-0910,카페,음식점 > 카페,http://place.map.kakao.com/420721827,카페달력,https://m.place.naver.com/restaurant/1667271970
521,26,1892822049,투썸플레이스 은평구청점,서울 은평구 응암동 81-173,서울 은평구 은평로 194,02-352-1433,카페,음식점 > 카페 > 커피전문점 > 투썸플레이스,http://place.map.kakao.com/1892822049,투썸플레이스 은평구청점,https://m.place.naver.com/restaurant/1692866521
522,27,2047684329,힐링앤툰,서울 은평구 녹번동 141-8,서울 은평구 진흥로 144,0507-1415-9852,카페,음식점 > 카페 > 테마카페 > 만화카페,http://place.map.kakao.com/2047684329,힐링앤툰,https://m.place.naver.com/restaurant/1892088746
523,28,17884764,스타벅스 구산역점,서울 은평구 대조동 224-14,서울 은평구 연서로 146,1522-3232,카페,음식점 > 카페 > 커피전문점 > 스타벅스,http://place.map.kakao.com/17884764,스타벅스 구산역점,https://m.place.naver.com/restaurant/31317335
524,29,2045961313,스타벅스 연신내역사거리점,서울 은평구 불광동 308-1,서울 은평구 통일로 842,1522-3232,카페,음식점 > 카페 > 커피전문점 > 스타벅스,http://place.map.kakao.com/2045961313,스타벅스 연신내역사거리점,https://m.place.naver.com/restaurant/1336072173
525,30,811506917,스타벅스 진관DT점,서울 은평구 진관동 2-8,서울 은평구 연서로 645,,카페,음식점 > 카페 > 커피전문점 > 스타벅스,http://place.map.kakao.com/811506917,스타벅스 진관DT점,https://m.place.naver.com/restaurant/1795514374
526,31,588867706,코피티암,서울 은평구 갈현동 481-4,서울 은평구 연서로27길 7-1,070-7651-8837,카페,음식점 > 카페,http://place.map.kakao.com/588867706,코피티암,https://m.place.naver.com/restaurant/36547723
527,32,840743372,스타벅스 연신내점,서울 은평구 갈현동 395-6,서울 은평구 통일로 867,1522-3232,카페,음식점 > 카페 > 커피전문점 > 스타벅스,http://place.map.kakao.com/840743372,스타벅스 연신내점,https://m.place.naver.com/restaurant/612749116
528,33,1697604977,로즈드마이,서울 은평구 응암동 592-62,서울 은평구 불광천길 312,02-6401-4679,카페,음식점 > 카페,http://place.map.kakao.com/1697604977,로즈드마이,https://m.place.naver.com/restaurant/1757664748
529,34,1078109037,카페메이트,서울 은평구 역촌동 27-10,서울 은평구 진흥로 85,,카페,음식점 > 카페,http://place.map.kakao.com/1078109037,카페메이트,https://m.place.naver.com/restaurant/817858534
530,35,969659468,어뮤즈멜로우,서울 은평구 갈현동 453-12,서울 은평구 연서로27길 20,02-2088-2612,카페,음식점 > 카페 > 테마카페 > 디저트카페,http://place.map.kakao.com/969659468,어뮤즈멜로우,https://m.place.naver.com/restaurant/1413518748
531,36,16470972,커피생각,서울 은평구 응암동 583-34,서울 은평구 불광천길 420,02-302-1400,카페,음식점 > 카페,http://place.map.kakao.com/16470972,커피생각,https://m.place.naver.com/restaurant/35581635
532,37,1538810539,카페와인드,서울 은평구 응암동 103-9,서울 은평구 응암로34가길 17,,카페,음식점 > 카페,http://place.map.kakao.com/1538810539,카페와인드,https://m.place.naver.com/restaurant/1576541324
533,38,445319809,제이츠커피브루어스,서울 은평구 갈현동 484-2,서울 은평구 연서로25길 20-3,070-8822-3375,카페,음식점 > 카페,http://place.map.kakao.com/445319809,제이츠커피브루어스,https://m.place.naver.com/restaurant/755216020
534,39,1065228229,오핀로스터리,서울 은평구 진관동 327-2,서울 은평구 북한산로 234,031-856-5555,카페,음식점 > 카페 > 커피전문점,http://place.map.kakao.com/1065228229,오핀로스터리,https://m.place.naver.com/restaurant/1542906457
535,40,27588085,할리스 연신내점,서울 은평구 대조동 199-28,서울 은평구 연서로 212,02-388-3977,카페,음식점 > 카페 > 커피전문점 > 할리스,http://place.map.kakao.com/27588085,할리스 연신내점,https://m.place.naver.com/restaurant/38230847
537,42,1366817206,폴스타베이커스,서울 은평구 갈현동 326-40,서울 은평구 서오릉로 256,02-6941-0256,카페,음식점 > 카페,http://place.map.kakao.com/1366817206,폴스타베이커스,https://m.place.naver.com/restaurant/1666461157
538,43,1971745290,큐리키즈카페,서울 은평구 진관동 74,서울 은평구 진관2로 19,02-388-6561,카페,음식점 > 카페 > 테마카페 > 키즈카페,http://place.map.kakao.com/1971745290,큐리키즈카페,https://m.place.naver.com/restaurant/1009200902
539,44,96176172,커피디지 응암본점,서울 은평구 신사동 15-59,서울 은평구 갈현로1길 16-1,02-6084-0095,카페,음식점 > 카페,http://place.map.kakao.com/96176172,커피디지 응암본점,https://m.place.naver.com/restaurant/37253216
540,0,445165609,앤트러사이트 연희점,서울 서대문구 연희동 89-19,서울 서대문구 연희로 135,02-332-7650,카페,음식점 > 카페 > 커피전문점,http://place.map.kakao.com/445165609,앤트러사이트 연희점,https://m.place.naver.com/restaurant/1485444554
542,2,1011256721,더파이홀,서울 서대문구 창천동 57-61,서울 서대문구 연세로5나길 20,02-334-1181,카페,음식점 > 카페 > 커피전문점,http://place.map.kakao.com/1011256721,더파이홀,https://m.place.naver.com/restaurant/21306384
543,3,8109317,토즈모임센터 신촌본점,서울 서대문구 창천동 18-55,서울 서대문구 연세로 10-1,02-392-0117,카페,"서비스,산업 > 전문대행 > 공간대여 > 모임공간 > 토즈모임센터",http://place.map.kakao.com/8109317,토즈모임센터 신촌본점,https://m.place.naver.com/restaurant/11721340
544,4,18826661,독수리다방,서울 서대문구 창천동 31-4,서울 서대문구 연세로 36,02-363-1222,카페,음식점 > 카페 > 다방,http://place.map.kakao.com/18826661,독수리다방,https://m.place.naver.com/restaurant/31608233
546,6,577825774,그릭데이 이대점,서울 서대문구 대현동 27-33,서울 서대문구 신촌역로 22-8,02-363-9222,카페,음식점 > 카페 > 테마카페 > 디저트카페,http://place.map.kakao.com/577825774,그릭데이 이대점,https://m.place.naver.com/restaurant/37648608
547,7,1467009878,스웨이커피스테이션,서울 서대문구 연희동 126-1,서울 서대문구 연희로11길 61,02-6348-0061,카페,음식점 > 카페,http://place.map.kakao.com/1467009878,스웨이커피스테이션,https://m.place.naver.com/restaurant/1826959498
548,8,8122805,클로리스 신촌점,서울 서대문구 창천동 13-35,서울 서대문구 연세로4길 38,02-392-7523,카페,음식점 > 카페,http://place.map.kakao.com/8122805,클로리스 신촌점,https://m.place.naver.com/restaurant/13073862
549,9,27201991,하이드미플리즈,서울 서대문구 홍제동 330-226,서울 서대문구 통일로39나길 5,02-394-2015,카페,음식점 > 카페 > 테마카페 > 디저트카페,http://place.map.kakao.com/27201991,하이드미플리즈,https://m.place.naver.com/restaurant/37160905
550,10,569185007,롯지190,서울 서대문구 연희동 170-3,서울 서대문구 홍제천로 190,,카페,음식점 > 카페,http://place.map.kakao.com/569185007,롯지190,https://m.place.naver.com/restaurant/1604858931
551,11,17434509,벙커1,서울 서대문구 충정로3가 270,서울 서대문구 충정로 20,02-771-7707,카페,음식점 > 카페,http://place.map.kakao.com/17434509,벙커1,https://m.place.naver.com/restaurant/21480595
552,12,205823441,로덴드론,서울 서대문구 연희동 90-8,서울 서대문구 연희로25길 82,02-332-2288,카페,음식점 > 카페 > 커피전문점,http://place.map.kakao.com/205823441,로덴드론,https://m.place.naver.com/restaurant/1595735508
553,13,19852273,호밀밭,서울 서대문구 창천동 4-77,서울 서대문구 신촌역로 43,02-392-5345,카페,음식점 > 카페,http://place.map.kakao.com/19852273,호밀밭,https://m.place.naver.com/restaurant/31394999
554,14,1980694762,푸어링아웃,서울 서대문구 연희동 128-27,서울 서대문구 연희로11나길 7-7,,카페,음식점 > 카페,http://place.map.kakao.com/1980694762,푸어링아웃,https://m.place.naver.com/restaurant/36543730
555,15,961299046,올레무스,서울 서대문구 연희동 220-40,서울 서대문구 연희로5길 58,,카페,음식점 > 카페,http://place.map.kakao.com/961299046,올레무스,https://m.place.naver.com/restaurant/1034052465
556,16,1290437759,헬로방방 남가좌충암점,서울 서대문구 남가좌동 1-2,서울 서대문구 명지대길 103,02-372-4857,카페,음식점 > 카페 > 테마카페 > 키즈카페,http://place.map.kakao.com/1290437759,헬로방방 남가좌충암점,https://m.place.naver.com/restaurant/854210338
558,18,560241790,원앤온리커피,서울 서대문구 대현동 37-7,서울 서대문구 이화여대7길 31-4,,카페,음식점 > 카페,http://place.map.kakao.com/560241790,원앤온리커피,https://m.place.naver.com/restaurant/1507115682
559,19,16418510,미네르바,서울 서대문구 창천동 13-26,서울 서대문구 명물길 18,02-3147-1327,카페,음식점 > 카페 > 커피전문점,http://place.map.kakao.com/16418510,미네르바,https://m.place.naver.com/restaurant/35562920
560,20,33873746,프로토콜,서울 서대문구 연희동 137-1,서울 서대문구 연희로 109,010-3927-6159,카페,음식점 > 카페 > 커피전문점,http://place.map.kakao.com/33873746,프로토콜,https://m.place.naver.com/restaurant/1032580297
561,21,26571462,스타벅스 연희DT점,서울 서대문구 연희동 87-8,서울 서대문구 연희로 144,1522-3232,카페,음식점 > 카페 > 커피전문점 > 스타벅스,http://place.map.kakao.com/26571462,스타벅스 연희DT점,https://m.place.naver.com/restaurant/36462644
562,22,13594462,에이투지카페,서울 서대문구 창천동 13-14,서울 서대문구 연세로4길 29,02-313-7523,카페,음식점 > 카페 > 커피전문점,http://place.map.kakao.com/13594462,에이투지카페,https://m.place.naver.com/restaurant/33948961
563,23,550496093,디폴트밸류,서울 서대문구 연희동 192-17,서울 서대문구 성산로 333,02-2293-3889,카페,음식점 > 카페,http://place.map.kakao.com/550496093,디폴트밸류,https://m.place.naver.com/restaurant/1304058353
564,24,838351158,베어스덴,서울 서대문구 창천동 441,서울 서대문구 연희로4길 10,02-6449-0204,카페,음식점 > 카페 > 테마카페 > 디저트카페,http://place.map.kakao.com/838351158,베어스덴,https://m.place.naver.com/restaurant/942180032
565,25,1542251042,룸익스케이프 화이트점,서울 서대문구 창천동 5-21,서울 서대문구 명물길 66,02-393-5689,카페,음식점 > 카페 > 테마카페,http://place.map.kakao.com/1542251042,룸익스케이프 화이트점,https://m.place.naver.com/restaurant/689304082
566,26,1520672825,레드버튼 신촌점,서울 서대문구 창천동 18-31,서울 서대문구 연세로 8,02-363-3799,카페,음식점 > 카페 > 테마카페 > 보드카페,http://place.map.kakao.com/1520672825,레드버튼 신촌점,https://m.place.naver.com/restaurant/1058744939
567,27,11221603,투썸플레이스 신촌점,서울 서대문구 창천동 30-8,서울 서대문구 신촌로 93,02-3142-5995,카페,음식점 > 카페 > 커피전문점 > 투썸플레이스,http://place.map.kakao.com/11221603,투썸플레이스 신촌점,https://m.place.naver.com/restaurant/11592720
568,28,10538396,스타벅스 신촌점,서울 서대문구 창천동 18-55,서울 서대문구 연세로 10-1,1522-3232,카페,음식점 > 카페 > 커피전문점 > 스타벅스,http://place.map.kakao.com/10538396,스타벅스 신촌점,https://m.place.naver.com/restaurant/11689850
569,29,24879347,설빙 신촌점,서울 서대문구 창천동 33-43,서울 서대문구 연세로 23,070-7716-8970,카페,음식점 > 카페 > 테마카페 > 디저트카페 > 설빙,http://place.map.kakao.com/24879347,설빙 신촌점,https://m.place.naver.com/restaurant/35150556
570,30,1480755504,보틀라운지,서울 서대문구 연희동 708,서울 서대문구 홍연길 26,02-3144-0703,카페,음식점 > 카페,http://place.map.kakao.com/1480755504,보틀라운지,https://m.place.naver.com/restaurant/1922788366
571,31,23446983,시간이머무는홍차가게,서울 서대문구 연희동 69-3,서울 서대문구 연희로16길 7-15,070-4843-3541,카페,음식점 > 카페,http://place.map.kakao.com/23446983,시간이머무는홍차가게,https://m.place.naver.com/restaurant/34326631
572,32,895804381,연희커피,서울 서대문구 연희동 189-4,서울 서대문구 연희맛로 17-21,,카페,음식점 > 카페 > 커피전문점,http://place.map.kakao.com/895804381,연희커피,https://m.place.naver.com/restaurant/1860305962
573,33,2060053572,스타벅스 가재울뉴타운점,서울 서대문구 남가좌동 385,서울 서대문구 가재울미래로 2,1522-3232,카페,음식점 > 카페 > 커피전문점 > 스타벅스,http://place.map.kakao.com/2060053572,스타벅스 가재울뉴타운점,https://m.place.naver.com/restaurant/1743688927
575,35,143734770,스타벅스 홍제역점,서울 서대문구 홍제동 301-19,서울 서대문구 통일로 451,1522-3232,카페,음식점 > 카페 > 커피전문점 > 스타벅스,http://place.map.kakao.com/143734770,스타벅스 홍제역점,https://m.place.naver.com/restaurant/541677107
576,36,685757963,롤리홀리,서울 서대문구 홍제동 307-12,서울 서대문구 통일로39길 43,070-7773-2194,카페,음식점 > 카페,http://place.map.kakao.com/685757963,롤리홀리,https://m.place.naver.com/restaurant/1395411968
577,37,725420477,스타벅스 이대R점,서울 서대문구 대현동 54-4,서울 서대문구 이화여대길 34,1522-3232,카페,음식점 > 카페 > 커피전문점 > 스타벅스,http://place.map.kakao.com/725420477,스타벅스 이대R점,https://m.place.naver.com/restaurant/1195904847
578,38,1199276033,벤치커피스튜디오,서울 서대문구 대현동 104-18,서울 서대문구 연세로2마길 14,02-365-5999,카페,음식점 > 카페,http://place.map.kakao.com/1199276033,벤치커피스튜디오,https://m.place.naver.com/restaurant/1053431120
579,39,27494928,꽃피다이화다방,서울 서대문구 대현동 37-1,서울 서대문구 이화여대길 75,02-313-1905,카페,음식점 > 카페,http://place.map.kakao.com/27494928,꽃피다이화다방,https://m.place.naver.com/restaurant/36639958
580,40,473697180,연희대공원,서울 서대문구 연희동 273-9,서울 서대문구 연희로11가길 42,,카페,음식점 > 카페 > 테마카페,http://place.map.kakao.com/473697180,연희대공원,https://m.place.naver.com/restaurant/1341018980
581,41,458225000,스타벅스 북가좌DT점,서울 서대문구 북가좌동 309-16,서울 서대문구 응암로 85,1522-3232,카페,음식점 > 카페 > 커피전문점 > 스타벅스,http://place.map.kakao.com/458225000,스타벅스 북가좌DT점,https://m.place.naver.com/restaurant/1748513063
582,42,1662439887,로네펠트 서대문점,서울 서대문구 충정로2가 78,서울 서대문구 충정로 71-5,02-313-1823,카페,음식점 > 카페,http://place.map.kakao.com/1662439887,로네펠트 서대문점,https://m.place.naver.com/restaurant/497790303
583,43,1432966034,스타벅스 연희동점,서울 서대문구 연희동 188-2,서울 서대문구 연희로 97,1522-3232,카페,음식점 > 카페 > 커피전문점 > 스타벅스,http://place.map.kakao.com/1432966034,스타벅스 연희동점,https://m.place.naver.com/restaurant/881841799
584,44,2020240735,포티드,서울 서대문구 창천동 5-58,서울 서대문구 명물길 36-3,070-7543-6627,카페,음식점 > 카페,http://place.map.kakao.com/2020240735,포티드,https://m.place.naver.com/restaurant/1946991741
585,0,1585571653,토즈모임센터 홍대점,서울 마포구 연남동 567-42,서울 마포구 연남로 13,02-336-0112,카페,"서비스,산업 > 전문대행 > 공간대여 > 모임공간 > 토즈모임센터",http://place.map.kakao.com/1585571653,토즈모임센터 홍대점,https://m.place.naver.com/restaurant/38291037
586,1,447132083,어반플랜트 합정,서울 마포구 합정동 363-28,서울 마포구 독막로4길 3,070-4192-0378,카페,음식점 > 카페,http://place.map.kakao.com/447132083,어반플랜트 합정,https://m.place.naver.com/restaurant/1593016664
587,2,24529429,프릳츠 도화점,서울 마포구 도화동 179-9,서울 마포구 새창로2길 17,02-3275-2045,카페,음식점 > 카페 > 테마카페 > 디저트카페,http://place.map.kakao.com/24529429,프릳츠 도화점,https://m.place.naver.com/restaurant/35524251
588,3,26235884,피오니 홍대점,서울 마포구 서교동 395-78,서울 마포구 독막로7길 51,02-333-5325,카페,음식점 > 카페,http://place.map.kakao.com/26235884,피오니 홍대점,https://m.place.naver.com/restaurant/19866326
589,4,53292857,943킹스크로스,서울 마포구 서교동 369-1,서울 마포구 양화로16길 24,02-3144-2112,카페,음식점 > 카페,http://place.map.kakao.com/53292857,943킹스크로스,https://m.place.naver.com/restaurant/1883832743
590,5,1797970569,카페공명,서울 마포구 동교동 146-8,서울 마포구 연희로 11,070-8869-6304,카페,음식점 > 카페,http://place.map.kakao.com/1797970569,카페공명,https://m.place.naver.com/restaurant/1176845784
591,6,922091993,비파티세리 공덕점,서울 마포구 공덕동 105-67,서울 마포구 마포대로14길 4,02-702-1220,카페,음식점 > 카페,http://place.map.kakao.com/922091993,비파티세리 공덕점,https://m.place.naver.com/restaurant/1469875009
592,7,502958473,카페 레이어드 연남점,서울 마포구 연남동 223-20,서울 마포구 성미산로 161-4,,카페,음식점 > 카페 > 테마카페 > 디저트카페,http://place.map.kakao.com/502958473,카페 레이어드 연남점,https://m.place.naver.com/restaurant/1500504643
593,8,12518512,앤트러사이트 합정점,서울 마포구 합정동 357-6,서울 마포구 토정로5길 10,02-336-7850,카페,음식점 > 카페 > 커피전문점,http://place.map.kakao.com/12518512,앤트러사이트 합정점,https://m.place.naver.com/restaurant/13316501
594,9,1513265709,포비 합정점,서울 마포구 합정동 426-18,서울 마포구 양화로3길 66,02-566-3861,카페,음식점 > 카페,http://place.map.kakao.com/1513265709,포비 합정점,https://m.place.naver.com/restaurant/713289996
595,10,657926243,앤트러사이트 서교점,서울 마포구 서교동 475-22,서울 마포구 월드컵로12길 11,02-336-7650,카페,음식점 > 카페,http://place.map.kakao.com/657926243,앤트러사이트 서교점,https://m.place.naver.com/restaurant/1088501208
596,11,26485620,오츠커피 마포점,서울 마포구 상수동 328-2,서울 마포구 독막로14길 32,070-7806-5542,카페,음식점 > 카페 > 커피전문점,http://place.map.kakao.com/26485620,오츠커피 마포점,https://m.place.naver.com/restaurant/35306735
597,12,966554753,땡스오트 연남점,서울 마포구 연남동 375-113,서울 마포구 성미산로23길 68,02-3144-0890,카페,음식점 > 카페 > 테마카페 > 디저트카페,http://place.map.kakao.com/966554753,땡스오트 연남점,https://m.place.naver.com/restaurant/1435646824
598,13,27248379,테일러커피 서교점,서울 마포구 서교동 338-1,서울 마포구 와우산로27길 7,02-334-0355,카페,음식점 > 카페 > 커피전문점,http://place.map.kakao.com/27248379,테일러커피 서교점,https://m.place.naver.com/restaurant/35848993
600,15,1960387368,톤앤매너,서울 마포구 서교동 337-10,서울 마포구 와우산로29가길 13,02-332-8252,카페,음식점 > 카페,http://place.map.kakao.com/1960387368,톤앤매너,https://m.place.naver.com/restaurant/38643309
601,16,11553130,커피리브레 연남점,서울 마포구 연남동 227-38,서울 마포구 성미산로 200,02-334-0615,카페,음식점 > 카페 > 커피전문점,http://place.map.kakao.com/11553130,커피리브레 연남점,https://m.place.naver.com/restaurant/21856573
602,17,123575123,당인리책발전소,서울 마포구 서교동 475-26,서울 마포구 월드컵로14길 10-8,,카페,음식점 > 카페 > 테마카페 > 북카페,http://place.map.kakao.com/123575123,당인리책발전소,https://m.place.naver.com/restaurant/1464359219
603,18,24855092,빈브라더스 합정점,서울 마포구 합정동 368-3,서울 마포구 토정로 35-1,02-6012-2001,카페,음식점 > 카페 > 커피전문점,http://place.map.kakao.com/24855092,빈브라더스 합정점,https://m.place.naver.com/restaurant/35431552
604,19,1007372949,오랑지,서울 마포구 연남동 390-71,서울 마포구 동교로38길 13,,카페,음식점 > 카페,http://place.map.kakao.com/1007372949,오랑지,https://m.place.naver.com/restaurant/1771873244
605,20,26966842,콜린,서울 마포구 서교동 403-13,서울 마포구 어울마당로 45,02-3141-1119,카페,음식점 > 카페 > 테마카페,http://place.map.kakao.com/26966842,콜린,https://m.place.naver.com/restaurant/38276438
606,21,1922103551,샌드커피 논탄토,서울 마포구 동교동 153-14,서울 마포구 동교로 212-16,02-336-8020,카페,음식점 > 카페,http://place.map.kakao.com/1922103551,샌드커피 논탄토,https://m.place.naver.com/restaurant/1153040328
607,22,20808938,커피가게동경,서울 마포구 망원동 410-1,서울 마포구 망원로6길 21,070-4845-0619,카페,음식점 > 카페 > 커피전문점,http://place.map.kakao.com/20808938,커피가게동경,https://m.place.naver.com/restaurant/33152234
608,23,71785169,키쉬미뇽,서울 마포구 서교동 394-16,서울 마포구 양화로6길 35,02-333-3466,카페,음식점 > 카페,http://place.map.kakao.com/71785169,키쉬미뇽,https://m.place.naver.com/restaurant/1299351750
610,25,27481601,딥블루레이크,서울 마포구 망원동 411-12,서울 마포구 포은로6길 11,02-333-8532,카페,음식점 > 카페,http://place.map.kakao.com/27481601,딥블루레이크,https://m.place.naver.com/restaurant/37654332
611,26,1040119941,디벙크,서울 마포구 합정동 366-1,서울 마포구 성지1길 30,02-6930-5598,카페,음식점 > 카페,http://place.map.kakao.com/1040119941,디벙크,https://m.place.naver.com/restaurant/1141833339
612,27,27508963,테일러커피 연남1호점,서울 마포구 연남동 224-41,서울 마포구 성미산로 189,02-326-0355,카페,음식점 > 카페,http://place.map.kakao.com/27508963,테일러커피 연남1호점,https://m.place.naver.com/restaurant/37604020
613,28,320756645,딩가케이크,서울 마포구 연남동 252-18,서울 마포구 동교로29길 68,,카페,음식점 > 카페 > 테마카페 > 디저트카페,http://place.map.kakao.com/320756645,딩가케이크,https://m.place.naver.com/restaurant/589999740
614,29,111850276,얼스어스,서울 마포구 연남동 239-49,서울 마포구 성미산로 150,,카페,음식점 > 카페,http://place.map.kakao.com/111850276,얼스어스,https://m.place.naver.com/restaurant/1775224468
615,30,1710643353,브런치가,서울 마포구 동교동 204-29,서울 마포구 월드컵북로4길 39,02-735-0263,카페,음식점 > 카페,http://place.map.kakao.com/1710643353,브런치가,https://m.place.naver.com/restaurant/34098350
616,31,10368349,땡스네이쳐,서울 마포구 서교동 486,서울 마포구 홍익로 10,02-332-7470,카페,음식점 > 카페,http://place.map.kakao.com/10368349,땡스네이쳐,https://m.place.naver.com/restaurant/21873454
617,32,500916307,작당모의,서울 마포구 연남동 381-15,서울 마포구 동교로32길 19,070-8838-3815,카페,음식점 > 카페,http://place.map.kakao.com/500916307,작당모의,https://m.place.naver.com/restaurant/1179910659
618,33,26966117,버터밀크,서울 마포구 창전동 6-131,서울 마포구 와우산로 130,,카페,음식점 > 카페,http://place.map.kakao.com/26966117,버터밀크,https://m.place.naver.com/restaurant/35958706
619,34,27494588,아이엠베이글 공덕점,서울 마포구 공덕동 476,서울 마포구 백범로 152,070-7718-2881,카페,음식점 > 카페 > 테마카페 > 디저트카페,http://place.map.kakao.com/27494588,아이엠베이글 공덕점,https://m.place.naver.com/restaurant/37463455
620,35,15985522,이미커피,서울 마포구 동교동 201-10,서울 마포구 동교로25길 7,02-6368-5228,카페,음식점 > 카페,http://place.map.kakao.com/15985522,이미커피,https://m.place.naver.com/restaurant/1883924356
621,36,1178288045,콩카페 연남점,서울 마포구 연남동 223-114,서울 마포구 성미산로 161-14,070-4131-0333,카페,음식점 > 카페,http://place.map.kakao.com/1178288045,콩카페 연남점,https://m.place.naver.com/restaurant/1521760712
622,37,436951953,시루케이크,서울 마포구 합정동 355-8,서울 마포구 어울마당로1길 18,070-4177-7700,카페,음식점 > 카페 > 테마카페 > 떡카페,http://place.map.kakao.com/436951953,시루케이크,https://m.place.naver.com/restaurant/513246071
623,38,996972400,연남방앗간,서울 마포구 연남동 257-22,서울 마포구 동교로29길 34,,카페,음식점 > 카페,http://place.map.kakao.com/996972400,연남방앗간,https://m.place.naver.com/restaurant/1411081677
624,39,2082554607,밤부베이커리&브루잉,서울 마포구 합정동 386-11,서울 마포구 월드컵로5길 33-23,02-3144-0446,카페,음식점 > 카페 > 테마카페 > 디저트카페,http://place.map.kakao.com/2082554607,밤부베이커리&브루잉,https://m.place.naver.com/restaurant/811550330
625,40,11933564,W카페,서울 마포구 동교동 200-18,서울 마포구 동교로25길 16,070-7818-7953,카페,음식점 > 카페,http://place.map.kakao.com/11933564,W카페,https://m.place.naver.com/restaurant/1182076823
626,41,24532689,허밍벨라,서울 마포구 서교동 395-199,서울 마포구 독막로7길 57,02-324-7050,카페,음식점 > 카페,http://place.map.kakao.com/24532689,허밍벨라,https://m.place.naver.com/restaurant/34922648
627,42,1419330175,모아새,서울 마포구 망원동 395-17,서울 마포구 포은로 71,0507-1304-5881,카페,음식점 > 카페 > 테마카페 > 디저트카페,http://place.map.kakao.com/1419330175,모아새,https://m.place.naver.com/restaurant/1028057366
629,44,975758911,카페스콘,서울 마포구 연남동 239-4,서울 마포구 성미산로 172,02-323-7076,카페,음식점 > 카페,http://place.map.kakao.com/975758911,카페스콘,https://m.place.naver.com/restaurant/1964985703
630,0,300323196,커피별녹색잔,서울 양천구 신정동 988-14,서울 양천구 목동로21길 26,02-2696-3337,카페,음식점 > 카페 > 커피전문점,http://place.map.kakao.com/300323196,커피별녹색잔,https://m.place.naver.com/restaurant/19535851
631,1,203376580,카페제하,서울 양천구 신정동 318-12,서울 양천구 목동동로 177,,카페,음식점 > 카페,http://place.map.kakao.com/203376580,카페제하,https://m.place.naver.com/restaurant/1456059128
632,2,333169963,더브라운 목동점,서울 양천구 목동 404-13,서울 양천구 오목로 354,,카페,음식점 > 카페 > 테마카페 > 디저트카페,http://place.map.kakao.com/333169963,더브라운 목동점,https://m.place.naver.com/restaurant/128784409
633,3,26900383,스타벅스 신월ICDT점,서울 양천구 신월동 205-48,서울 양천구 남부순환로 430,1522-3232,카페,음식점 > 카페 > 커피전문점 > 스타벅스,http://place.map.kakao.com/26900383,스타벅스 신월ICDT점,https://m.place.naver.com/restaurant/36960746
634,4,1737262840,스타벅스 신정DT점,서울 양천구 신정동 981-15,서울 양천구 신월로 341,1522-3232,카페,음식점 > 카페 > 커피전문점 > 스타벅스,http://place.map.kakao.com/1737262840,스타벅스 신정DT점,https://m.place.naver.com/restaurant/1601643645
635,5,480014306,하니앤손스,서울 양천구 목동 404-5,서울 양천구 신목로2길 68,02-2651-8989,카페,음식점 > 카페,http://place.map.kakao.com/480014306,하니앤손스,https://m.place.naver.com/restaurant/1984355198
636,6,853330963,헬로방방 목동점,서울 양천구 신정동 1009-4,서울 양천구 신월로 387,02-2696-8034,카페,음식점 > 카페 > 테마카페 > 키즈카페,http://place.map.kakao.com/853330963,헬로방방 목동점,https://m.place.naver.com/restaurant/1350782305
637,7,26909836,스타벅스 오목교역점,서울 양천구 목동 404-13,서울 양천구 오목로 354,1522-3232,카페,음식점 > 카페 > 커피전문점 > 스타벅스,http://place.map.kakao.com/26909836,스타벅스 오목교역점,https://m.place.naver.com/restaurant/37000879
639,9,1457114935,아모르버터,서울 양천구 신정동 998-15,서울 양천구 오목로48길 20-1,02-2601-9739,카페,음식점 > 카페 > 테마카페 > 디저트카페,http://place.map.kakao.com/1457114935,아모르버터,https://m.place.naver.com/restaurant/402056223
640,10,1387417961,파티세리소나 2호점,서울 양천구 신정동 89-16,서울 양천구 신목로12길 8,02-6404-4454,카페,음식점 > 카페 > 테마카페 > 디저트카페,http://place.map.kakao.com/1387417961,파티세리소나 2호점,https://m.place.naver.com/restaurant/1972446082
641,11,27264276,퍼블릭맨션,서울 양천구 목동 324-55,서울 양천구 등촌로 154,02-2654-6695,카페,음식점 > 카페,http://place.map.kakao.com/27264276,퍼블릭맨션,https://m.place.naver.com/restaurant/37797737
642,12,758470503,스타벅스 목동역점,서울 양천구 신정동 900-10,서울 양천구 목동로 203,,카페,음식점 > 카페 > 커피전문점 > 스타벅스,http://place.map.kakao.com/758470503,스타벅스 목동역점,https://m.place.naver.com/restaurant/1877730326
643,13,2105594814,카페꼬숩,서울 양천구 신정동 128-112,서울 양천구 신목로4길 1,02-2653-2249,카페,음식점 > 카페 > 테마카페 > 디저트카페,http://place.map.kakao.com/2105594814,카페꼬숩,https://m.place.naver.com/restaurant/1847765734
644,14,505681949,달다랗다,서울 양천구 신정동 1016-7,서울 양천구 은행정로6길 22,010-2062-3201,카페,음식점 > 카페 > 테마카페 > 디저트카페,http://place.map.kakao.com/505681949,달다랗다,https://m.place.naver.com/restaurant/1100838835
645,15,939764391,도쿄빙수 오목교역점,서울 양천구 목동 405-284,서울 양천구 오목로 328,02-2644-6568,카페,음식점 > 카페 > 테마카페 > 디저트카페,http://place.map.kakao.com/939764391,도쿄빙수 오목교역점,https://m.place.naver.com/restaurant/1217200183
646,16,1989650151,스타벅스 목동8단지점,서울 양천구 신정동 319-23,서울 양천구 목동서로 299,1522-3232,카페,음식점 > 카페 > 커피전문점 > 스타벅스,http://place.map.kakao.com/1989650151,스타벅스 목동8단지점,https://m.place.naver.com/restaurant/403861967
647,17,964935317,스타벅스 신월동DT,서울 양천구 신월동 52-14,서울 양천구 남부순환로 319,1522-3232,카페,음식점 > 카페 > 커피전문점 > 스타벅스,http://place.map.kakao.com/964935317,스타벅스 신월동DT,https://m.place.naver.com/restaurant/1145771354
648,18,1468196303,카페히든,서울 양천구 목동 406-122,서울 양천구 목동동로 222-6,070-8774-1774,카페,음식점 > 카페 > 테마카페 > 디저트카페,http://place.map.kakao.com/1468196303,카페히든,https://m.place.naver.com/restaurant/1492095548
649,19,1905255381,설빙 목동점,서울 양천구 목동 934,서울 양천구 목동동로 258,070-8883-0334,카페,음식점 > 카페 > 테마카페 > 디저트카페 > 설빙,http://place.map.kakao.com/1905255381,설빙 목동점,https://m.place.naver.com/restaurant/1082673983
650,20,256577644,카페화목토,서울 양천구 신정동 1008-12,서울 양천구 목동로11길 5,02-6403-1105,카페,음식점 > 카페,http://place.map.kakao.com/256577644,카페화목토,https://m.place.naver.com/restaurant/1545802053
651,21,926070592,스타벅스 목동10단지점,서울 양천구 신정동 324-7,서울 양천구 목동서로 401,,카페,음식점 > 카페 > 커피전문점 > 스타벅스,http://place.map.kakao.com/926070592,스타벅스 목동10단지점,https://m.place.naver.com/restaurant/1214386765
652,22,617333242,스타벅스 등촌역점,서울 양천구 목동 602-2,서울 양천구 공항대로 566,1522-3232,카페,음식점 > 카페 > 커피전문점 > 스타벅스,http://place.map.kakao.com/617333242,스타벅스 등촌역점,https://m.place.naver.com/restaurant/1741622747
653,23,1910467865,테디랩,서울 양천구 신정동 1024-1,서울 양천구 신월로36길 11,070-8722-4441,카페,음식점 > 카페,http://place.map.kakao.com/1910467865,테디랩,https://m.place.naver.com/restaurant/180489727
654,24,16095622,에프스토리,서울 양천구 목동 406-290,서울 양천구 오목로 321-5,,카페,음식점 > 카페,http://place.map.kakao.com/16095622,에프스토리,https://m.place.naver.com/restaurant/20389007
655,25,334882918,카페스페이스530,서울 양천구 목동 530-5,서울 양천구 목동중앙본로 122,,카페,음식점 > 카페,http://place.map.kakao.com/334882918,카페스페이스530,https://m.place.naver.com/restaurant/949856667
656,26,961605125,카페올리,서울 양천구 신월동 519-17,서울 양천구 오목로4길 15,,카페,음식점 > 카페 > 테마카페 > 디저트카페,http://place.map.kakao.com/961605125,카페올리,https://m.place.naver.com/restaurant/1024507268
657,27,389160790,스타벅스 목동오목로점,서울 양천구 목동 406-4,서울 양천구 오목로 279,,카페,음식점 > 카페 > 커피전문점 > 스타벅스,http://place.map.kakao.com/389160790,스타벅스 목동오목로점,https://m.place.naver.com/restaurant/38563513
658,28,7961580,스타벅스 목동점,서울 양천구 목동 907-4,서울 양천구 목동서로 67,,카페,음식점 > 카페 > 커피전문점 > 스타벅스,http://place.map.kakao.com/7961580,스타벅스 목동점,https://m.place.naver.com/restaurant/11689838
659,29,277928483,라헬의부엌 목동점,서울 양천구 목동 406-28,서울 양천구 오목로 345,070-4121-1020,카페,음식점 > 카페 > 테마카페 > 디저트카페,http://place.map.kakao.com/277928483,라헬의부엌 목동점,https://m.place.naver.com/restaurant/1954804535
660,30,1554012701,커피집 이공,서울 양천구 신정동 987-7,서울 양천구 오목로 204,,카페,음식점 > 카페 > 커피전문점,http://place.map.kakao.com/1554012701,커피집 이공,https://m.place.naver.com/restaurant/1413978701
661,31,1973568744,투썸플레이스 목동하이페리온점,서울 양천구 목동 961,서울 양천구 오목로 300,02-2652-2388,카페,음식점 > 카페 > 커피전문점 > 투썸플레이스,http://place.map.kakao.com/1973568744,투썸플레이스 목동하이페리온점,https://m.place.naver.com/restaurant/1251455007
662,32,1459148300,퀸즈브라운 목동역점,서울 양천구 신정동 989-10,서울 양천구 오목로46길 6,02-2604-8222,카페,음식점 > 카페,http://place.map.kakao.com/1459148300,퀸즈브라운 목동역점,https://m.place.naver.com/restaurant/1499134580
663,33,1898322959,비엔나커피하우스 목동7단지점,서울 양천구 목동 923-11,서울 양천구 목동서로 211,02-2655-1683,카페,음식점 > 카페 > 커피전문점,http://place.map.kakao.com/1898322959,비엔나커피하우스 목동7단지점,https://m.place.naver.com/restaurant/1179075140
664,34,255158813,카페아리네,서울 양천구 목동 406-114,서울 양천구 목동동로 222-11,02-2648-5735,카페,음식점 > 카페,http://place.map.kakao.com/255158813,카페아리네,https://m.place.naver.com/restaurant/1595433165
665,35,265491129,젠틀카롱,서울 양천구 신정동 1007-11,서울 양천구 목동로 163,,카페,음식점 > 카페,http://place.map.kakao.com/265491129,젠틀카롱,https://m.place.naver.com/restaurant/1471372133
666,36,13049554,스타벅스 목동파라곤점,서울 양천구 목동 917,서울 양천구 목동서로 155,1522-3232,카페,음식점 > 카페 > 커피전문점 > 스타벅스,http://place.map.kakao.com/13049554,스타벅스 목동파라곤점,https://m.place.naver.com/restaurant/33646949
667,37,478112901,리모트,서울 양천구 목동 717-14,서울 양천구 목동중앙본로7길 34,070-8879-0401,카페,음식점 > 카페 > 커피전문점,http://place.map.kakao.com/478112901,리모트,https://m.place.naver.com/restaurant/1492600736
668,38,1664553439,투썸플레이스 남부지방법원점,서울 양천구 신정동 1009-15,서울 양천구 신월로 385,02-2607-2377,카페,음식점 > 카페 > 커피전문점 > 투썸플레이스,http://place.map.kakao.com/1664553439,투썸플레이스 남부지방법원점,https://m.place.naver.com/restaurant/1410814595
669,39,360893773,프레쉬모먼트카페,서울 양천구 신정동 969-18,서울 양천구 중앙로46길 7,,카페,음식점 > 카페,http://place.map.kakao.com/360893773,프레쉬모먼트카페,https://m.place.naver.com/restaurant/1803200758
670,40,236144404,커피그레이드,서울 양천구 신월동 445-2,서울 양천구 중앙로51길 71,,카페,음식점 > 카페,http://place.map.kakao.com/236144404,커피그레이드,https://m.place.naver.com/restaurant/1779352101
671,41,20596704,이디야커피 오목교대학학원점,서울 양천구 목동 406-35,서울 양천구 오목로 319,02-2651-0511,카페,음식점 > 카페 > 커피전문점 > 이디야커피,http://place.map.kakao.com/20596704,이디야커피 오목교대학학원점,https://m.place.naver.com/restaurant/36948496
672,42,1744622139,투썸플레이스 신정네거리점,서울 양천구 신정동 1183-8,서울 양천구 중앙로 261,02-6952-9797,카페,음식점 > 카페 > 커피전문점 > 투썸플레이스,http://place.map.kakao.com/1744622139,투썸플레이스 신정네거리점,https://m.place.naver.com/restaurant/1930159922
673,43,18694487,코나빈스,서울 양천구 신월동 961-4,서울 양천구 지양로 72,,카페,음식점 > 카페 > 커피전문점,http://place.map.kakao.com/18694487,코나빈스,https://m.place.naver.com/restaurant/31543041
674,44,26410047,스타벅스 목동7단지점,서울 양천구 목동 923,서울 양천구 목동서로 213,1522-3232,카페,음식점 > 카페 > 커피전문점 > 스타벅스,http://place.map.kakao.com/26410047,스타벅스 목동7단지점,https://m.place.naver.com/restaurant/36084538
675,0,1943025765,고양이정원,서울 강서구 개화동 559-49,서울 강서구 개화동로19길 18,02-2665-4507,카페,음식점 > 카페 > 테마카페 > 고양이카페,http://place.map.kakao.com/1943025765,고양이정원,https://m.place.naver.com/restaurant/38711752
676,1,1688973510,카페우드진,서울 강서구 마곡동 772-5,서울 강서구 마곡중앙6로 45,02-6052-0116,카페,음식점 > 카페 > 커피전문점,http://place.map.kakao.com/1688973510,카페우드진,https://m.place.naver.com/restaurant/1745761834
677,2,16682720,고양이똥,서울 강서구 등촌1동 647-62,서울 강서구 공항대로59가길 13,02-6013-1281,카페,음식점 > 카페 > 테마카페,http://place.map.kakao.com/16682720,고양이똥,https://m.place.naver.com/restaurant/19748262
678,3,851969193,브루클린커피,서울 강서구 내발산동 652-1,서울 강서구 강서로52길 16,02-3664-5595,카페,음식점 > 카페 > 커피전문점,http://place.map.kakao.com/851969193,브루클린커피,https://m.place.naver.com/restaurant/1405122616
679,4,2117253986,헤리스헤이스,서울 강서구 마곡동 774-5,서울 강서구 마곡동로3길 26,010-8863-9532,카페,음식점 > 카페 > 커피전문점,http://place.map.kakao.com/2117253986,헤리스헤이스,https://m.place.naver.com/restaurant/1405015740
680,5,27417322,브런치팩토리,서울 강서구 마곡동 721-9,서울 강서구 마곡중앙로 36,070-4136-2631,카페,음식점 > 카페 > 테마카페 > 디저트카페,http://place.map.kakao.com/27417322,브런치팩토리,https://m.place.naver.com/restaurant/36998239
681,6,1771238411,소장식물전,서울 강서구 공항동 66-60,서울 강서구 공항대로2길 36,,카페,음식점 > 카페,http://place.map.kakao.com/1771238411,소장식물전,https://m.place.naver.com/restaurant/1297963828
682,7,1445156015,광화문살롱,서울 강서구 등촌동 639-23,서울 강서구 공항대로45길 63,02-2668-3966,카페,음식점 > 카페,http://place.map.kakao.com/1445156015,광화문살롱,https://m.place.naver.com/restaurant/1286547065
683,8,650424536,어나더사이드,서울 강서구 내발산동 677,서울 강서구 강서로 318,02-3665-9877,카페,음식점 > 카페,http://place.map.kakao.com/650424536,어나더사이드,https://m.place.naver.com/restaurant/1582128660
684,9,1593193993,인라이크,서울 강서구 마곡동 348-3,서울 강서구 양천로30길 103,070-7789-3344,카페,음식점 > 카페 > 테마카페 > 디저트카페,http://place.map.kakao.com/1593193993,인라이크,https://m.place.naver.com/restaurant/1136400514
685,10,1294099295,광화문살롱 마곡나루점,서울 강서구 마곡동 757,서울 강서구 마곡중앙로 161-8,02-6989-8989,카페,음식점 > 카페 > 테마카페 > 디저트카페,http://place.map.kakao.com/1294099295,광화문살롱 마곡나루점,https://m.place.naver.com/restaurant/1952232520
686,11,837824252,고양이똥 3호점,서울 강서구 등촌동 655,서울 강서구 공항대로45길 30,02-2694-0285,카페,음식점 > 카페,http://place.map.kakao.com/837824252,고양이똥 3호점,https://m.place.naver.com/restaurant/19748262
687,12,470408699,스타벅스 화곡DT점,서울 강서구 화곡동 772-67,서울 강서구 등촌로 57,,카페,음식점 > 카페 > 커피전문점 > 스타벅스,http://place.map.kakao.com/470408699,스타벅스 화곡DT점,https://m.place.naver.com/restaurant/38667808
688,13,1433534125,스타벅스 마곡나루,서울 강서구 마곡동 759-3,서울 강서구 마곡중앙로 161-17,1522-3232,카페,음식점 > 카페 > 커피전문점 > 스타벅스,http://place.map.kakao.com/1433534125,스타벅스 마곡나루,https://m.place.naver.com/restaurant/1735972372
689,14,440767015,구도커피,서울 강서구 등촌동 565-18,서울 강서구 등촌로35길 121,02-6348-2460,카페,음식점 > 카페 > 커피전문점,http://place.map.kakao.com/440767015,구도커피,https://m.place.naver.com/restaurant/1245216430
690,15,1524391732,카페움플레이트,서울 강서구 마곡동 747,서울 강서구 마곡중앙1로 72,02-2662-5881,카페,음식점 > 카페 > 커피전문점,http://place.map.kakao.com/1524391732,카페움플레이트,https://m.place.naver.com/restaurant/222025736
691,16,482613052,스타벅스 방화DT,서울 강서구 방화동 293-4,서울 강서구 방화대로 375,1522-3232,카페,음식점 > 카페 > 커피전문점 > 스타벅스,http://place.map.kakao.com/482613052,스타벅스 방화DT,https://m.place.naver.com/restaurant/1967951981
692,17,76277836,스타벅스 마곡사이언스타워R,서울 강서구 마곡동 727-500,서울 강서구 마곡동로 62,1522-3232,카페,음식점 > 카페 > 커피전문점 > 스타벅스,http://place.map.kakao.com/76277836,스타벅스 마곡사이언스타워R,https://m.place.naver.com/restaurant/1281592130
694,19,1384786431,벌툰 까치산역점,서울 강서구 화곡동 343-52,서울 강서구 강서로 43,070-7612-0018,카페,음식점 > 카페 > 테마카페 > 만화카페,http://place.map.kakao.com/1384786431,벌툰 까치산역점,https://m.place.naver.com/restaurant/1600961628
695,20,61350952,헤이더그린,서울 강서구 오쇠동 114-7,,,카페,음식점 > 카페,http://place.map.kakao.com/61350952,헤이더그린,https://m.place.naver.com/restaurant/1818927143
696,21,26617152,스타벅스 화곡동점,서울 강서구 화곡동 1073-10,서울 강서구 화곡로 142,,카페,음식점 > 카페 > 커피전문점 > 스타벅스,http://place.map.kakao.com/26617152,스타벅스 화곡동점,https://m.place.naver.com/restaurant/36476511
698,23,23325994,스타벅스 발산역,서울 강서구 등촌동 678-14,서울 강서구 강서로 388,1522-3232,카페,음식점 > 카페 > 커피전문점 > 스타벅스,http://place.map.kakao.com/23325994,스타벅스 발산역,https://m.place.naver.com/restaurant/34249491
699,24,2021829896,벌툰 마곡발산점,서울 강서구 마곡동 727-1176,서울 강서구 공항대로 247,02-6738-1105,카페,음식점 > 카페 > 테마카페 > 만화카페,http://place.map.kakao.com/2021829896,벌툰 마곡발산점,https://m.place.naver.com/restaurant/1305698357
700,25,1660750406,쉐드커피,서울 강서구 마곡동 773-2,서울 강서구 마곡중앙6로 16,,카페,음식점 > 카페 > 테마카페 > 디저트카페,http://place.map.kakao.com/1660750406,쉐드커피,https://m.place.naver.com/restaurant/1437660888
701,26,20046342,스타벅스 까치산역점,서울 강서구 화곡동 343-1,서울 강서구 강서로13길 3,1522-3232,카페,음식점 > 카페 > 커피전문점 > 스타벅스,http://place.map.kakao.com/20046342,스타벅스 까치산역점,https://m.place.naver.com/restaurant/31317144
702,27,1143075069,스타벅스 마곡역,서울 강서구 마곡동 728-234,서울 강서구 공항대로 168,1522-3232,카페,음식점 > 카페 > 커피전문점 > 스타벅스,http://place.map.kakao.com/1143075069,스타벅스 마곡역,https://m.place.naver.com/restaurant/1330299327
703,28,528909972,꿀팟만화보드카페,서울 강서구 마곡동 759-3,서울 강서구 마곡중앙로 161-17,02-6925-1414,카페,음식점 > 카페 > 테마카페 > 만화카페,http://place.map.kakao.com/528909972,꿀팟만화보드카페,https://m.place.naver.com/restaurant/1938842574
704,29,1371420528,빌리엔젤 마곡점,서울 강서구 마곡동 727-500,서울 강서구 마곡동로 62,02-3663-6864,카페,음식점 > 카페 > 테마카페 > 디저트카페,http://place.map.kakao.com/1371420528,빌리엔젤 마곡점,https://m.place.naver.com/restaurant/1027394995
705,30,1578796891,스타벅스 마곡나루공원,서울 강서구 마곡동 731-62,서울 강서구 마곡중앙5로 47,1522-3232,카페,음식점 > 카페 > 커피전문점 > 스타벅스,http://place.map.kakao.com/1578796891,스타벅스 마곡나루공원,https://m.place.naver.com/restaurant/1735972372
706,31,933760076,카페비쥬,서울 강서구 내발산동 699-9,서울 강서구 강서로47다길 17,,카페,음식점 > 카페,http://place.map.kakao.com/933760076,카페비쥬,https://m.place.naver.com/restaurant/1526804359
707,32,423099390,고양이후추,서울 강서구 염창동 261-13,서울 강서구 공항대로59다길 267,010-8081-2389,카페,음식점 > 카페 > 테마카페 > 디저트카페,http://place.map.kakao.com/423099390,고양이후추,https://m.place.naver.com/restaurant/758671478
708,33,709297181,비엔나커피하우스 마곡나루역점,서울 강서구 마곡동 365-15,서울 강서구 마곡중앙5로1길 20,02-2093-6575,카페,음식점 > 카페 > 커피전문점,http://place.map.kakao.com/709297181,비엔나커피하우스 마곡나루역점,https://m.place.naver.com/restaurant/1737954322
709,34,17066752,카카오독애견카페 목동점,서울 강서구 화곡동 782-11,서울 강서구 곰달래로60길 33,02-2652-6727,카페,음식점 > 카페 > 테마카페 > 애견카페,http://place.map.kakao.com/17066752,카카오독애견카페 목동점,https://m.place.naver.com/restaurant/20729859
710,35,1166806934,플루이드,서울 강서구 마곡동 727-1180,서울 강서구 마곡중앙6로 70,070-7543-5080,카페,음식점 > 카페 > 커피전문점,http://place.map.kakao.com/1166806934,플루이드,https://m.place.naver.com/restaurant/1835651217
711,36,183746494,맥켄지커피 까치산역점,서울 강서구 화곡동 343-3,서울 강서구 강서로 47-6,02-2604-6323,카페,음식점 > 카페,http://place.map.kakao.com/183746494,맥켄지커피 까치산역점,https://m.place.naver.com/restaurant/716386365
712,37,2053852189,빌리엔젤 마곡역점,서울 강서구 마곡동 799-5,서울 강서구 마곡중앙로 56,02-2664-3230,카페,음식점 > 카페,http://place.map.kakao.com/2053852189,빌리엔젤 마곡역점,https://m.place.naver.com/restaurant/1500280424
713,38,27500873,카페소금다방,서울 강서구 염창동 271,서울 강서구 공항대로61길 42,070-4242-3443,카페,음식점 > 카페,http://place.map.kakao.com/27500873,카페소금다방,https://m.place.naver.com/restaurant/37634491
714,39,227130319,153도씨,서울 강서구 마곡동 760-2,서울 강서구 마곡중앙로 161-1,010-8853-0153,카페,음식점 > 카페 > 테마카페 > 디저트카페,http://place.map.kakao.com/227130319,153도씨,https://m.place.naver.com/restaurant/1287137297
715,40,1037105014,스타벅스 가양역점,서울 강서구 등촌동 73-1,서울 강서구 양천로 476,1522-3232,카페,음식점 > 카페 > 커피전문점 > 스타벅스,http://place.map.kakao.com/1037105014,스타벅스 가양역점,https://m.place.naver.com/restaurant/791167030
716,41,91305203,투썸플레이스 마곡점,서울 강서구 마곡동 727-1064,서울 강서구 마곡중앙6로 40,02-3662-5800,카페,음식점 > 카페 > 커피전문점 > 투썸플레이스,http://place.map.kakao.com/91305203,투썸플레이스 마곡점,https://m.place.naver.com/restaurant/1229802299
717,42,1529498058,스타벅스 양천향교역,서울 강서구 마곡동 727-26,서울 강서구 강서로 463,1522-3232,카페,음식점 > 카페 > 커피전문점 > 스타벅스,http://place.map.kakao.com/1529498058,스타벅스 양천향교역,https://m.place.naver.com/restaurant/34249491
718,43,1010426293,스타벅스 마곡GMG,서울 강서구 마곡동 773-2,서울 강서구 마곡중앙6로 16,1522-3232,카페,음식점 > 카페 > 커피전문점 > 스타벅스,http://place.map.kakao.com/1010426293,스타벅스 마곡GMG,https://m.place.naver.com/restaurant/834932259
719,44,2045647248,카페 우드진 마곡나루점,서울 강서구 마곡동 365-15,서울 강서구 마곡중앙로 161-8,02-6989-8108,카페,음식점 > 카페,http://place.map.kakao.com/2045647248,카페 우드진 마곡나루점,https://m.place.naver.com/restaurant/1058202058
720,0,14984169,메이비,서울 구로구 구로동 1124-49,서울 구로구 디지털로32나길 51,02-859-3073,카페,음식점 > 카페,http://place.map.kakao.com/14984169,메이비,https://m.place.naver.com/restaurant/20415444
721,1,1342180005,에버애프터,서울 구로구 구로동 27-11,서울 구로구 새말로18길 36-10,070-7543-1098,카페,음식점 > 카페 > 커피전문점,http://place.map.kakao.com/1342180005,에버애프터,https://m.place.naver.com/restaurant/1550476024
722,2,25489976,브라운핸즈 디지털단지구로점,서울 구로구 구로동 1130-61,서울 구로구 디지털로32다길 52,02-852-3137,카페,음식점 > 카페 > 커피전문점,http://place.map.kakao.com/25489976,브라운핸즈 디지털단지구로점,https://m.place.naver.com/restaurant/1239252995
723,3,924229434,밀리커피,서울 구로구 구로동 산 1-11,서울 구로구 새말로 62,,카페,음식점 > 카페,http://place.map.kakao.com/924229434,밀리커피,https://m.place.naver.com/restaurant/1567689059
724,4,649227503,히어로스터 신도림점,서울 구로구 신도림동 382-2,서울 구로구 경인로63길 21-8,,카페,음식점 > 카페,http://place.map.kakao.com/649227503,히어로스터 신도림점,https://m.place.naver.com/restaurant/1316825806
725,5,1820106061,데일리스위츠,서울 구로구 고척동 76-28,서울 구로구 중앙로 9,02-877-6126,카페,음식점 > 카페 > 테마카페 > 디저트카페,http://place.map.kakao.com/1820106061,데일리스위츠,https://m.place.naver.com/restaurant/310190463
726,6,18691090,스타벅스 구로호텔점,서울 구로구 구로동 1128-1,서울 구로구 디지털로32길 72,1522-3232,카페,음식점 > 카페 > 커피전문점 > 스타벅스,http://place.map.kakao.com/18691090,스타벅스 구로호텔점,https://m.place.naver.com/restaurant/31399930
727,7,1979449725,투썸플레이스 구로디지털역깔깔거리점,서울 구로구 구로동 1124-1,서울 구로구 디지털로32길 97-39,02-855-7791,카페,음식점 > 카페 > 커피전문점 > 투썸플레이스,http://place.map.kakao.com/1979449725,투썸플레이스 구로디지털역깔깔거리점,https://m.place.naver.com/restaurant/1519373531
728,8,299076887,카페몽글,서울 구로구 구로동 30-23,서울 구로구 공원로6나길 29-17,02-854-4620,카페,음식점 > 카페,http://place.map.kakao.com/299076887,카페몽글,https://m.place.naver.com/restaurant/1934552743
729,9,4357040,스타벅스 신도림점,서울 구로구 신도림동 413-9,서울 구로구 경인로 610,1522-3232,카페,음식점 > 카페 > 커피전문점 > 스타벅스,http://place.map.kakao.com/4357040,스타벅스 신도림점,https://m.place.naver.com/restaurant/1243708435
730,10,61473709,하이드아웃,서울 구로구 개봉동 403-219,서울 구로구 개봉로20길 30,010-7135-5970,카페,음식점 > 카페 > 커피전문점,http://place.map.kakao.com/61473709,하이드아웃,https://m.place.naver.com/restaurant/1888783946
731,11,26395497,빈브라더스 현대백화점디큐브시티점,서울 구로구 신도림동 692,서울 구로구 경인로 662,02-2210-9351,카페,음식점 > 카페 > 커피전문점,http://place.map.kakao.com/26395497,빈브라더스 현대백화점디큐브시티점,https://m.place.naver.com/restaurant/36208766
732,12,90143444,라크라센타,서울 구로구 구로동 83,서울 구로구 가마산로 242,02-866-6202,카페,음식점 > 카페,http://place.map.kakao.com/90143444,라크라센타,https://m.place.naver.com/restaurant/38463917
733,13,26310921,설빙 구로지밸리점,서울 구로구 구로동 188-25,서울 구로구 디지털로 300,02-6344-3959,카페,음식점 > 카페 > 테마카페 > 디저트카페 > 설빙,http://place.map.kakao.com/26310921,설빙 구로지밸리점,https://m.place.naver.com/restaurant/36015911
734,14,27224586,카페큐브,서울 구로구 신도림동 692,서울 구로구 경인로 662,02-2211-6603,카페,음식점 > 카페 > 테마카페 > 북카페,http://place.map.kakao.com/27224586,카페큐브,https://m.place.naver.com/restaurant/32430636
735,15,26476919,폴바셋 구로지밸리몰점,서울 구로구 구로동 188-25,서울 구로구 디지털로 300,02-6344-3788,카페,음식점 > 카페 > 커피전문점 > 폴바셋,http://place.map.kakao.com/26476919,폴바셋 구로지밸리몰점,https://m.place.naver.com/restaurant/35575619
736,16,1792739269,디저트샵시소,서울 구로구 천왕동 273,서울 구로구 천왕로 29,010-8372-8487,카페,음식점 > 카페 > 테마카페 > 디저트카페,http://place.map.kakao.com/1792739269,디저트샵시소,https://m.place.naver.com/restaurant/1441471542
737,17,25115111,스타벅스 오류동역점,서울 구로구 오류동 55-50,서울 구로구 경인로 216,1522-3232,카페,음식점 > 카페 > 커피전문점 > 스타벅스,http://place.map.kakao.com/25115111,스타벅스 오류동역점,https://m.place.naver.com/restaurant/35188492
738,18,364882455,적소,서울 구로구 개봉동 262-4,서울 구로구 개봉로16가길 10-28,02-2612-0701,카페,음식점 > 카페 > 테마카페 > 디저트카페,http://place.map.kakao.com/364882455,적소,https://m.place.naver.com/restaurant/1485024842
739,19,1536002539,이미커피로스터스,서울 구로구 구로동 798-30,서울 구로구 디지털로27길 116,070-4240-5228,카페,음식점 > 카페 > 커피전문점,http://place.map.kakao.com/1536002539,이미커피로스터스,https://m.place.naver.com/restaurant/1870889365
740,20,1653669621,스타벅스 구로디지털타워점,서울 구로구 구로동 222-7,서울 구로구 디지털로32길 30,,카페,음식점 > 카페 > 커피전문점 > 스타벅스,http://place.map.kakao.com/1653669621,스타벅스 구로디지털타워점,https://m.place.naver.com/restaurant/754168352
741,21,838978979,메이로드,서울 구로구 오류동 172-27,서울 구로구 오류로 37-2,02-2060-7466,카페,음식점 > 카페 > 테마카페 > 디저트카페,http://place.map.kakao.com/838978979,메이로드,https://m.place.naver.com/restaurant/76309104
742,22,26884659,띵크커피 디큐브시티점,서울 구로구 신도림동 692,서울 구로구 경인로 662,02-2210-9074,카페,음식점 > 카페 > 커피전문점,http://place.map.kakao.com/26884659,띵크커피 디큐브시티점,https://m.place.naver.com/restaurant/36882978
743,23,21058537,스타벅스 구로디지털로점,서울 구로구 구로동 191-7,서울 구로구 디지털로33길 11,1522-3232,카페,음식점 > 카페 > 커피전문점 > 스타벅스,http://place.map.kakao.com/21058537,스타벅스 구로디지털로점,https://m.place.naver.com/restaurant/33239308
744,24,18489590,투썸플레이스 신도림디큐브시티점,서울 구로구 신도림동 692,서울 구로구 경인로 662,02-2210-9233,카페,음식점 > 카페 > 커피전문점 > 투썸플레이스,http://place.map.kakao.com/18489590,투썸플레이스 신도림디큐브시티점,https://m.place.naver.com/restaurant/31403372
745,25,180758122,힙스터커피,서울 구로구 개봉동 139-17,서울 구로구 경인로33길 15,010-9811-9855,카페,음식점 > 카페 > 커피전문점,http://place.map.kakao.com/180758122,힙스터커피,https://m.place.naver.com/restaurant/21514174
746,26,649401592,스타벅스 구로NC,서울 구로구 구로동 573,서울 구로구 구로중앙로 152,1522-3232,카페,음식점 > 카페 > 커피전문점 > 스타벅스,http://place.map.kakao.com/649401592,스타벅스 구로NC,https://m.place.naver.com/restaurant/1650752198
747,27,27075938,스타벅스 현대디큐브2F,서울 구로구 신도림동 692,서울 구로구 경인로 662,1522-3232,카페,음식점 > 카페 > 커피전문점 > 스타벅스,http://place.map.kakao.com/27075938,스타벅스 현대디큐브2F,https://m.place.naver.com/restaurant/36693906
748,28,1566212360,그녀의커피 카페드엘르,서울 구로구 오류동 6-140,서울 구로구 고척로3길 7,02-6013-7750,카페,음식점 > 카페 > 커피전문점,http://place.map.kakao.com/1566212360,그녀의커피 카페드엘르,https://m.place.naver.com/restaurant/1332044812
749,29,1893731799,투썸플레이스 개봉역점,서울 구로구 개봉동 202-13,서울 구로구 남부순환로97길 20-1,02-2618-8133,카페,음식점 > 카페 > 커피전문점 > 투썸플레이스,http://place.map.kakao.com/1893731799,투썸플레이스 개봉역점,https://m.place.naver.com/restaurant/37912137
750,30,963590299,잉크커피,서울 구로구 구로동 222-12,서울 구로구 디지털로30길 28,,카페,음식점 > 카페 > 커피전문점,http://place.map.kakao.com/963590299,잉크커피,https://m.place.naver.com/restaurant/1344344963
