[
    {
        "id": "1709558766",
        "place_name": "호랑이",
        "address_name": "서울 중구 산림동 207-2",
        "road_address_name": "서울 중구 을지로 157",
        "phone": "02-2269-5880",
        "category_group_name": "카페",
        "category_name": "음식점 > 카페",
        "place_url": "http://place.map.kakao.com/1709558766"
    },
    {
        "id": "87323834",
        "place_name": "더스팟 패뷸러스",
        "address_name": "서울 중구 명동2가 105",
        "road_address_name": "서울 중구 명동2길 22",
        "phone": "02-779-1981",
        "category_group_name": "카페",
        "category_name": "음식점 > 카페 > 커피전문점",
        "place_url": "http://place.map.kakao.com/87323834"
    },
    {
        "id": "243733683",
        "place_name": "덕수궁 리에제와플",
        "address_name": "서울 중구 태평로2가 365",
        "road_address_name": "서울 중구 덕수궁길 5",
        "phone": "02-318-5202",
        "category_group_name": "카페",
        "category_name": "음식점 > 카페",
        "place_url": "http://place.map.kakao.com/243733683"
    },
    {
        "id": "1198183678",
        "place_name": "커피앤시가렛",
        "address_name": "서울 중구 서소문동 75-95",
        "road_address_name": "서울 중구 서소문로 116",
        "phone": "02-777-7557",
        "category_group_name": "카페",
        "category_name": "음식점 > 카페",
        "place_url": "http://place.map.kakao.com/1198183678"
    },
    {
        "id": "253560122",
        "place_name": "커피루소 정동점",
        "address_name": "서울 중구 정동 17-4",
        "road_address_name": "서울 중구 정동길 17",
        "phone": "02-772-9935",
        "category_group_name": "카페",
        "category_name": "음식점 > 카페",
        "place_url": "http://place.map.kakao.com/253560122"
    },
    {
        "id": "1769574951",
        "place_name": "더하우스1932",
        "address_name": "서울 중구 만리동1가 62-16",
        "road_address_name": "서울 중구 만리재로35길 7",
        "phone": "02-365-1932",
        "category_group_name": "카페",
        "category_name": "음식점 > 카페",
        "place_url": "http://place.map.kakao.com/1769574951"
    },
    {
        "id": "1440347564",
        "place_name": "커피한약방",
        "address_name": "서울 중구 을지로2가 101-34",
        "road_address_name": "서울 중구 삼일대로12길 16-6",
        "phone": "070-4148-4242",
        "category_group_name": "카페",
        "category_name": "음식점 > 카페 > 커피전문점",
        "place_url": "http://place.map.kakao.com/1440347564"
    },
    {
        "id": "1345866783",
        "place_name": "적당",
        "address_name": "서울 중구 을지로1가 87",
        "road_address_name": "서울 중구 을지로 29",
        "phone": "070-7543-8928",
        "category_group_name": "카페",
        "category_name": "음식점 > 카페",
        "place_url": "http://place.map.kakao.com/1345866783"
    },
    {
        "id": "1982412866",
        "place_name": "챔프커피 제3작업실",
        "address_name": "서울 중구 을지로4가 9-6",
        "road_address_name": "서울 중구 을지로 157",
        "phone": "010-8943-4516",
        "category_group_name": "카페",
        "category_name": "음식점 > 카페 > 커피전문점",
        "place_url": "http://place.map.kakao.com/1982412866"
    },
    {
        "id": "1873478634",
        "place_name": "리사르커피로스터스 약수점",
        "address_name": "서울 중구 신당동 366-32",
        "road_address_name": "서울 중구 다산로8길 16-7",
        "phone": "070-7677-5538",
        "category_group_name": "카페",
        "category_name": "음식점 > 카페 > 커피전문점",
        "place_url": "http://place.map.kakao.com/1873478634"
    },
    {
        "id": "1039797847",
        "place_name": "섬광",
        "address_name": "서울 중구 충무로4가 32-16",
        "road_address_name": "서울 중구 창경궁로1길 38",
        "phone": "070-8866-8485",
        "category_group_name": "카페",
        "category_name": "음식점 > 카페",
        "place_url": "http://place.map.kakao.com/1039797847"
    },
    {
        "id": "17187804",
        "place_name": "르풀",
        "address_name": "서울 중구 정동 1-28",
        "road_address_name": "서울 중구 정동길 33",
        "phone": "02-3789-0400",
        "category_group_name": "카페",
        "category_name": "음식점 > 카페 > 테마카페",
        "place_url": "http://place.map.kakao.com/17187804"
    },
    {
        "id": "1965342185",
        "place_name": "커피스니퍼",
        "address_name": "서울 중구 북창동 11-3",
        "road_address_name": "서울 중구 세종대로16길 27",
        "phone": "02-3789-1781",
        "category_group_name": "카페",
        "category_name": "음식점 > 카페",
        "place_url": "http://place.map.kakao.com/1965342185"
    },
    {
        "id": "375097954",
        "place_name": "카페피크닉",
        "address_name": "서울 중구 남창동 194",
        "road_address_name": "서울 중구 퇴계로6가길 30",
        "phone": "070-8821-6374",
        "category_group_name": "카페",
        "category_name": "음식점 > 카페",
        "place_url": "http://place.map.kakao.com/375097954"
    },
    {
        "id": "875047420",
        "place_name": "홍만당 명동본점",
        "address_name": "서울 중구 명동2가 32-8",
        "road_address_name": "서울 중구 명동8길 11-6",
        "phone": "02-777-4422",
        "category_group_name": "카페",
        "category_name": "음식점 > 카페 > 테마카페 > 디저트카페",
        "place_url": "http://place.map.kakao.com/875047420"
    },
    {
        "id": "1651034737",
        "place_name": "라운드앤드",
        "address_name": "서울 중구 정동 11-3",
        "road_address_name": "서울 중구 정동길 35",
        "phone": "",
        "category_group_name": "카페",
        "category_name": "음식점 > 카페 > 테마카페 > 디저트카페",
        "place_url": "http://place.map.kakao.com/1651034737"
    },
    {
        "id": "346424300",
        "place_name": "혜민당",
        "address_name": "서울 중구 을지로2가 101-37",
        "road_address_name": "서울 중구 삼일대로12길 16-9",
        "phone": "070-8833-4242",
        "category_group_name": "카페",
        "category_name": "음식점 > 카페 > 테마카페 > 디저트카페",
        "place_url": "http://place.map.kakao.com/346424300"
    },
    {
        "id": "38432219",
        "place_name": "러시아 케이크",
        "address_name": "서울 중구 광희동1가 134",
        "road_address_name": "서울 중구 을지로42길 7",
        "phone": "02-6053-4079",
        "category_group_name": "카페",
        "category_name": "음식점 > 카페 > 테마카페 > 디저트카페",
        "place_url": "http://place.map.kakao.com/38432219"
    },
    {
        "id": "1773363624",
        "place_name": "마뫼",
        "address_name": "서울 중구 회현동1가 산 1-20",
        "road_address_name": "서울 중구 소파로 41",
        "phone": "",
        "category_group_name": "카페",
        "category_name": "음식점 > 카페",
        "place_url": "http://place.map.kakao.com/1773363624"
    },
    {
        "id": "1168606226",
        "place_name": "더피터커피",
        "address_name": "서울 중구 흥인동 63",
        "road_address_name": "서울 중구 퇴계로 411",
        "phone": "",
        "category_group_name": "카페",
        "category_name": "음식점 > 카페",
        "place_url": "http://place.map.kakao.com/1168606226"
    },
    {
        "id": "831681203",
        "place_name": "죠지서울",
        "address_name": "서울 중구 을지로3가 334-7",
        "road_address_name": "서울 중구 을지로12길 6",
        "phone": "070-8810-2693",
        "category_group_name": "카페",
        "category_name": "음식점 > 카페",
        "place_url": "http://place.map.kakao.com/831681203"
    },
    {
        "id": "1254228746",
        "place_name": "수잔나의앞치마",
        "address_name": "서울 중구 충무로5가 36-12",
        "road_address_name": "서울 중구 퇴계로49길 24",
        "phone": "",
        "category_group_name": "카페",
        "category_name": "음식점 > 카페",
        "place_url": "http://place.map.kakao.com/1254228746"
    },
    {
        "id": "8101536",
        "place_name": "코인 명동점",
        "address_name": "서울 중구 명동2가 54-20",
        "road_address_name": "서울 중구 명동6길 10",
        "phone": "02-753-1667",
        "category_group_name": "카페",
        "category_name": "음식점 > 카페",
        "place_url": "http://place.map.kakao.com/8101536"
    },
    {
        "id": "1879590476",
        "place_name": "심세정",
        "address_name": "서울 중구 흥인동 88",
        "road_address_name": "서울 중구 퇴계로 409-11",
        "phone": "070-8823-7577",
        "category_group_name": "카페",
        "category_name": "음식점 > 카페 > 테마카페 > 디저트카페",
        "place_url": "http://place.map.kakao.com/1879590476"
    },
    {
        "id": "252792288",
        "place_name": "카페 아포테케리",
        "address_name": "서울 중구 흥인동 89",
        "road_address_name": "서울 중구 퇴계로 409-9",
        "phone": "02-2236-8987",
        "category_group_name": "카페",
        "category_name": "음식점 > 카페",
        "place_url": "http://place.map.kakao.com/252792288"
    },
    {
        "id": "1798095400",
        "place_name": "몰또 이탈리안 에스프레소바 앤 테라스",
        "address_name": "서울 중구 명동1가 1-3",
        "road_address_name": "서울 중구 명동길 73",
        "phone": "02-778-7779",
        "category_group_name": "카페",
        "category_name": "음식점 > 카페",
        "place_url": "http://place.map.kakao.com/1798095400"
    },
    {
        "id": "557230756",
        "place_name": "바캉스커피",
        "address_name": "서울 중구 다동 117",
        "road_address_name": "서울 중구 남대문로9길 12",
        "phone": "070-8803-2326",
        "category_group_name": "카페",
        "category_name": "음식점 > 카페",
        "place_url": "http://place.map.kakao.com/557230756"
    },
    {
        "id": "893424676",
        "place_name": "한옥카페",
        "address_name": "서울 중구 남대문로4가 71-1",
        "road_address_name": "서울 중구 남대문로 11",
        "phone": "070-4509-9100",
        "category_group_name": "카페",
        "category_name": "음식점 > 카페",
        "place_url": "http://place.map.kakao.com/893424676"
    },
    {
        "id": "1250821144",
        "place_name": "카페라그린",
        "address_name": "서울 중구 정동 32-1",
        "road_address_name": "서울 중구 정동길 26",
        "phone": "02-3789-8005",
        "category_group_name": "카페",
        "category_name": "음식점 > 카페",
        "place_url": "http://place.map.kakao.com/1250821144"
    },
    {
        "id": "170158577",
        "place_name": "커피사",
        "address_name": "서울 중구 을지로3가 277-3",
        "road_address_name": "서울 중구 을지로 142-1",
        "phone": "02-2274-2780",
        "category_group_name": "카페",
        "category_name": "음식점 > 카페",
        "place_url": "http://place.map.kakao.com/170158577"
    },
    {
        "id": "8123091",
        "place_name": "포엠",
        "address_name": "서울 중구 명동2가 54-7",
        "road_address_name": "서울 중구 명동4길 13",
        "phone": "02-776-5003",
        "category_group_name": "카페",
        "category_name": "음식점 > 카페",
        "place_url": "http://place.map.kakao.com/8123091"
    },
    {
        "id": "1824024125",
        "place_name": "오프셋커피",
        "address_name": "서울 중구 신당동 340-83",
        "road_address_name": "서울 중구 다산로20길 7",
        "phone": "070-8790-2650",
        "category_group_name": "카페",
        "category_name": "음식점 > 카페",
        "place_url": "http://place.map.kakao.com/1824024125"
    },
    {
        "id": "22894118",
        "place_name": "스타벅스 환구단점",
        "address_name": "서울 중구 소공동 87-1",
        "road_address_name": "서울 중구 소공로 112",
        "phone": "1522-3232",
        "category_group_name": "카페",
        "category_name": "음식점 > 카페 > 커피전문점 > 스타벅스",
        "place_url": "http://place.map.kakao.com/22894118"
    },
    {
        "id": "47806106",
        "place_name": "분카샤 을지로점",
        "address_name": "서울 중구 을지로3가 302-22",
        "road_address_name": "서울 중구 을지로14길 20",
        "phone": "02-2269-6947",
        "category_group_name": "카페",
        "category_name": "음식점 > 카페",
        "place_url": "http://place.map.kakao.com/47806106"
    },
    {
        "id": "1277741639",
        "place_name": "카페노티드 종각하이커",
        "address_name": "서울 중구 다동 10",
        "road_address_name": "서울 중구 청계천로 40",
        "phone": "0507-1405-0085",
        "category_group_name": "카페",
        "category_name": "음식점 > 카페 > 테마카페 > 디저트카페",
        "place_url": "http://place.map.kakao.com/1277741639"
    },
    {
        "id": "17522361",
        "place_name": "고양이놀이터 명동점",
        "address_name": "서울 중구 충무로2가 66-4",
        "road_address_name": "서울 중구 명동8길 37-14",
        "phone": "",
        "category_group_name": "카페",
        "category_name": "음식점 > 카페 > 테마카페 > 고양이카페",
        "place_url": "http://place.map.kakao.com/17522361"
    },
    {
        "id": "1524619494",
        "place_name": "커피그래",
        "address_name": "서울 중구 신당동 422-1",
        "road_address_name": "서울 중구 동호로 204",
        "phone": "0507-1348-1256",
        "category_group_name": "카페",
        "category_name": "음식점 > 카페 > 커피전문점",
        "place_url": "http://place.map.kakao.com/1524619494"
    },
    {
        "id": "1062422741",
        "place_name": "루프트 명동점",
        "address_name": "서울 중구 충무로2가 50-10",
        "road_address_name": "서울 중구 삼일대로 308",
        "phone": "02-2267-2233",
        "category_group_name": "카페",
        "category_name": "음식점 > 카페",
        "place_url": "http://place.map.kakao.com/1062422741"
    },
    {
        "id": "385848168",
        "place_name": "mwm",
        "address_name": "서울 중구 저동2가 69-1",
        "road_address_name": "서울 중구 수표로 35-1",
        "phone": "",
        "category_group_name": "카페",
        "category_name": "음식점 > 카페",
        "place_url": "http://place.map.kakao.com/385848168"
    },
    {
        "id": "2128655244",
        "place_name": "로이터 커피셸터",
        "address_name": "서울 중구 필동3가 62-11",
        "road_address_name": "서울 중구 필동로 53",
        "phone": "",
        "category_group_name": "카페",
        "category_name": "음식점 > 카페",
        "place_url": "http://place.map.kakao.com/2128655244"
    },
    {
        "id": "380897959",
        "place_name": "계단집",
        "address_name": "서울 중구 회현동1가 150-1",
        "road_address_name": "서울 중구 퇴계로6길 35",
        "phone": "070-4419-7776",
        "category_group_name": "카페",
        "category_name": "음식점 > 카페",
        "place_url": "http://place.map.kakao.com/380897959"
    },
    {
        "id": "27391558",
        "place_name": "호텔수선화",
        "address_name": "서울 중구 을지로3가 302-18",
        "road_address_name": "서울 중구 충무로7길 17",
        "phone": "070-8950-2649",
        "category_group_name": "카페",
        "category_name": "음식점 > 카페",
        "place_url": "http://place.map.kakao.com/27391558"
    },
    {
        "id": "1435193216",
        "place_name": "는커피",
        "address_name": "서울 중구 신당동 288-24",
        "road_address_name": "서울 중구 청구로4길 19",
        "phone": "02-2246-1212",
        "category_group_name": "카페",
        "category_name": "음식점 > 카페 > 커피전문점",
        "place_url": "http://place.map.kakao.com/1435193216"
    },
    {
        "id": "610993395",
        "place_name": "피어커피 광희문점",
        "address_name": "서울 중구 신당동 393-11",
        "road_address_name": "서울 중구 청구로 123",
        "phone": "070-4154-1464",
        "category_group_name": "카페",
        "category_name": "음식점 > 카페",
        "place_url": "http://place.map.kakao.com/610993395"
    },
    {
        "id": "321907882",
        "place_name": "스타벅스 동대문공원점",
        "address_name": "서울 중구 광희동1가 185-1",
        "road_address_name": "서울 중구 장충단로 229",
        "phone": "1522-3232",
        "category_group_name": "카페",
        "category_name": "음식점 > 카페 > 커피전문점 > 스타벅스",
        "place_url": "http://place.map.kakao.com/321907882"
    }
]